{"type":"FeatureCollection","features":[{"type":"Feature","properties":{"OBJECTID_1":1368,"ROCK_NAME":null,"ROCK_TYPE":999,"AQ_NAME":"Other rocks","AQ_CODE":999,"Shape_Leng":235.261919849,"Shape_Area":56.3195377993,"metro":"dallas"},"geometry":{"type":"Polygon","coordinates":[[[-96.5,33.2],[-96.5,32.5],[-97.55,32.5],[-97.55,33.2],[-96.5,33.2]],[[-97.55,33.2],[-97.55,32.86534488315188],[-97.54335827425189,32.86162963585912],[-97.53771227424659,32.85124563584941],[-97.53744527424647,32.8407666358396],[-97.54447127425283,32.83465963583399],[-97.55,32.83456541053087],[-97.55,32.796306173455676],[-97.54707327425535,32.79568063579768],[-97.51116927422186,32.79328963579542],[-97.48627427419865,32.80118963580276],[-97.47222927418557,32.813400635814105],[-97.46883427418243,32.8209416358211],[-97.47119927418476,32.84485963584348],[-97.51215327422278,32.90557863589993],[-97.51604427422649,32.91749163591112],[-97.51865427422877,32.95038263594165],[-97.51397727422454,32.97890863596831],[-97.50563027421686,33.00449363599205],[-97.50955927422046,33.01790663600468],[-97.5083542742193,33.04187763602681],[-97.51242827422311,33.06127163604492],[-97.52194227423183,33.08206963606426],[-97.52613827423579,33.10594563608652],[-97.55,33.148929736609404],[-97.55,33.2]]]}},{"type":"Feature","properties":{"OBJECTID_1":3004,"ROCK_NAME":"Sandstone and carbonate-rock aquifers","ROCK_TYPE":500,"AQ_NAME":"Edwards-Trinity aquifer system","AQ_CODE":501,"Shape_Leng":32.7916232912,"Shape_Area":2.06872347454,"metro":"dallas"},"geometry":{"type":"Polygon","coordinates":[[[-97.55,33.2],[-97.55,33.148929736609404],[-97.52613827423579,33.10594563608652],[-97.52194227423183,33.08206963606426],[-97.51242827422311,33.06127163604492],[-97.5083542742193,33.04187763602681],[-97.50955927422046,33.01790663600468],[-97.50563027421686,33.00449363599205],[-97.51397727422454,32.97890863596831],[-97.51865427422877,32.95038263594165],[-97.51604427422649,32.91749163591112],[-97.51215327422278,32.90557863589993],[-97.47119927418476,32.84485963584348],[-97.46883427418243,32.8209416358211],[-97.47222927418557,32.813400635814105],[-97.48627427419865,32.80118963580276],[-97.51116927422186,32.79328963579542],[-97.54707327425535,32.79568063579768],[-97.55,32.796306173455676],[-97.55,32.83456541053087],[-97.54447127425283,32.83465963583399],[-97.53744527424647,32.8407666358396],[-97.53771227424659,32.85124563584941],[-97.54335827425189,32.86162963585912],[-97.55,32.86534488315188],[-97.55,33.2]]]}}]}