{"type":"FeatureCollection","features":[{"type":"Feature","properties":{"name":"1000 Coit Road","operator":"Lincoln Property Company","city":"Plano","state":"TX","status":"Active"},"geometry":{"type":"Point","coordinates":[-96.76661,33.011708]}},{"type":"Feature","properties":{"name":"24 Hour Data Plano","operator":"24 Hour Data","city":"Plano","state":"TX","status":"Active"},"geometry":{"type":"Point","coordinates":[-96.701994,33.007461]}},{"type":"Feature","properties":{"name":"2440 Marsh Lane (DFW12)","operator":"Digital Realty","city":"Carrollton","state":"TX","status":"Active"},"geometry":{"type":"Point","coordinates":[-96.855517,32.979913]}},{"type":"Feature","properties":{"name":"2501 S. State Highway 121 (DFW26)","operator":"Digital Realty","city":"Lewisville","state":"TX","status":"Active"},"geometry":{"type":"Point","coordinates":[-96.915199,33.054389]}},{"type":"Feature","properties":{"name":"365 Data Centers - Dallas","operator":"365 Data Centers","city":"Dallas","state":"TX","status":"Active"},"geometry":{"type":"Point","coordinates":[-96.794018,32.78693]}},{"type":"Feature","properties":{"name":"4849 Alpha Road (DFW14)","operator":"Digital Realty","city":"Dallas","state":"TX","status":"Active"},"geometry":{"type":"Point","coordinates":[-96.824599,32.933158]}},{"type":"Feature","properties":{"name":"5CDC Dallas-Fort Worth - DFW01","operator":"5C Group Inc.","city":"Fort Worth","state":"TX","status":"Active"},"geometry":{"type":"Point","coordinates":[-97.310754,32.635291]}},{"type":"Feature","properties":{"name":"608 Young Street","operator":"(operator not disclosed)","city":"Dallas","state":"TX","status":"Active"},"geometry":{"type":"Point","coordinates":[-96.805949,32.775986]}},{"type":"Feature","properties":{"name":"850 E. Collins Boulevard (DFW28)","operator":"Digital Realty","city":"Richardson","state":"TX","status":"Active"},"geometry":{"type":"Point","coordinates":[-96.7141,32.967924]}},{"type":"Feature","properties":{"name":"904 Quality Way (DFW21)","operator":"Digital Realty","city":"Richardson","state":"TX","status":"Active"},"geometry":{"type":"Point","coordinates":[-96.714198,32.966737]}},{"type":"Feature","properties":{"name":"907 Security Row (DFW35)","operator":"Digital Realty","city":"Richardson","state":"TX","status":"Active"},"geometry":{"type":"Point","coordinates":[-96.710598,32.964263]}},{"type":"Feature","properties":{"name":"908 Quality Way (DFW20)","operator":"Digital Realty","city":"Richardson","state":"TX","status":"Active"},"geometry":{"type":"Point","coordinates":[-96.713994,32.966736]}},{"type":"Feature","properties":{"name":"950 E. Collins Boulevard (DFW29)","operator":"Digital Realty","city":"Richardson","state":"TX","status":"Active"},"geometry":{"type":"Point","coordinates":[-96.711389,32.967909]}},{"type":"Feature","properties":{"name":"Aligned Plano Campus","operator":"Aligned Data Centers","city":"Plano","state":"TX","status":"Active"},"geometry":{"type":"Point","coordinates":[-96.678415,33.009776]}},{"type":"Feature","properties":{"name":"Alpha Data Center","operator":"M&A Technology Inc.","city":"Dallas","state":"TX","status":"Active"},"geometry":{"type":"Point","coordinates":[-96.834716,32.933163]}},{"type":"Feature","properties":{"name":"ATOS Dallas Data Center","operator":"Atos Group","city":"Dallas","state":"TX","status":"Active"},"geometry":{"type":"Point","coordinates":[-96.794018,32.78693]}},{"type":"Feature","properties":{"name":"Black Mountain Fort Worth","operator":"Black Mountain","city":"Forest Hill","state":"TX","status":"Active"},"geometry":{"type":"Point","coordinates":[-97.269999,32.643951]}},{"type":"Feature","properties":{"name":"Cisco Allen Data Center","operator":"Cisco Systems","city":"Allen","state":"TX","status":"Active"},"geometry":{"type":"Point","coordinates":[-96.663207,33.134364]}},{"type":"Feature","properties":{"name":"CleanArc Dallas","operator":"CleanArc Data Centers","city":"Dallas","state":"TX","status":"Active"},"geometry":{"type":"Point","coordinates":[-96.828537,32.802324]}},{"type":"Feature","properties":{"name":"Cogent Data Center - Dallas","operator":"Cogent Communications, Inc.","city":"Dallas","state":"TX","status":"Active"},"geometry":{"type":"Point","coordinates":[-96.798998,32.778406]}},{"type":"Feature","properties":{"name":"Cogent Data Center - Dallas 2","operator":"Cogent Communications, Inc.","city":"Dallas","state":"TX","status":"Active"},"geometry":{"type":"Point","coordinates":[-96.818445,32.783691]}},{"type":"Feature","properties":{"name":"Cogent Data Center - Fort Worth","operator":"Cogent Communications, Inc.","city":"Fort Worth","state":"TX","status":"Active"},"geometry":{"type":"Point","coordinates":[-97.314787,32.744988]}},{"type":"Feature","properties":{"name":"Cogent Data Center - Irving","operator":"Cogent Communications, Inc.","city":"Irving","state":"TX","status":"Active"},"geometry":{"type":"Point","coordinates":[-96.907447,32.830773]}},{"type":"Feature","properties":{"name":"Cologix Dallas Infomart Suites","operator":"Cologix","city":"Dallas","state":"TX","status":"Active"},"geometry":{"type":"Point","coordinates":[-96.823829,32.801544]}},{"type":"Feature","properties":{"name":"Coravel Fort Worth Campus","operator":"Coravel","city":"Fort Worth","state":"TX","status":"Active"},"geometry":{"type":"Point","coordinates":[-97.400694,32.907968]}},{"type":"Feature","properties":{"name":"CoreSpace Dallas Data Center","operator":"CoreSpace, Inc.","city":"Dallas","state":"TX","status":"Active"},"geometry":{"type":"Point","coordinates":[-96.872457,32.818011]}},{"type":"Feature","properties":{"name":"CoreWeave Plano","operator":"CoreWeave","city":"Plano","state":"TX","status":"Active"},"geometry":{"type":"Point","coordinates":[-96.76661,33.011708]}},{"type":"Feature","properties":{"name":"Csquare - Dallas DFW3-A","operator":"Csquare","city":"Dallas","state":"TX","status":"Active"},"geometry":{"type":"Point","coordinates":[-96.872667,32.910218]}},{"type":"Feature","properties":{"name":"CyrusOne Allen Campus","operator":"CyrusOne Data Centers","city":"Allen","state":"TX","status":"Active"},"geometry":{"type":"Point","coordinates":[-96.663332,33.137233]}},{"type":"Feature","properties":{"name":"CyrusOne DFW1 - Carrollton","operator":"CyrusOne Data Centers","city":"Carrollton","state":"TX","status":"Active"},"geometry":{"type":"Point","coordinates":[-96.930484,32.994965]}},{"type":"Feature","properties":{"name":"CyrusOne DFW2 - Lewisville","operator":"CyrusOne Data Centers","city":"Lewisville","state":"TX","status":"Active"},"geometry":{"type":"Point","coordinates":[-96.915199,33.054389]}},{"type":"Feature","properties":{"name":"CyrusOne DFW3 - Allen","operator":"CyrusOne Data Centers","city":"Allen","state":"TX","status":"Active"},"geometry":{"type":"Point","coordinates":[-96.663332,33.137233]}},{"type":"Feature","properties":{"name":"CyrusOne DFW6 - Richardson","operator":"CyrusOne Data Centers","city":"Richardson","state":"TX","status":"Active"},"geometry":{"type":"Point","coordinates":[-96.695235,32.985365]}},{"type":"Feature","properties":{"name":"Data Canopy - Dallas","operator":"Data Canopy","city":"Dallas","state":"TX","status":"Active"},"geometry":{"type":"Point","coordinates":[-96.800177,32.786224]}},{"type":"Feature","properties":{"name":"DataBank - 2323 Bryan St","operator":"DataBank","city":"Dallas","state":"TX","status":"Active"},"geometry":{"type":"Point","coordinates":[-96.794018,32.78693]}},{"type":"Feature","properties":{"name":"DataBank DFW1 - Downtown Dallas","operator":"DataBank","city":"Dallas","state":"TX","status":"Active"},"geometry":{"type":"Point","coordinates":[-96.798998,32.778406]}},{"type":"Feature","properties":{"name":"DataBank DFW4 - Dallas Empire","operator":"DataBank","city":"Dallas","state":"TX","status":"Active"},"geometry":{"type":"Point","coordinates":[-96.873611,32.822853]}},{"type":"Feature","properties":{"name":"DataBank DFW6 - Dallas Love Field","operator":"DataBank","city":"Dallas","state":"TX","status":"Active"},"geometry":{"type":"Point","coordinates":[-96.865477,32.837367]}},{"type":"Feature","properties":{"name":"DataBank DFW7 - Dallas LBJ","operator":"DataBank","city":"Dallas","state":"TX","status":"Active"},"geometry":{"type":"Point","coordinates":[-96.791726,32.924432]}},{"type":"Feature","properties":{"name":"DataBank DFW8 - Plano","operator":"DataBank","city":"Plano","state":"TX","status":"Active"},"geometry":{"type":"Point","coordinates":[-96.812385,33.085202]}},{"type":"Feature","properties":{"name":"DataBank Plano Campus","operator":"DataBank","city":"Plano","state":"TX","status":"Active"},"geometry":{"type":"Point","coordinates":[-96.812385,33.085202]}},{"type":"Feature","properties":{"name":"DigiCo Dallas DAL1","operator":"DigiCo Infrastructure REIT","city":"Richardson","state":"TX","status":"Active"},"geometry":{"type":"Point","coordinates":[-96.699458,32.98532]}},{"type":"Feature","properties":{"name":"Digital Realty 1232 Alma Road (DFW16)","operator":"Digital Realty","city":"Richardson","state":"TX","status":"Active"},"geometry":{"type":"Point","coordinates":[-96.717178,32.96348]}},{"type":"Feature","properties":{"name":"Digital Realty 2323 Bryan Street (DFW10)","operator":"Digital Realty","city":"Dallas","state":"TX","status":"Active"},"geometry":{"type":"Point","coordinates":[-96.794018,32.78693]}},{"type":"Feature","properties":{"name":"Digital Realty 4025 Midway Rd (DFW11)","operator":"Digital Realty","city":"Carrollton","state":"TX","status":"Active"},"geometry":{"type":"Point","coordinates":[-96.84362,33.021332]}},{"type":"Feature","properties":{"name":"Digital Realty 8435 Stemmons Freeway (DFW36)","operator":"Digital Realty","city":"Dallas","state":"TX","status":"Active"},"geometry":{"type":"Point","coordinates":[-96.873444,32.827973]}},{"type":"Feature","properties":{"name":"Digital Realty 900 Quality Way (DFW17)","operator":"Digital Realty","city":"Richardson","state":"TX","status":"Active"},"geometry":{"type":"Point","coordinates":[-96.714402,32.966739]}},{"type":"Feature","properties":{"name":"Digital Realty Garland Campus","operator":"Digital Realty","city":"Garland","state":"TX","status":"Active"},"geometry":{"type":"Point","coordinates":[-96.653682,32.975565]}},{"type":"Feature","properties":{"name":"Edged Dallas-Fort Worth DFW01 Campus","operator":"Edged Energy","city":"Irving","state":"TX","status":"Active"},"geometry":{"type":"Point","coordinates":[-96.916929,32.817507]}},{"type":"Feature","properties":{"name":"Eonix Communications Dallas","operator":"Eonix Communications Inc","city":"Dallas","state":"TX","status":"Active"},"geometry":{"type":"Point","coordinates":[-96.879424,32.83751]}},{"type":"Feature","properties":{"name":"Epic.io Dallas Data Center","operator":"Epic.io","city":"Dallas","state":"TX","status":"Active"},"geometry":{"type":"Point","coordinates":[-96.870974,32.833386]}},{"type":"Feature","properties":{"name":"Equinix DA11","operator":"Equinix","city":"Dallas","state":"TX","status":"Active"},"geometry":{"type":"Point","coordinates":[-96.824289,32.801683]}},{"type":"Feature","properties":{"name":"Equinix DA12 Campus","operator":"Equinix","city":"Dallas","state":"TX","status":"Active"},"geometry":{"type":"Point","coordinates":[-96.860133,32.822199]}},{"type":"Feature","properties":{"name":"Equinix DA7","operator":"Equinix","city":"Plano","state":"TX","status":"Active"},"geometry":{"type":"Point","coordinates":[-96.809475,33.062841]}},{"type":"Feature","properties":{"name":"Equinix DA9","operator":"Equinix","city":"Irving","state":"TX","status":"Active"},"geometry":{"type":"Point","coordinates":[-96.912475,32.83066]}},{"type":"Feature","properties":{"name":"Equinix Dallas Infomart Suites","operator":"Equinix","city":"Dallas","state":"TX","status":"Active"},"geometry":{"type":"Point","coordinates":[-96.823829,32.801544]}},{"type":"Feature","properties":{"name":"Evocative DAL6","operator":"Evocative Data Centers","city":"Plano","state":"TX","status":"Active"},"geometry":{"type":"Point","coordinates":[-96.766854,33.016063]}},{"type":"Feature","properties":{"name":"Fidium Dallas","operator":"Fidium","city":"Dallas","state":"TX","status":"Active"},"geometry":{"type":"Point","coordinates":[-96.798998,32.778406]}},{"type":"Feature","properties":{"name":"Flexential Dallas - Downtown Data Center","operator":"Flexential","city":"Dallas","state":"TX","status":"Active"},"geometry":{"type":"Point","coordinates":[-96.823829,32.801544]}},{"type":"Feature","properties":{"name":"Flexential Dallas - Plano Data Center","operator":"Flexential","city":"Plano","state":"TX","status":"Active"},"geometry":{"type":"Point","coordinates":[-96.669644,33.00696]}},{"type":"Feature","properties":{"name":"Flexential Dallas - Richardson Data Center","operator":"Flexential","city":"Richardson","state":"TX","status":"Active"},"geometry":{"type":"Point","coordinates":[-96.756174,32.993286]}},{"type":"Feature","properties":{"name":"GDC - Dallas TX1 Data Center","operator":"NTT DATA, Inc.","city":"Garland","state":"TX","status":"Active"},"geometry":{"type":"Point","coordinates":[-96.659648,32.982469]}},{"type":"Feature","properties":{"name":"H5Colo Inc.","operator":"H5 Colo Inc.","city":"Dallas","state":"TX","status":"Active"},"geometry":{"type":"Point","coordinates":[-96.776917,32.920331]}},{"type":"Feature","properties":{"name":"Hivelocity - Dallas 1","operator":"Hivelocity","city":"Dallas","state":"TX","status":"Active"},"geometry":{"type":"Point","coordinates":[-96.879424,32.83751]}},{"type":"Feature","properties":{"name":"Hivelocity - Dallas 2","operator":"Hivelocity","city":"Carrollton","state":"TX","status":"Active"},"geometry":{"type":"Point","coordinates":[-96.930484,32.994965]}},{"type":"Feature","properties":{"name":"IBM DAL01","operator":"IBM","city":"Dallas","state":"TX","status":"Active"},"geometry":{"type":"Point","coordinates":[-96.823829,32.801544]}},{"type":"Feature","properties":{"name":"IBM DAL04","operator":"IBM","city":"Dallas","state":"TX","status":"Active"},"geometry":{"type":"Point","coordinates":[-96.798998,32.778406]}},{"type":"Feature","properties":{"name":"IBM DAL05","operator":"IBM","city":"Dallas","state":"TX","status":"Active"},"geometry":{"type":"Point","coordinates":[-96.824599,32.933158]}},{"type":"Feature","properties":{"name":"IRVING-TX (Dallas, Texas)","operator":"Cloudnium LLC.","city":"Irving","state":"TX","status":"Active"},"geometry":{"type":"Point","coordinates":[-96.986707,32.890644]}},{"type":"Feature","properties":{"name":"KDC Richardson","operator":"KDC","city":"Richardson","state":"TX","status":"Active"},"geometry":{"type":"Point","coordinates":[-96.695235,32.985365]}},{"type":"Feature","properties":{"name":"LightEdge - Dallas","operator":"LightEdge","city":"Lewisville","state":"TX","status":"Active"},"geometry":{"type":"Point","coordinates":[-96.915199,33.054389]}},{"type":"Feature","properties":{"name":"LOGIX Dallas","operator":"LOGIX Fiber Networks","city":"Dallas","state":"TX","status":"Active"},"geometry":{"type":"Point","coordinates":[-96.794018,32.78693]}},{"type":"Feature","properties":{"name":"LOGIX Fort Worth","operator":"LOGIX Fiber Networks","city":"Fort Worth","state":"TX","status":"Active"},"geometry":{"type":"Point","coordinates":[-97.331523,32.751822]}},{"type":"Feature","properties":{"name":"Lumen Dallas","operator":"Lumen","city":"Dallas","state":"TX","status":"Active"},"geometry":{"type":"Point","coordinates":[-96.867233,32.807781]}},{"type":"Feature","properties":{"name":"Lumen Dallas 2","operator":"Lumen","city":"Dallas","state":"TX","status":"Active"},"geometry":{"type":"Point","coordinates":[-96.823829,32.801544]}},{"type":"Feature","properties":{"name":"Lumen Dallas 3","operator":"Lumen","city":"Dallas","state":"TX","status":"Active"},"geometry":{"type":"Point","coordinates":[-96.801289,32.78025]}},{"type":"Feature","properties":{"name":"Lumen Dallas 4","operator":"Lumen","city":"Dallas","state":"TX","status":"Active"},"geometry":{"type":"Point","coordinates":[-96.798998,32.778406]}},{"type":"Feature","properties":{"name":"Lumen Dallas 6","operator":"Lumen","city":"Dallas","state":"TX","status":"Active"},"geometry":{"type":"Point","coordinates":[-96.884189,32.828681]}},{"type":"Feature","properties":{"name":"Lumen Fort Worth 1","operator":"Lumen","city":"Fort Worth","state":"TX","status":"Active"},"geometry":{"type":"Point","coordinates":[-97.324087,32.748729]}},{"type":"Feature","properties":{"name":"Lumen Fort Worth 2","operator":"Lumen","city":"Fort Worth","state":"TX","status":"Active"},"geometry":{"type":"Point","coordinates":[-97.321554,32.755114]}},{"type":"Feature","properties":{"name":"Lunavi Dallas","operator":"Lunavi","city":"Dallas","state":"TX","status":"Active"},"geometry":{"type":"Point","coordinates":[-96.823829,32.801544]}},{"type":"Feature","properties":{"name":"Mobius Partners - Farmers Branch","operator":"Mobius Partners","city":"Farmers Branch","state":"TX","status":"Active"},"geometry":{"type":"Point","coordinates":[-96.837016,32.949292]}},{"type":"Feature","properties":{"name":"Neutron Data Center","operator":"M&A Technology Inc.","city":"Dallas","state":"TX","status":"Active"},"geometry":{"type":"Point","coordinates":[-96.834904,32.93348]}},{"type":"Feature","properties":{"name":"NTT GDC Garland Campus","operator":"NTT DATA, Inc.","city":"Garland","state":"TX","status":"Active"},"geometry":{"type":"Point","coordinates":[-96.659648,32.982469]}},{"type":"Feature","properties":{"name":"PowerHouse Irving Campus","operator":"PowerHouse Data Centers","city":"Irving","state":"TX","status":"Active"},"geometry":{"type":"Point","coordinates":[-96.934307,32.885658]}},{"type":"Feature","properties":{"name":"Prime Dallas Campus","operator":"Prime Data Centers","city":"Dallas","state":"TX","status":"Active"},"geometry":{"type":"Point","coordinates":[-96.879424,32.83751]}},{"type":"Feature","properties":{"name":"Project Labrador","operator":"(operator not disclosed)","city":"Lancaster","state":"TX","status":"Active"},"geometry":{"type":"Point","coordinates":[-96.730535,32.595199]}},{"type":"Feature","properties":{"name":"Provision Data Services","operator":"Provision Data Services","city":"Dallas","state":"TX","status":"Active"},"geometry":{"type":"Point","coordinates":[-96.795047,32.783769]}},{"type":"Feature","properties":{"name":"Psychz Dallas","operator":"Psychz Networks","city":"Dallas","state":"TX","status":"Active"},"geometry":{"type":"Point","coordinates":[-96.879424,32.83751]}},{"type":"Feature","properties":{"name":"QTS Fort Worth 1 Campus","operator":"QTS Data Centers","city":"Fort Worth","state":"TX","status":"Active"},"geometry":{"type":"Point","coordinates":[-97.262721,32.98137]}},{"type":"Feature","properties":{"name":"QTS Irving Campus","operator":"QTS Data Centers","city":"Irving","state":"TX","status":"Active"},"geometry":{"type":"Point","coordinates":[-96.979491,32.893904]}},{"type":"Feature","properties":{"name":"Resilience DFW","operator":"Overwatch Capital","city":"Plano","state":"TX","status":"Active"},"geometry":{"type":"Point","coordinates":[-96.832092,33.067942]}},{"type":"Feature","properties":{"name":"ScaleMatrix Dallas","operator":"ScaleMatrix","city":"Allen","state":"TX","status":"Active"},"geometry":{"type":"Point","coordinates":[-96.661343,33.137142]}},{"type":"Feature","properties":{"name":"Serverphase Data Center","operator":"M&A Technology Inc.","city":"Carrollton","state":"TX","status":"Active"},"geometry":{"type":"Point","coordinates":[-96.844931,32.963905]}},{"type":"Feature","properties":{"name":"Skybox Atlantic Station Campus","operator":"Skybox Datacenters","city":"Plano","state":"TX","status":"Active"},"geometry":{"type":"Point","coordinates":[-96.737609,33.007248]}},{"type":"Feature","properties":{"name":"STACK Infrastructure DFW01 Campus","operator":"STACK Infrastructure","city":"Plano","state":"TX","status":"Active"},"geometry":{"type":"Point","coordinates":[-96.809475,33.062841]}},{"type":"Feature","properties":{"name":"Stream DC DFW VII - Garland","operator":"Stream Data Centers","city":"Garland","state":"TX","status":"Active"},"geometry":{"type":"Point","coordinates":[-96.660361,32.982578]}},{"type":"Feature","properties":{"name":"Stream DC Wilmer II Campus","operator":"Stream Data Centers","city":"Wilmer","state":"TX","status":"Active"},"geometry":{"type":"Point","coordinates":[-96.678693,32.591583]}},{"type":"Feature","properties":{"name":"Synoptek - Dallas Data Center","operator":"Synoptek","city":"Dallas","state":"TX","status":"Active"},"geometry":{"type":"Point","coordinates":[-96.794018,32.78693]}},{"type":"Feature","properties":{"name":"Tier.Net Dallas Data Center","operator":"TierNet","city":"Dallas","state":"TX","status":"Active"},"geometry":{"type":"Point","coordinates":[-96.879424,32.83751]}},{"type":"Feature","properties":{"name":"TierPoint Dallas - Fort Worth","operator":"TierPoint","city":"Fort Worth","state":"TX","status":"Active"},"geometry":{"type":"Point","coordinates":[-97.251015,32.979147]}},{"type":"Feature","properties":{"name":"Tierpoint Dallas-Allen","operator":"TierPoint","city":"Allen","state":"TX","status":"Active"},"geometry":{"type":"Point","coordinates":[-96.661343,33.137142]}},{"type":"Feature","properties":{"name":"TPx Dallas Data Center","operator":"TPx Communications","city":"Dallas","state":"TX","status":"Active"},"geometry":{"type":"Point","coordinates":[-96.797767,32.785595]}},{"type":"Feature","properties":{"name":"TRG Dallas One DFW1","operator":"TRG Datacenters","city":"Farmers Branch","state":"TX","status":"Active"},"geometry":{"type":"Point","coordinates":[-96.833936,32.947915]}},{"type":"Feature","properties":{"name":"VAZATA Dallas Campus (I, III)","operator":"VAZATA","city":"Carrollton","state":"TX","status":"Active"},"geometry":{"type":"Point","coordinates":[-96.84362,33.021332]}},{"type":"Feature","properties":{"name":"VAZATA Dallas II","operator":"VAZATA","city":"Carrollton","state":"TX","status":"Active"},"geometry":{"type":"Point","coordinates":[-96.855517,32.979913]}},{"type":"Feature","properties":{"name":"Wowrack Dallas","operator":"Wowrack","city":"Dallas","state":"TX","status":"Active"},"geometry":{"type":"Point","coordinates":[-96.865237,32.806521]}}]}