{"type":"FeatureCollection","features":[{"type":"Feature","id":215,"geometry":{"type":"Polygon","coordinates":[[[-97.39,33.7329],[-97.401,33.7372],[-97.4076,33.7335],[-97.4156,33.7329],[-97.4207,33.7347],[-97.423,33.7327],[-97.4276,33.7328],[-97.4309,33.7307],[-97.4305,33.7285],[-97.4334,33.7271],[-97.4363,33.7209],[-97.4388,33.7198],[-97.4416,33.7215],[-97.4431,33.7261],[-97.4548,33.7214],[-97.458,33.723],[-97.4664,33.7217],[-97.473,33.7237],[-97.477,33.7286],[-97.4812,33.7277],[-97.4849,33.7241],[-97.4843,33.7175],[-97.4912,33.7189],[-97.4941,33.7173],[-97.5,33.6976],[-97.5083,33.6968],[-97.5121,33.6981],[-97.5181,33.6962],[-97.5205,33.7003],[-97.5199,33.706],[-97.5279,33.716],[-97.5422,33.7181],[-97.5432,33.713],[-97.5472,33.7131],[-97.5458,33.7119],[-97.5474,33.7092],[-97.5538,33.7096],[-97.557,33.7077],[-97.5586,33.7055],[-97.5602,33.6947],[-97.5664,33.6888],[-97.5709,33.6871],[-97.576,33.6902],[-97.5873,33.6887],[-97.595,33.6953],[-97.5964,33.691],[-97.5981,33.6902],[-97.5976,33.6858],[-97.6014,33.6846],[-97.6046,33.6884],[-97.6054,33.6836],[-97.6078,33.6815],[-97.6144,33.6802],[-97.6177,33.6756],[-97.6218,33.6743],[-97.6226,33.6693],[-97.6299,33.6701],[-97.6401,33.6667],[-97.6428,33.6618],[-97.6456,33.662],[-97.6512,33.6571],[-97.6548,33.6561],[-97.6516,33.6498],[-97.6524,33.6481],[-97.6642,33.6513],[-97.67,33.6548],[-97.6752,33.6551],[-97.6769,33.6588],[-97.6814,33.6552],[-97.687,33.646],[-97.6946,33.6479],[-97.6985,33.6419],[-97.7084,33.644],[-97.7102,33.6413],[-97.7133,33.641],[-97.717,33.6425],[-97.7193,33.6482],[-97.724,33.6415],[-97.729,33.6386],[-97.7317,33.6349],[-97.75,33.6492],[-97.7511,33.6531],[-97.756,33.6593],[-97.756,33.6553],[-97.7585,33.6504],[-97.7599,33.6483],[-97.7641,33.6466],[-97.7642,33.6452],[-97.7669,33.6445],[-97.7681,33.6388],[-97.7763,33.64],[-97.7798,33.6364],[-97.7956,33.6368],[-97.8007,33.6321],[-97.8009,33.6262],[-97.8022,33.6255],[-97.8087,33.6255],[-97.8184,33.6298],[-97.8198,33.6282],[-97.8193,33.6245],[-97.8232,33.619],[-97.83,33.6177],[-97.8288,33.6129],[-97.8349,33.6019],[-97.8402,33.5998],[-97.8467,33.6012],[-97.8468,33.5972],[-97.8504,33.5955],[-97.8546,33.598],[-97.8555,33.5912],[-97.8596,33.5895],[-97.8567,33.5861],[-97.8583,33.5829],[-97.8664,33.5853],[-97.8703,33.5806],[-97.8763,33.5819],[-97.8788,33.5806],[-97.8861,33.5814],[-97.8906,33.5766],[-97.8946,33.5751],[-97.8997,33.5751],[-97.9014,33.5789],[-97.9096,33.5707],[-97.9132,33.5729],[-97.9165,33.5705],[-97.9189,33.5718],[-97.9204,33.5758],[-97.9257,33.5774],[-97.9326,33.5755],[-97.9378,33.5755],[-97.9461,33.579],[-97.9559,33.5774],[-97.9593,33.5814],[-97.9665,33.5786],[-97.9701,33.5794],[-97.9732,33.5773],[-97.9805,33.5782],[-97.9846,33.5759],[-97.992,33.578],[-97.9963,33.5735],[-97.9995,33.5771],[-98.0033,33.5771],[-98.0096,33.5819],[-98.0152,33.5812],[-98.018,33.5799],[-98.0167,33.5771],[-98.0199,33.5688],[-98.0183,33.563],[-98.0216,33.5593],[-98.0268,33.5562],[-98.032,33.5595],[-98.0357,33.5585],[-98.0401,33.5608],[-98.0411,33.5648],[-98.043,33.5655],[-98.0499,33.5642],[-98.052,33.5628],[-98.0534,33.5515],[-98.0573,33.5506],[-98.0662,33.5524],[-98.07,33.5475],[-98.0666,33.5435],[-98.0663,33.5407],[-98.0691,33.5373],[-98.0723,33.5362],[-98.0716,33.5304],[-98.0749,33.5277],[-98.0803,33.5265],[-98.0818,33.5229],[-98.088,33.5246],[-98.0922,33.523],[-98.094,33.5244],[-98.0989,33.5239],[-98.1007,33.5266],[-98.1061,33.5295],[-98.1105,33.5269],[-98.1138,33.5277],[-98.1183,33.5246],[-98.1205,33.5264],[-98.1226,33.5255],[-98.1252,33.5282],[-98.1301,33.526],[-98.1357,33.5299],[-98.1468,33.5226],[-98.1503,33.5151],[-98.1547,33.5109],[-98.1638,33.5132],[-98.1675,33.5107],[-98.1713,33.5155],[-98.1706,33.5192],[-98.1747,33.5227],[-98.1758,33.5272],[-98.1744,33.53],[-98.1775,33.5304],[-98.1786,33.5337],[-98.1842,33.5372],[-98.1876,33.5357],[-98.1931,33.539],[-98.1942,33.537],[-98.2046,33.5345],[-98.2055,33.5323],[-98.2089,33.531],[-98.2166,33.5337],[-98.2206,33.5313],[-98.2198,33.5292],[-98.2214,33.527],[-98.2237,33.5274],[-98.2345,33.5366],[-98.2358,33.541],[-98.2339,33.5437],[-98.2355,33.5493],[-98.2385,33.5488],[-98.2409,33.5518],[-98.2443,33.5498],[-98.2486,33.5535],[-98.2594,33.5582],[-98.2637,33.5572],[-98.2638,33.55],[-98.2798,33.5492],[-98.2857,33.5543],[-98.2916,33.5503],[-98.2955,33.5531],[-98.3005,33.5511],[-98.302,33.548],[-98.3036,33.5489],[-98.3054,33.547],[-98.309,33.5466],[-98.3086,33.5432],[-98.3101,33.5418],[-98.3196,33.5414],[-98.3244,33.5311],[-98.3348,33.5301],[-98.3406,33.5241],[-98.3537,33.5241],[-98.3549,33.5222],[-98.3508,33.5193],[-98.3514,33.5172],[-98.3579,33.5106],[-98.3568,33.5079],[-98.3604,33.5039],[-98.3657,33.5036],[-98.3693,33.5078],[-98.3715,33.5073],[-98.3751,33.5099],[-98.3824,33.5114],[-98.3826,33.5098],[-98.3886,33.5094],[-98.3901,33.5112],[-98.3923,33.5049],[-98.3952,33.5031],[-98.4055,33.5029],[-98.4073,33.4982],[-98.4117,33.4967],[-98.4141,33.4989],[-98.415,33.5029],[-98.4184,33.5046],[-98.4225,33.5028],[-98.4256,33.5055],[-98.4249,33.5105],[-98.4325,33.5092],[-98.4371,33.5115],[-98.4407,33.5158],[-98.4521,33.5094],[-98.4572,33.5121],[-98.4634,33.5116],[-98.4726,33.5146],[-98.4812,33.5063],[-98.4916,33.5009],[-98.5016,33.5032],[-98.5035,33.5063],[-98.5101,33.5075],[-98.5145,33.5057],[-98.5216,33.4997],[-98.5394,33.5013],[-98.5416,33.5032],[-98.5461,33.5017],[-98.5476,33.503],[-98.5513,33.5022],[-98.5626,33.4955],[-98.5716,33.4946],[-98.5729,33.4927],[-98.578,33.4916],[-98.5778,33.4849],[-98.5805,33.4826],[-98.5862,33.4856],[-98.593,33.4853],[-98.5931,33.484],[-98.5983,33.4817],[-98.6,33.4842],[-98.6024,33.4845],[-98.6037,33.4813],[-98.611,33.4801],[-98.6114,33.4774],[-98.6187,33.4738],[-98.6223,33.4774],[-98.6313,33.4752],[-98.6341,33.4764],[-98.6383,33.4745],[-98.6436,33.4758],[-98.6508,33.4722],[-98.6499,33.4687],[-98.6577,33.4647],[-98.6615,33.4656],[-98.6646,33.4632],[-98.6697,33.463],[-98.6718,33.4612],[-98.6751,33.4633],[-98.6826,33.4496],[-98.69,33.4489],[-98.6971,33.4434],[-98.6982,33.4346],[-98.7033,33.4283],[-98.706,33.4295],[-98.7056,33.4317],[-98.7111,33.4344],[-98.7235,33.4311],[-98.7223,33.4273],[-98.7246,33.4273],[-98.7271,33.4223],[-98.7328,33.4208],[-98.7356,33.418],[-98.7367,33.4113],[-98.7326,33.4077],[-98.7294,33.4],[-98.7268,33.3979],[-98.7221,33.4009],[-98.7177,33.4014],[-98.7154,33.4046],[-98.7146,33.402],[-98.7082,33.4024],[-98.7061,33.4005],[-98.6995,33.3995],[-98.7019,33.3971],[-98.7015,33.3942],[-98.7042,33.3942],[-98.7052,33.392],[-98.7004,33.3861],[-98.7013,33.3843],[-98.7037,33.384],[-98.7037,33.3804],[-98.6983,33.3744],[-98.7001,33.3663],[-98.6948,33.3629],[-98.6822,33.3658],[-98.6769,33.3621],[-98.6712,33.3612],[-98.6628,33.3663],[-98.6468,33.3583],[-98.639,33.3612],[-98.6326,33.3608],[-98.6259,33.3656],[-98.62,33.3661],[-98.6151,33.3689],[-98.608,33.3653],[-98.6042,33.3587],[-98.6055,33.3556],[-98.6037,33.3522],[-98.5932,33.3435],[-98.5935,33.3404],[-98.5909,33.3358],[-98.5865,33.3338],[-98.5837,33.3295],[-98.5928,33.3257],[-98.5917,33.3194],[-98.5864,33.3145],[-98.5884,33.3122],[-98.5873,33.3073],[-98.5904,33.3071],[-98.5915,33.3014],[-98.5891,33.2998],[-98.5897,33.2966],[-98.582,33.2918],[-98.5775,33.286],[-98.5798,33.2825],[-98.5765,33.2789],[-98.5672,33.28],[-98.556,33.2772],[-98.5511,33.2807],[-98.5483,33.2871],[-98.5444,33.2859],[-98.5457,33.2804],[-98.5411,33.2772],[-98.5446,33.2724],[-98.5446,33.2692],[-98.5409,33.2654],[-98.5399,33.2593],[-98.5311,33.2545],[-98.5282,33.2569],[-98.5246,33.2557],[-98.5234,33.2586],[-98.5189,33.2614],[-98.5204,33.2652],[-98.5129,33.2682],[-98.5089,33.2688],[-98.5026,33.2656],[-98.4985,33.2565],[-98.5005,33.2511],[-98.4992,33.2491],[-98.4998,33.2457],[-98.4964,33.2437],[-98.4914,33.2446],[-98.4844,33.2386],[-98.4746,33.2381],[-98.4681,33.2401],[-98.4624,33.2379],[-98.4612,33.2356],[-98.4636,33.232],[-98.46,33.2245],[-98.4566,33.2219],[-98.4566,33.2169],[-98.4507,33.2154],[-98.4493,33.2171],[-98.4421,33.2172],[-98.4353,33.2124],[-98.4267,33.2169],[-98.4186,33.2159],[-98.4164,33.2184],[-98.4168,33.2213],[-98.4123,33.2223],[-98.4088,33.2208],[-98.4054,33.2252],[-98.3974,33.2279],[-98.3947,33.2205],[-98.3902,33.2208],[-98.3809,33.2171],[-98.379,33.2132],[-98.3771,33.2132],[-98.3766,33.2062],[-98.3714,33.2031],[-98.3665,33.2021],[-98.3594,33.2124],[-98.3568,33.2128],[-98.3523,33.2092],[-98.3463,33.2101],[-98.3404,33.2058],[-98.3393,33.2024],[-98.3359,33.2017],[-98.3345,33.2032],[-98.3259,33.2036],[-98.3262,33.2021],[-98.3236,33.1997],[-98.3147,33.2011],[-98.308,33.1957],[-98.3045,33.1975],[-98.3045,33.2006],[-98.3026,33.203],[-98.2984,33.2053],[-98.2912,33.2016],[-98.2884,33.1966],[-98.2809,33.1951],[-98.2775,33.1911],[-98.2695,33.1944],[-98.2699,33.1917],[-98.2655,33.1888],[-98.261,33.1897],[-98.2548,33.1873],[-98.2505,33.1883],[-98.2469,33.1859],[-98.2477,33.1817],[-98.2449,33.181],[-98.2441,33.1785],[-98.2404,33.1767],[-98.2351,33.1695],[-98.2318,33.1712],[-98.2274,33.171],[-98.2248,33.1656],[-98.2218,33.1675],[-98.2176,33.1675],[-98.2144,33.163],[-98.2074,33.1619],[-98.2046,33.1592],[-98.1973,33.1591],[-98.1938,33.162],[-98.1893,33.1614],[-98.1858,33.1569],[-98.1831,33.1562],[-98.1835,33.1534],[-98.1806,33.1509],[-98.1803,33.1469],[-98.1769,33.1414],[-98.1736,33.1416],[-98.1694,33.1359],[-98.1654,33.1348],[-98.1571,33.1387],[-98.1517,33.1358],[-98.1489,33.1308],[-98.1374,33.127],[-98.1364,33.126],[-98.1374,33.1234],[-98.132,33.1169],[-98.1285,33.1166],[-98.1269,33.1111],[-98.1201,33.1132],[-98.1189,33.1174],[-98.1118,33.1166],[-98.1057,33.1193],[-98.0999,33.1194],[-98.095,33.1172],[-98.0894,33.1097],[-98.0841,33.1087],[-98.0744,33.1101],[-98.0723,33.1043],[-98.0721,33.0958],[-98.0702,33.0929],[-98.0675,33.0935],[-98.0673,33.09],[-98.0631,33.0869],[-98.0627,33.0836],[-98.0507,33.0808],[-98.0424,33.0827],[-98.0403,33.0811],[-98.0388,33.0767],[-98.0329,33.0731],[-98.0286,33.0739],[-98.0233,33.0714],[-98.0193,33.0745],[-98.0125,33.0696],[-98.0098,33.0703],[-98.0048,33.0683],[-98.0049,33.0638],[-98.0002,33.0557],[-97.9998,33.0509],[-97.9945,33.0493],[-97.9908,33.0443],[-97.9903,33.0365],[-97.9885,33.0338],[-97.9906,33.0321],[-97.9876,33.0268],[-97.982,33.0257],[-97.9826,33.0235],[-97.9806,33.0223],[-97.9804,33.0192],[-97.9755,33.0184],[-97.9697,33.0083],[-97.9606,33.0164],[-97.9537,33.0142],[-97.9518,33.0023],[-97.9488,33.0035],[-97.9416,33.0015],[-97.9395,32.991],[-97.9335,32.9905],[-97.9316,32.984],[-97.9274,32.9828],[-97.926,32.9801],[-97.9274,32.9768],[-97.9267,32.9698],[-97.9229,32.9651],[-97.9225,32.9594],[-97.9127,32.9599],[-97.9132,32.9573],[-97.9104,32.9531],[-97.91,32.949],[-97.9082,32.9481],[-97.9111,32.9462],[-97.9136,32.9404],[-97.91,32.935],[-97.9048,32.9318],[-97.9053,32.9279],[-97.9005,32.927],[-97.8942,32.9195],[-97.8883,32.9173],[-97.8845,32.9092],[-97.8769,32.9098],[-97.8749,32.9052],[-97.8696,32.9025],[-97.8704,32.8987],[-97.8669,32.8952],[-97.8677,32.8908],[-97.87,32.8881],[-97.8697,32.8849],[-97.8742,32.8808],[-97.8736,32.8748],[-97.8837,32.8716],[-97.8827,32.8691],[-97.8865,32.8644],[-97.8857,32.8564],[-97.8882,32.8535],[-97.8818,32.8427],[-97.8801,32.8366],[-97.8837,32.8353],[-97.8822,32.8322],[-97.8838,32.8261],[-97.8808,32.8192],[-97.8852,32.8075],[-97.8805,32.8035],[-97.8797,32.7986],[-97.8753,32.8007],[-97.8696,32.8002],[-97.8641,32.7959],[-97.8646,32.7921],[-97.8628,32.7893],[-97.8568,32.7888],[-97.8559,32.7869],[-97.8479,32.785],[-97.8454,32.7813],[-97.842,32.7804],[-97.8414,32.7773],[-97.8367,32.7774],[-97.8357,32.7747],[-97.8317,32.7721],[-97.832,32.7676],[-97.8289,32.7674],[-97.8264,32.7652],[-97.8241,32.7592],[-97.8169,32.7576],[-97.8136,32.7524],[-97.8143,32.7474],[-97.8129,32.7436],[-97.805,32.739],[-97.8013,32.7347],[-97.7972,32.7369],[-97.791,32.7341],[-97.7914,32.7311],[-97.7897,32.7285],[-97.7802,32.7199],[-97.7814,32.7142],[-97.7768,32.709],[-97.7746,32.7034],[-97.7721,32.7016],[-97.7703,32.6965],[-97.7556,32.6931],[-97.7497,32.6857],[-97.7432,32.6848],[-97.7387,32.681],[-97.7383,32.6779],[-97.7353,32.6783],[-97.7335,32.6768],[-97.7362,32.6702],[-97.7301,32.6649],[-97.7297,32.6623],[-97.7334,32.6595],[-97.7383,32.6588],[-97.7382,32.6501],[-97.7354,32.6483],[-97.7324,32.6488],[-97.7301,32.645],[-97.727,32.6455],[-97.7247,32.642],[-97.7137,32.6365],[-97.6946,32.6323],[-97.6918,32.6257],[-97.6939,32.6235],[-97.6945,32.6184],[-97.6895,32.615],[-97.6881,32.6086],[-97.6844,32.6073],[-97.684,32.604],[-97.6868,32.6016],[-97.6853,32.5936],[-97.6839,32.592],[-97.6803,32.5931],[-97.6778,32.5907],[-97.6799,32.5841],[-97.6769,32.581],[-97.6768,32.5788],[-97.6796,32.5772],[-97.6807,32.5735],[-97.6764,32.5695],[-97.677,32.5647],[-97.6725,32.5572],[-97.6667,32.5528],[-97.6604,32.553],[-97.6551,32.5485],[-97.6486,32.5515],[-97.639,32.5434],[-97.6382,32.5396],[-97.6344,32.5407],[-97.6271,32.5388],[-97.614,32.5303],[-97.6062,32.5322],[-97.6012,32.5292],[-97.5966,32.5231],[-97.5949,32.5096],[-97.5903,32.5061],[-97.5852,32.5066],[-97.5832,32.5052],[-97.5821,32.5021],[-97.5785,32.499],[-97.5785,32.495],[-97.5714,32.4925],[-97.5626,32.4934],[-97.5602,32.4978],[-97.557,32.5],[-97.5544,32.4983],[-97.5464,32.4984],[-97.5427,32.495],[-97.5389,32.4951],[-97.5348,32.4983],[-97.5301,32.494],[-97.5224,32.4945],[-97.5157,32.4986],[-97.5079,32.4959],[-97.5037,32.4899],[-97.4994,32.487],[-97.4898,32.4894],[-97.4856,32.4857],[-97.4733,32.488],[-97.4707,32.4805],[-97.4662,32.4782],[-97.4635,32.4738],[-97.463,32.4684],[-97.4598,32.465],[-97.4589,32.4594],[-97.4535,32.457],[-97.4492,32.457],[-97.4476,32.4608],[-97.4445,32.4627],[-97.4378,32.4614],[-97.4351,32.466],[-97.4276,32.461],[-97.4245,32.4633],[-97.4213,32.461],[-97.4176,32.4612],[-97.4142,32.4648],[-97.4129,32.4696],[-97.4055,32.4721],[-97.4041,32.4766],[-97.4025,32.4769],[-97.3965,32.4705],[-97.3924,32.4717],[-97.3878,32.4693],[-97.3885,32.4599],[-97.3861,32.4577],[-97.3796,32.4558],[-97.3769,32.4577],[-97.3683,32.4563],[-97.3618,32.4626],[-97.3593,32.4621],[-97.3566,32.4589],[-97.3526,32.4587],[-97.3517,32.4566],[-97.3531,32.4526],[-97.3465,32.4497],[-97.343,32.4499],[-97.3426,32.4419],[-97.3336,32.4387],[-97.3318,32.4336],[-97.3332,32.43],[-97.332,32.4244],[-97.3371,32.4202],[-97.3338,32.4185],[-97.3362,32.4093],[-97.3317,32.4087],[-97.3319,32.4045],[-97.3327,32.4012],[-97.3378,32.3987],[-97.3332,32.3957],[-97.3262,32.3957],[-97.3301,32.3889],[-97.3297,32.3847],[-97.3233,32.3785],[-97.3247,32.3751],[-97.3226,32.3708],[-97.3255,32.3689],[-97.3246,32.3659],[-97.3268,32.3643],[-97.3257,32.3613],[-97.3276,32.3566],[-97.3238,32.3551],[-97.3234,32.3506],[-97.3112,32.349],[-97.31,32.3463],[-97.2952,32.3387],[-97.2924,32.3351],[-97.2838,32.3391],[-97.2823,32.3441],[-97.2796,32.3452],[-97.2774,32.3379],[-97.27,32.3315],[-97.2724,32.3273],[-97.2708,32.3218],[-97.2739,32.3176],[-97.2727,32.3146],[-97.2698,32.3127],[-97.2732,32.3068],[-97.2712,32.3032],[-97.272,32.2952],[-97.2759,32.2906],[-97.2744,32.2839],[-97.2707,32.2821],[-97.2732,32.2788],[-97.2717,32.2761],[-97.2755,32.2742],[-97.2744,32.271],[-97.2759,32.2669],[-97.2737,32.2632],[-97.276,32.2617],[-97.2758,32.2551],[-97.2833,32.2549],[-97.2839,32.2519],[-97.2789,32.252],[-97.2709,32.2494],[-97.2693,32.2446],[-97.2705,32.2407],[-97.2681,32.2389],[-97.2682,32.2362],[-97.2663,32.234],[-97.2635,32.2328],[-97.2514,32.2331],[-97.249,32.2279],[-97.2408,32.224],[-97.2399,32.2209],[-97.241,32.2183],[-97.2444,32.2162],[-97.2416,32.2114],[-97.2441,32.2094],[-97.2448,32.2024],[-97.243,32.1999],[-97.2369,32.1996],[-97.2341,32.1919],[-97.2252,32.1915],[-97.2201,32.1882],[-97.2137,32.1896],[-97.2146,32.1836],[-97.2098,32.179],[-97.203,32.1776],[-97.2005,32.1703],[-97.194,32.1705],[-97.1902,32.1763],[-97.184,32.1716],[-97.1815,32.1718],[-97.1793,32.1796],[-97.1774,32.18],[-97.1741,32.1787],[-97.171,32.1746],[-97.1629,32.169],[-97.1569,32.1674],[-97.1523,32.1704],[-97.1473,32.1699],[-97.1456,32.1616],[-97.1389,32.1612],[-97.1359,32.1588],[-97.1329,32.1594],[-97.13,32.1544],[-97.1279,32.1537],[-97.1231,32.1537],[-97.1203,32.1556],[-97.1165,32.1536],[-97.1112,32.1546],[-97.1052,32.1595],[-97.104,32.1636],[-97.0971,32.1659],[-97.0943,32.1626],[-97.0907,32.1616],[-97.0897,32.1595],[-97.0921,32.1564],[-97.0893,32.1515],[-97.084,32.1525],[-97.0774,32.1371],[-97.0718,32.1346],[-97.0745,32.1269],[-97.0706,32.1249],[-97.0693,32.1206],[-97.0667,32.1199],[-97.0654,32.1161],[-97.0692,32.1112],[-97.0683,32.1063],[-97.0654,32.1025],[-97.0613,32.1017],[-97.0639,32.0943],[-97.0602,32.0936],[-97.0611,32.0895],[-97.0561,32.0861],[-97.0555,32.0785],[-97.0526,32.0793],[-97.0515,32.0782],[-97.0514,32.0688],[-97.0593,32.0663],[-97.0587,32.0599],[-97.0555,32.0552],[-97.0603,32.0485],[-97.0584,32.0469],[-97.0579,32.0426],[-97.0537,32.0404],[-97.0525,32.0352],[-97.0562,32.0297],[-97.0595,32.0288],[-97.0605,32.0266],[-97.0597,32.0199],[-97.0555,32.0156],[-97.0559,32.0017],[-97.0534,32.0001],[-97.0542,31.9942],[-97.0519,31.9918],[-97.0532,31.9866],[-97.0467,31.979],[-97.0499,31.9728],[-97.0467,31.9636],[-97.0497,31.9566],[-97.0473,31.9509],[-97.0515,31.939],[-97.052,31.9316],[-97.0507,31.9273],[-97.0574,31.9202],[-97.0546,31.9139],[-97.0593,31.909],[-97.0594,31.9056],[-97.0397,31.907],[-97.0332,31.9052],[-97.0298,31.9013],[-97.0255,31.9017],[-97.0213,31.8992],[-97.0175,31.9007],[-97.0146,31.8951],[-97.0106,31.8936],[-97.0078,31.8892],[-97.0043,31.8876],[-96.999,31.8917],[-96.9949,31.8911],[-96.9907,31.8882],[-96.9857,31.8905],[-96.9813,31.8847],[-96.9771,31.8856],[-96.9768,31.8803],[-96.973,31.8761],[-96.9726,31.8731],[-96.966,31.8729],[-96.9612,31.8702],[-96.9545,31.8732],[-96.9526,31.8724],[-96.9477,31.867],[-96.9477,31.8616],[-96.9449,31.8523],[-96.9322,31.8392],[-96.921,31.8463],[-96.9117,31.8483],[-96.9107,31.8522],[-96.9076,31.8535],[-96.9072,31.8498],[-96.9019,31.8462],[-96.9003,31.8411],[-96.8976,31.839],[-96.8985,31.8318],[-96.8957,31.824],[-96.8998,31.8214],[-96.9004,31.8166],[-96.8987,31.8124],[-96.8957,31.8126],[-96.8962,31.8094],[-96.8933,31.808],[-96.8941,31.8036],[-96.892,31.7983],[-96.8885,31.7983],[-96.8798,31.793],[-96.8704,31.8102],[-96.8554,31.801],[-96.8458,31.8064],[-96.8416,31.8062],[-96.836,31.8033],[-96.8228,31.8145],[-96.818,31.8068],[-96.8137,31.804],[-96.8111,31.8041],[-96.8102,31.7991],[-96.8055,31.7947],[-96.8006,31.7844],[-96.7948,31.7822],[-96.7884,31.7768],[-96.7824,31.7792],[-96.7767,31.7843],[-96.7759,31.7793],[-96.7736,31.7765],[-96.7703,31.7761],[-96.7668,31.7728],[-96.7552,31.7723],[-96.7499,31.7643],[-96.7449,31.7642],[-96.744,31.7569],[-96.7401,31.7563],[-96.7365,31.749],[-96.7331,31.7473],[-96.7302,31.7544],[-96.7255,31.7556],[-96.7232,31.7581],[-96.719,31.754],[-96.7112,31.7511],[-96.7073,31.7528],[-96.7052,31.7509],[-96.6999,31.7516],[-96.6979,31.7483],[-96.698,31.7441],[-96.6928,31.7406],[-96.6825,31.738],[-96.6751,31.7384],[-96.6661,31.7418],[-96.664,31.7488],[-96.6603,31.7477],[-96.6567,31.7493],[-96.6551,31.7524],[-96.6571,31.7539],[-96.6565,31.7559],[-96.6496,31.7542],[-96.6435,31.7574],[-96.6316,31.7585],[-96.6297,31.754],[-96.6306,31.75],[-96.6285,31.746],[-96.6286,31.7418],[-96.6185,31.7261],[-96.6099,31.7195],[-96.5999,31.7179],[-96.5983,31.7209],[-96.5934,31.7234],[-96.5885,31.7203],[-96.5873,31.7163],[-96.5757,31.7201],[-96.57,31.7178],[-96.5679,31.714],[-96.5638,31.713],[-96.5518,31.7242],[-96.5493,31.7298],[-96.5501,31.733],[-96.5486,31.7339],[-96.5478,31.7407],[-96.5515,31.7435],[-96.5501,31.7473],[-96.5368,31.7556],[-96.5358,31.7658],[-96.5325,31.767],[-96.5319,31.7706],[-96.5293,31.7718],[-96.5298,31.7775],[-96.5245,31.7868],[-96.5272,31.7905],[-96.5255,31.7945],[-96.5219,31.7967],[-96.5157,31.7969],[-96.5128,31.8062],[-96.5046,31.8111],[-96.5034,31.8139],[-96.5053,31.8165],[-96.5041,31.824],[-96.5005,31.8275],[-96.5002,31.8302],[-96.4967,31.8299],[-96.4936,31.838],[-96.493,31.8524],[-96.486,31.8503],[-96.4747,31.8529],[-96.4676,31.8473],[-96.4455,31.8416],[-96.4405,31.8425],[-96.4384,31.8453],[-96.439,31.8492],[-96.4368,31.8512],[-96.4344,31.8504],[-96.4325,31.8522],[-96.4272,31.8513],[-96.4257,31.854],[-96.4222,31.8534],[-96.4164,31.8595],[-96.413,31.858],[-96.4105,31.8503],[-96.4076,31.8497],[-96.4071,31.8527],[-96.4042,31.8546],[-96.4043,31.8572],[-96.3987,31.8605],[-96.3956,31.8648],[-96.3787,31.8635],[-96.3774,31.8658],[-96.3668,31.8705],[-96.3628,31.8664],[-96.3582,31.8725],[-96.3529,31.8753],[-96.3499,31.879],[-96.3479,31.8844],[-96.3498,31.8881],[-96.3471,31.8901],[-96.3421,31.8849],[-96.3369,31.889],[-96.3351,31.8885],[-96.3341,31.8845],[-96.3259,31.8854],[-96.323,31.8893],[-96.3205,31.8982],[-96.3165,31.9007],[-96.3163,31.9064],[-96.3148,31.9076],[-96.3103,31.909],[-96.3078,31.9059],[-96.3045,31.9067],[-96.2995,31.9032],[-96.2928,31.9136],[-96.2888,31.9156],[-96.2816,31.9106],[-96.2768,31.91],[-96.2734,31.9151],[-96.2651,31.9202],[-96.2627,31.9274],[-96.2576,31.9313],[-96.253,31.9313],[-96.2501,31.9333],[-96.2441,31.9329],[-96.2417,31.9308],[-96.2396,31.9332],[-96.2375,31.9324],[-96.2325,31.9359],[-96.2248,31.9379],[-96.2204,31.9347],[-96.2092,31.9345],[-96.199,31.9433],[-96.1876,31.9437],[-96.1801,31.938],[-96.1714,31.9467],[-96.1646,31.9458],[-96.1615,31.9407],[-96.1435,31.9414],[-96.1376,31.939],[-96.1311,31.9404],[-96.1274,31.9367],[-96.1224,31.9368],[-96.1206,31.9346],[-96.1142,31.9328],[-96.1117,31.9376],[-96.1064,31.9381],[-96.1056,31.9405],[-96.1028,31.9415],[-96.1008,31.9477],[-96.0929,31.9451],[-96.0824,31.9497],[-96.0704,31.9483],[-96.0621,31.9595],[-96.0576,31.9574],[-96.0516,31.959],[-96.0468,31.9574],[-96.0425,31.959],[-96.0353,31.9673],[-96.0352,31.9729],[-96.0294,31.9766],[-96.024,31.9776],[-96.0222,31.9815],[-96.019,31.984],[-96.0061,31.9813],[-95.9821,31.9873],[-95.9742,31.9863],[-95.9699,31.9873],[-95.964,31.9925],[-95.9627,31.9993],[-95.9588,31.9997],[-95.9543,32.0042],[-95.9494,32.0051],[-95.9484,32.0098],[-95.9447,32.0088],[-95.9412,32.0127],[-95.9356,32.0145],[-95.9344,32.0164],[-95.9271,32.0132],[-95.9257,32.0158],[-95.9266,32.0201],[-95.9231,32.0261],[-95.9206,32.0273],[-95.92,32.0344],[-95.9175,32.0377],[-95.915,32.038],[-95.9135,32.0415],[-95.9098,32.042],[-95.9053,32.0496],[-95.9124,32.0605],[-95.9114,32.0626],[-95.9187,32.0721],[-95.9208,32.083],[-95.9314,32.0838],[-95.9226,32.0896],[-95.9319,32.1008],[-95.9268,32.1013],[-95.9234,32.1046],[-95.9218,32.1043],[-95.9214,32.1081],[-95.9186,32.1064],[-95.9132,32.1067],[-95.9123,32.112],[-95.9042,32.1096],[-95.9038,32.114],[-95.8971,32.1172],[-95.8923,32.1223],[-95.8947,32.1294],[-95.891,32.1321],[-95.8924,32.1351],[-95.8913,32.1412],[-95.8967,32.1474],[-95.8971,32.1532],[-95.8991,32.1542],[-95.8981,32.1561],[-95.9045,32.1642],[-95.9015,32.1645],[-95.8982,32.1672],[-95.8972,32.1687],[-95.8984,32.172],[-95.8949,32.1727],[-95.8931,32.1749],[-95.8918,32.1742],[-95.8877,32.1777],[-95.8845,32.1766],[-95.8809,32.1771],[-95.88,32.1788],[-95.8772,32.1779],[-95.8764,32.1817],[-95.8735,32.1819],[-95.8724,32.1799],[-95.8664,32.1819],[-95.8606,32.1778],[-95.8521,32.1793],[-95.8487,32.1834],[-95.8508,32.1861],[-95.8497,32.1883],[-95.8457,32.1905],[-95.8437,32.1943],[-95.8403,32.1945],[-95.8443,32.2007],[-95.8415,32.2034],[-95.8362,32.2052],[-95.8365,32.2119],[-95.8333,32.2223],[-95.8306,32.2211],[-95.8287,32.222],[-95.8204,32.2183],[-95.8145,32.2214],[-95.8165,32.2264],[-95.807,32.2286],[-95.8058,32.241],[-95.8087,32.2479],[-95.8087,32.2544],[-95.8054,32.2578],[-95.8025,32.2578],[-95.802,32.263],[-95.7977,32.2652],[-95.7971,32.2673],[-95.7974,32.2708],[-95.802,32.2758],[-95.8018,32.2799],[-95.8056,32.284],[-95.8066,32.2901],[-95.8098,32.2933],[-95.8091,32.2984],[-95.8062,32.303],[-95.8035,32.3042],[-95.806,32.3134],[-95.8085,32.3164],[-95.8154,32.3111],[-95.8226,32.3119],[-95.8252,32.3144],[-95.8259,32.3189],[-95.8353,32.3234],[-95.8377,32.3211],[-95.8386,32.3166],[-95.8445,32.3168],[-95.8573,32.3108],[-95.8592,32.3137],[-95.8641,32.3153],[-95.8667,32.3078],[-95.8764,32.3069],[-95.879,32.3109],[-95.8761,32.3104],[-95.8749,32.3125],[-95.8784,32.3175],[-95.8746,32.3219],[-95.878,32.3242],[-95.8831,32.3223],[-95.8837,32.3272],[-95.889,32.3302],[-95.8907,32.3341],[-95.8941,32.3331],[-95.8975,32.336],[-95.8958,32.3406],[-95.9011,32.3452],[-95.9034,32.3497],[-95.9057,32.3506],[-95.9064,32.3577],[-95.9095,32.3577],[-95.9135,32.3602],[-95.9137,32.3674],[-95.9169,32.3708],[-95.9165,32.3729],[-95.9195,32.3751],[-95.9211,32.3805],[-95.9249,32.3808],[-95.9238,32.3842],[-95.9258,32.3911],[-95.925,32.3936],[-95.9223,32.3947],[-95.9232,32.4026],[-95.9116,32.4078],[-95.9141,32.4125],[-95.9199,32.414],[-95.9218,32.4183],[-95.9166,32.421],[-95.9154,32.4275],[-95.9204,32.4274],[-95.9229,32.4306],[-95.9228,32.4346],[-95.9194,32.4373],[-95.9196,32.4392],[-95.9221,32.4442],[-95.9255,32.4437],[-95.9256,32.4447],[-95.9194,32.4529],[-95.9193,32.456],[-95.9248,32.4574],[-95.9211,32.4672],[-95.9056,32.4751],[-95.9034,32.4776],[-95.9036,32.4857],[-95.8961,32.4872],[-95.8941,32.4896],[-95.8957,32.4932],[-95.8939,32.4958],[-95.8905,32.4965],[-95.8871,32.5014],[-95.8916,32.5101],[-95.895,32.5098],[-95.8974,32.5128],[-95.9009,32.5134],[-95.8961,32.5217],[-95.8987,32.5254],[-95.8952,32.528],[-95.8956,32.5323],[-95.9026,32.5353],[-95.9017,32.5389],[-95.903,32.5425],[-95.9015,32.5483],[-95.8991,32.5509],[-95.9007,32.5571],[-95.8966,32.5658],[-95.9028,32.5749],[-95.9072,32.5786],[-95.9025,32.5834],[-95.8996,32.5898],[-95.8986,32.5981],[-95.8996,32.6005],[-95.9029,32.6016],[-95.904,32.6069],[-95.9022,32.6129],[-95.8988,32.6165],[-95.9025,32.6168],[-95.9099,32.6127],[-95.9162,32.6131],[-95.9183,32.6178],[-95.9312,32.6221],[-95.9305,32.6257],[-95.941,32.6383],[-95.9435,32.6434],[-95.9429,32.6484],[-95.9458,32.6515],[-95.951,32.6503],[-95.955,32.6528],[-95.9608,32.6528],[-95.9675,32.6558],[-95.9689,32.6585],[-95.9676,32.6653],[-95.9688,32.6729],[-95.9663,32.6749],[-95.9668,32.679],[-95.9646,32.6811],[-95.9698,32.6856],[-95.9698,32.6896],[-95.9733,32.691],[-95.9737,32.6953],[-95.9806,32.6974],[-95.9896,32.6973],[-95.9931,32.7006],[-95.9929,32.7038],[-95.9976,32.7033],[-95.9994,32.7077],[-96.0054,32.71],[-96.0076,32.7087],[-96.011,32.7095],[-96.012,32.7124],[-96.037,32.7142],[-96.0356,32.7176],[-96.0394,32.7246],[-96.0514,32.7239],[-96.0547,32.7281],[-96.0591,32.7297],[-96.0754,32.7312],[-96.077,32.7407],[-96.0814,32.7442],[-96.0835,32.7499],[-96.0916,32.758],[-96.0957,32.7648],[-96.1034,32.7613],[-96.1122,32.7636],[-96.1167,32.7668],[-96.1321,32.7681],[-96.1287,32.7752],[-96.132,32.7787],[-96.1412,32.7804],[-96.1422,32.7833],[-96.1403,32.7885],[-96.1439,32.7885],[-96.1501,32.7965],[-96.1512,32.7985],[-96.1499,32.8033],[-96.153,32.807],[-96.162,32.7984],[-96.1879,32.7981],[-96.1912,32.7952],[-96.1979,32.7992],[-96.2007,32.7944],[-96.2099,32.7959],[-96.2133,32.7932],[-96.2194,32.7937],[-96.2211,32.7968],[-96.2258,32.7961],[-96.2307,32.7982],[-96.2407,32.7985],[-96.2433,32.7996],[-96.2454,32.8033],[-96.2591,32.8079],[-96.2623,32.8122],[-96.2626,32.8189],[-96.2734,32.8255],[-96.2751,32.8312],[-96.2789,32.8359],[-96.2952,32.8484],[-96.3002,32.856],[-96.3051,32.8581],[-96.321,32.8567],[-96.3209,32.8587],[-96.317,32.8605],[-96.3168,32.8635],[-96.3212,32.8644],[-96.3209,32.8701],[-96.3255,32.8783],[-96.3296,32.879],[-96.3438,32.8884],[-96.3401,32.8945],[-96.347,32.8997],[-96.3474,32.9034],[-96.3448,32.9058],[-96.3478,32.9128],[-96.3545,32.9122],[-96.3584,32.9134],[-96.367,32.9209],[-96.3745,32.9223],[-96.3811,32.928],[-96.3858,32.9293],[-96.3854,32.9334],[-96.3918,32.942],[-96.393,32.9511],[-96.3899,32.9574],[-96.3917,32.9599],[-96.3905,32.9689],[-96.3929,32.9718],[-96.3913,32.975],[-96.383,32.9767],[-96.3817,32.9801],[-96.3833,32.9846],[-96.3816,32.9912],[-96.3768,32.9936],[-96.3716,33.0013],[-96.3736,33.0085],[-96.3696,33.0179],[-96.3703,33.0267],[-96.3753,33.0311],[-96.3734,33.0353],[-96.373,33.043],[-96.377,33.0469],[-96.3749,33.0515],[-96.3693,33.0516],[-96.3656,33.0543],[-96.3634,33.0599],[-96.3658,33.0645],[-96.3643,33.0708],[-96.3662,33.0743],[-96.3625,33.0782],[-96.3591,33.087],[-96.3558,33.0888],[-96.3551,33.0929],[-96.3491,33.0964],[-96.349,33.1021],[-96.3547,33.106],[-96.3452,33.1089],[-96.3417,33.1119],[-96.3431,33.1145],[-96.3418,33.1166],[-96.334,33.1184],[-96.334,33.1259],[-96.3355,33.129],[-96.3318,33.1354],[-96.3338,33.1393],[-96.3311,33.1509],[-96.333,33.1612],[-96.3371,33.1669],[-96.3429,33.1708],[-96.3423,33.1817],[-96.3384,33.1905],[-96.3408,33.1972],[-96.3401,33.2015],[-96.3373,33.2052],[-96.3317,33.2018],[-96.3278,33.2021],[-96.3195,33.2066],[-96.3197,33.2122],[-96.314,33.211],[-96.3078,33.2138],[-96.3081,33.2233],[-96.3043,33.2216],[-96.298,33.223],[-96.296,33.2288],[-96.2967,33.233],[-96.2935,33.235],[-96.287,33.2307],[-96.2826,33.2332],[-96.2809,33.2385],[-96.2754,33.2384],[-96.2692,33.2423],[-96.2672,33.2419],[-96.2672,33.2393],[-96.2652,33.2381],[-96.2589,33.2372],[-96.2569,33.2414],[-96.2529,33.2432],[-96.247,33.2431],[-96.247,33.2491],[-96.2427,33.2517],[-96.2411,33.2557],[-96.2447,33.2608],[-96.2418,33.2668],[-96.2436,33.272],[-96.2395,33.2758],[-96.2386,33.2792],[-96.2411,33.287],[-96.2404,33.29],[-96.2365,33.2934],[-96.2382,33.3031],[-96.2344,33.3045],[-96.234,33.3076],[-96.2239,33.3078],[-96.2214,33.3147],[-96.2172,33.3191],[-96.2164,33.3291],[-96.2198,33.3335],[-96.2201,33.3436],[-96.2245,33.3461],[-96.2263,33.3513],[-96.2322,33.3565],[-96.232,33.3617],[-96.2363,33.3693],[-96.2333,33.3862],[-96.241,33.391],[-96.2493,33.4054],[-96.2563,33.4064],[-96.2613,33.4111],[-96.2661,33.4081],[-96.2723,33.4071],[-96.2743,33.4117],[-96.2848,33.4132],[-96.2914,33.4169],[-96.2993,33.4162],[-96.3085,33.4224],[-96.3127,33.4183],[-96.3229,33.4212],[-96.3232,33.4269],[-96.3344,33.4305],[-96.3367,33.4362],[-96.3397,33.4394],[-96.3412,33.4388],[-96.3461,33.4412],[-96.3492,33.4482],[-96.3517,33.4499],[-96.3562,33.4483],[-96.3562,33.4465],[-96.36,33.4441],[-96.3712,33.4435],[-96.3749,33.4513],[-96.3757,33.4572],[-96.3793,33.4586],[-96.3806,33.4618],[-96.3849,33.4622],[-96.3958,33.4719],[-96.3999,33.4728],[-96.404,33.4763],[-96.4068,33.4869],[-96.4066,33.4923],[-96.4108,33.5026],[-96.417,33.506],[-96.4227,33.5061],[-96.4228,33.5106],[-96.4253,33.5146],[-96.4383,33.522],[-96.442,33.5202],[-96.4455,33.5218],[-96.449,33.5168],[-96.4546,33.5177],[-96.4578,33.5217],[-96.4601,33.5152],[-96.4628,33.5126],[-96.4696,33.5148],[-96.4759,33.5204],[-96.4833,33.5217],[-96.4869,33.5193],[-96.488,33.5163],[-96.4933,33.5153],[-96.4972,33.5181],[-96.5001,33.5177],[-96.5065,33.5145],[-96.51,33.5146],[-96.5148,33.5093],[-96.5194,33.511],[-96.528,33.5181],[-96.5358,33.5173],[-96.5393,33.5144],[-96.544,33.5153],[-96.5454,33.5181],[-96.548,33.5187],[-96.5503,33.5111],[-96.561,33.5049],[-96.5628,33.5055],[-96.5645,33.5096],[-96.5649,33.5164],[-96.5716,33.5187],[-96.58,33.5174],[-96.5847,33.5134],[-96.5909,33.5211],[-96.6008,33.5219],[-96.6076,33.5104],[-96.6124,33.508],[-96.6125,33.5046],[-96.6161,33.5008],[-96.6143,33.4948],[-96.62,33.4931],[-96.6246,33.4985],[-96.6285,33.4984],[-96.6268,33.5036],[-96.6269,33.5118],[-96.6294,33.5139],[-96.6413,33.5149],[-96.6434,33.5172],[-96.6418,33.5237],[-96.6454,33.5307],[-96.6484,33.5291],[-96.6562,33.5289],[-96.6621,33.5321],[-96.6662,33.5312],[-96.669,33.534],[-96.6715,33.5326],[-96.6765,33.5375],[-96.6876,33.5374],[-96.6868,33.5404],[-96.6892,33.5426],[-96.6895,33.5454],[-96.6882,33.5485],[-96.697,33.5543],[-96.6985,33.5629],[-96.704,33.5657],[-96.7063,33.5755],[-96.7053,33.5791],[-96.7119,33.5897],[-96.7201,33.5928],[-96.7372,33.5948],[-96.7471,33.5919],[-96.7569,33.5963],[-96.7644,33.5956],[-96.7767,33.604],[-96.7865,33.5991],[-96.7985,33.6017],[-96.8074,33.6064],[-96.8112,33.605],[-96.8146,33.606],[-96.8179,33.603],[-96.822,33.6019],[-96.8264,33.6044],[-96.8279,33.6091],[-96.8339,33.61],[-96.8339,33.6143],[-96.8363,33.6167],[-96.8489,33.6094],[-96.8536,33.6114],[-96.8574,33.6095],[-96.8648,33.6209],[-96.8762,33.6195],[-96.8811,33.6249],[-96.8885,33.6277],[-96.8883,33.6328],[-96.903,33.6396],[-96.9025,33.6557],[-96.9155,33.6565],[-96.9219,33.6531],[-96.927,33.6595],[-96.9314,33.658],[-96.9338,33.6595],[-96.941,33.6582],[-96.9449,33.6551],[-96.9476,33.6555],[-96.9493,33.6617],[-96.9574,33.6646],[-96.9664,33.6706],[-96.9659,33.6739],[-96.9694,33.6767],[-96.9698,33.683],[-96.9825,33.6882],[-96.9839,33.6946],[-96.9872,33.6986],[-96.9926,33.6992],[-96.9964,33.7025],[-96.9964,33.7058],[-96.9935,33.7085],[-96.9935,33.7122],[-96.9952,33.7134],[-96.9993,33.7141],[-97.0023,33.71],[-97.0079,33.7087],[-97.0092,33.7044],[-97.0137,33.705],[-97.0137,33.7031],[-97.0182,33.6991],[-97.0181,33.6965],[-97.0204,33.6947],[-97.0228,33.6977],[-97.0379,33.6924],[-97.0419,33.693],[-97.0504,33.6866],[-97.057,33.6875],[-97.0575,33.6919],[-97.0611,33.6908],[-97.0667,33.6931],[-97.0716,33.6921],[-97.0745,33.6934],[-97.0783,33.6964],[-97.0771,33.6978],[-97.0781,33.7004],[-97.0844,33.6978],[-97.0906,33.7],[-97.092,33.7021],[-97.095,33.7022],[-97.0966,33.7001],[-97.1044,33.7005],[-97.1094,33.7074],[-97.1141,33.7098],[-97.1175,33.7026],[-97.1172,33.6991],[-97.1209,33.698],[-97.1215,33.689],[-97.1279,33.6882],[-97.1317,33.6859],[-97.1353,33.6872],[-97.1407,33.6862],[-97.1425,33.7005],[-97.1407,33.7032],[-97.1413,33.7099],[-97.1426,33.7116],[-97.1477,33.7123],[-97.1494,33.7116],[-97.1495,33.7087],[-97.1552,33.7061],[-97.1549,33.7042],[-97.1502,33.7019],[-97.15,33.6993],[-97.1528,33.6962],[-97.1522,33.6937],[-97.1564,33.6896],[-97.1595,33.689],[-97.161,33.6857],[-97.1664,33.6819],[-97.1688,33.6832],[-97.1715,33.6897],[-97.1744,33.6901],[-97.1773,33.6934],[-97.1813,33.694],[-97.1797,33.6984],[-97.1835,33.6975],[-97.1841,33.7005],[-97.1882,33.7009],[-97.1886,33.7038],[-97.2042,33.7084],[-97.2054,33.7154],[-97.2112,33.7189],[-97.225,33.7137],[-97.2296,33.7064],[-97.2346,33.706],[-97.2373,33.7125],[-97.241,33.7105],[-97.2505,33.7125],[-97.2589,33.7069],[-97.2656,33.7109],[-97.2691,33.707],[-97.2732,33.7076],[-97.2752,33.7095],[-97.2823,33.7088],[-97.2883,33.7012],[-97.2927,33.7051],[-97.2999,33.7066],[-97.3011,33.7044],[-97.3042,33.7033],[-97.3079,33.7044],[-97.3118,33.6982],[-97.3176,33.7013],[-97.3184,33.7084],[-97.3258,33.7067],[-97.3272,33.7092],[-97.3313,33.7104],[-97.3315,33.7139],[-97.3349,33.7122],[-97.3378,33.7134],[-97.3407,33.7168],[-97.3492,33.7203],[-97.352,33.7242],[-97.3617,33.7219],[-97.3643,33.7271],[-97.3678,33.7269],[-97.3729,33.731],[-97.3779,33.7283],[-97.3803,33.7305],[-97.3806,33.7332],[-97.3841,33.735],[-97.3874,33.7351],[-97.39,33.7329]]]},"properties":{"OBJECTID":215,"tnmid":"{0475CA86-75F2-405B-9069-D0FBF8EFF363}","loaddate":1723806686000,"areaacres":7538400.42,"areasqkm":30506.85,"states":"TX","huc6":"120301","name":"Upper Trinity","MaxSimpTol":100,"MinSimpTol":100,"shape_Length":1331815.0401230005,"shape_Area":43341094498.53934,"metasourceid":"{511D2AC8-11BA-45FC-AB98-F69D693D4C44}","sourcedatadesc":"Watershed Boundary Dataset (WBD)","sourceoriginator":"Natural Resources and Conservation Service and U.S. Geological Survey","sourcefeatureid":null,"InPoly_FID":216,"SimPgnFlag":0,"referencegnis_ids":"1348789"}}]}