{"type":"FeatureCollection","features":[{"type":"Feature","id":539,"geometry":{"type":"Polygon","coordinates":[[[-97.837,33.602],[-97.8402,33.5998],[-97.8467,33.6012],[-97.8468,33.5972],[-97.8504,33.5955],[-97.8546,33.598],[-97.8555,33.5912],[-97.8596,33.5895],[-97.8567,33.5861],[-97.8583,33.5829],[-97.8664,33.5853],[-97.8703,33.5806],[-97.8763,33.5819],[-97.8788,33.5806],[-97.8861,33.5814],[-97.8906,33.5766],[-97.8946,33.5751],[-97.8997,33.5751],[-97.9014,33.5789],[-97.9096,33.5707],[-97.9132,33.5729],[-97.9165,33.5705],[-97.9189,33.5718],[-97.9204,33.5758],[-97.9257,33.5774],[-97.9326,33.5755],[-97.9378,33.5755],[-97.9461,33.579],[-97.9559,33.5774],[-97.9593,33.5814],[-97.9665,33.5786],[-97.9701,33.5794],[-97.9732,33.5773],[-97.9805,33.5782],[-97.9846,33.5759],[-97.992,33.578],[-97.9963,33.5735],[-97.9995,33.5771],[-98.0033,33.5771],[-98.0096,33.5819],[-98.0152,33.5812],[-98.018,33.5799],[-98.0167,33.5771],[-98.0199,33.5688],[-98.0183,33.563],[-98.0216,33.5593],[-98.0268,33.5562],[-98.032,33.5595],[-98.0357,33.5585],[-98.0401,33.5608],[-98.0411,33.5648],[-98.043,33.5655],[-98.0499,33.5642],[-98.052,33.5628],[-98.0534,33.5515],[-98.0573,33.5506],[-98.0662,33.5524],[-98.07,33.5475],[-98.0666,33.5435],[-98.0663,33.5407],[-98.0691,33.5373],[-98.0723,33.5362],[-98.0716,33.5304],[-98.0749,33.5277],[-98.0803,33.5265],[-98.0818,33.5229],[-98.088,33.5246],[-98.0922,33.523],[-98.094,33.5244],[-98.0989,33.5239],[-98.1007,33.5266],[-98.1061,33.5295],[-98.1105,33.5269],[-98.1138,33.5277],[-98.1183,33.5246],[-98.1205,33.5264],[-98.1226,33.5255],[-98.1252,33.5282],[-98.1301,33.526],[-98.1357,33.5299],[-98.1468,33.5226],[-98.1503,33.5151],[-98.1558,33.5107],[-98.1638,33.5132],[-98.1675,33.5107],[-98.1713,33.5155],[-98.1706,33.5192],[-98.1747,33.5227],[-98.1758,33.5272],[-98.1744,33.53],[-98.1775,33.5304],[-98.1786,33.5337],[-98.1842,33.5372],[-98.1876,33.5357],[-98.1931,33.539],[-98.1942,33.537],[-98.2046,33.5345],[-98.2055,33.5323],[-98.2089,33.531],[-98.2166,33.5337],[-98.2206,33.5313],[-98.2198,33.5292],[-98.2214,33.527],[-98.2237,33.5274],[-98.2352,33.5377],[-98.2358,33.541],[-98.2339,33.5437],[-98.2355,33.5493],[-98.2385,33.5488],[-98.2409,33.5518],[-98.2443,33.5498],[-98.2486,33.5535],[-98.2594,33.5582],[-98.2637,33.5572],[-98.2638,33.55],[-98.2798,33.5492],[-98.2857,33.5543],[-98.2916,33.5503],[-98.2955,33.5531],[-98.2988,33.5521],[-98.302,33.548],[-98.3036,33.5489],[-98.3054,33.547],[-98.309,33.5466],[-98.3086,33.5432],[-98.3101,33.5418],[-98.3196,33.5414],[-98.3244,33.5311],[-98.3348,33.5301],[-98.3406,33.5241],[-98.3537,33.5241],[-98.3549,33.5222],[-98.3508,33.5193],[-98.3514,33.5172],[-98.3579,33.5106],[-98.3568,33.5079],[-98.3604,33.5039],[-98.3657,33.5036],[-98.3693,33.5078],[-98.3715,33.5073],[-98.3751,33.5099],[-98.3824,33.5114],[-98.3826,33.5098],[-98.3886,33.5094],[-98.3901,33.5112],[-98.3923,33.5049],[-98.3952,33.5031],[-98.4055,33.5029],[-98.4073,33.4982],[-98.4117,33.4967],[-98.4141,33.4989],[-98.415,33.5029],[-98.4184,33.5046],[-98.4225,33.5028],[-98.4256,33.5055],[-98.4249,33.5105],[-98.4325,33.5092],[-98.4371,33.5115],[-98.4407,33.5158],[-98.4521,33.5094],[-98.4572,33.5121],[-98.4634,33.5116],[-98.4726,33.5146],[-98.4812,33.5063],[-98.4916,33.5009],[-98.5016,33.5032],[-98.5035,33.5063],[-98.5101,33.5075],[-98.5145,33.5057],[-98.5216,33.4997],[-98.5394,33.5013],[-98.5416,33.5032],[-98.5461,33.5017],[-98.5476,33.503],[-98.5626,33.4955],[-98.5716,33.4946],[-98.5729,33.4927],[-98.578,33.4916],[-98.5778,33.4849],[-98.5805,33.4826],[-98.5862,33.4856],[-98.593,33.4853],[-98.5931,33.484],[-98.5983,33.4817],[-98.6,33.4842],[-98.6024,33.4845],[-98.6037,33.4813],[-98.611,33.4801],[-98.6114,33.4774],[-98.6187,33.4738],[-98.6223,33.4774],[-98.6313,33.4752],[-98.6341,33.4764],[-98.6383,33.4745],[-98.6436,33.4758],[-98.6508,33.4722],[-98.6499,33.4687],[-98.6577,33.4647],[-98.6615,33.4656],[-98.6646,33.4632],[-98.6697,33.463],[-98.6718,33.4612],[-98.6751,33.4633],[-98.6826,33.4496],[-98.69,33.4489],[-98.6971,33.4434],[-98.6982,33.4346],[-98.701,33.4301],[-98.7033,33.4283],[-98.7052,33.4288],[-98.7056,33.4317],[-98.7111,33.4344],[-98.7235,33.4311],[-98.7223,33.4273],[-98.7246,33.4273],[-98.7271,33.4223],[-98.7328,33.4208],[-98.7356,33.418],[-98.7367,33.4113],[-98.7326,33.4077],[-98.7294,33.4],[-98.7268,33.3979],[-98.7221,33.4009],[-98.7177,33.4014],[-98.7154,33.4046],[-98.7146,33.402],[-98.7082,33.4024],[-98.7061,33.4005],[-98.6995,33.3995],[-98.7019,33.3971],[-98.7015,33.3942],[-98.7042,33.3942],[-98.7052,33.392],[-98.7004,33.3861],[-98.7013,33.3843],[-98.7037,33.384],[-98.7037,33.3804],[-98.6983,33.3744],[-98.7001,33.3663],[-98.6948,33.3629],[-98.6822,33.3658],[-98.6769,33.3621],[-98.6712,33.3612],[-98.6628,33.3663],[-98.6468,33.3583],[-98.639,33.3612],[-98.6326,33.3608],[-98.6259,33.3656],[-98.62,33.3661],[-98.6151,33.3689],[-98.608,33.3653],[-98.6042,33.3587],[-98.6055,33.3556],[-98.6037,33.3522],[-98.5932,33.3435],[-98.5935,33.3404],[-98.5909,33.3358],[-98.5865,33.3338],[-98.5837,33.3295],[-98.5928,33.3257],[-98.5917,33.3194],[-98.5864,33.3145],[-98.5884,33.3122],[-98.5873,33.3073],[-98.5904,33.3071],[-98.5915,33.3014],[-98.5891,33.2998],[-98.5897,33.2966],[-98.582,33.2918],[-98.5775,33.286],[-98.5798,33.2825],[-98.5765,33.2789],[-98.5672,33.28],[-98.556,33.2772],[-98.5511,33.2807],[-98.5483,33.2871],[-98.5444,33.2859],[-98.5457,33.2804],[-98.5411,33.2772],[-98.5446,33.2724],[-98.5446,33.2692],[-98.5409,33.2654],[-98.5399,33.2593],[-98.5311,33.2545],[-98.5282,33.2569],[-98.5246,33.2557],[-98.5234,33.2586],[-98.5189,33.2614],[-98.5204,33.2652],[-98.5129,33.2682],[-98.5089,33.2688],[-98.5026,33.2656],[-98.4985,33.2565],[-98.5005,33.2511],[-98.4992,33.2491],[-98.4998,33.2457],[-98.4964,33.2437],[-98.4914,33.2446],[-98.4844,33.2386],[-98.4746,33.2381],[-98.4681,33.2401],[-98.4624,33.2379],[-98.4612,33.2356],[-98.4636,33.232],[-98.4623,33.2283],[-98.4566,33.2219],[-98.457,33.2173],[-98.4545,33.2173],[-98.4532,33.2154],[-98.4507,33.2154],[-98.4493,33.2171],[-98.4421,33.2172],[-98.4353,33.2124],[-98.4267,33.2169],[-98.4186,33.2159],[-98.4164,33.2184],[-98.4168,33.2213],[-98.4123,33.2223],[-98.4088,33.2208],[-98.4054,33.2252],[-98.3974,33.2279],[-98.3947,33.2205],[-98.3902,33.2208],[-98.3809,33.2171],[-98.379,33.2132],[-98.3771,33.2132],[-98.3766,33.2062],[-98.3714,33.2031],[-98.3665,33.2021],[-98.3594,33.2124],[-98.3568,33.2128],[-98.3523,33.2092],[-98.3463,33.2101],[-98.3404,33.2058],[-98.3399,33.2028],[-98.3364,33.2017],[-98.3345,33.2032],[-98.3259,33.2036],[-98.3262,33.2021],[-98.3236,33.1997],[-98.3147,33.2011],[-98.308,33.1957],[-98.3045,33.1975],[-98.3045,33.2006],[-98.3026,33.203],[-98.2984,33.2053],[-98.2912,33.2016],[-98.2884,33.1966],[-98.2809,33.1951],[-98.2775,33.1911],[-98.2695,33.1944],[-98.2699,33.1917],[-98.2655,33.1888],[-98.261,33.1897],[-98.2548,33.1873],[-98.2505,33.1883],[-98.2469,33.1859],[-98.2477,33.1817],[-98.2449,33.181],[-98.2441,33.1785],[-98.2404,33.1767],[-98.2351,33.1695],[-98.2318,33.1712],[-98.2274,33.171],[-98.2248,33.1656],[-98.2218,33.1675],[-98.2176,33.1675],[-98.2144,33.163],[-98.2074,33.1619],[-98.2046,33.1592],[-98.1973,33.1591],[-98.1938,33.162],[-98.1893,33.1614],[-98.1858,33.1569],[-98.1831,33.1562],[-98.1835,33.1534],[-98.1806,33.1509],[-98.1803,33.1469],[-98.1769,33.1414],[-98.1736,33.1416],[-98.1694,33.1359],[-98.1654,33.1348],[-98.1571,33.1387],[-98.1517,33.1358],[-98.1489,33.1308],[-98.1374,33.127],[-98.1364,33.126],[-98.1374,33.1234],[-98.132,33.1169],[-98.1285,33.1166],[-98.1269,33.1111],[-98.1201,33.1132],[-98.1189,33.1174],[-98.1118,33.1166],[-98.1057,33.1193],[-98.0999,33.1194],[-98.095,33.1172],[-98.0894,33.1097],[-98.0841,33.1087],[-98.0744,33.1101],[-98.0723,33.1043],[-98.0721,33.0958],[-98.0702,33.0929],[-98.0675,33.0935],[-98.0673,33.09],[-98.0631,33.0869],[-98.0627,33.0836],[-98.0507,33.0808],[-98.0424,33.0827],[-98.0403,33.0811],[-98.0388,33.0767],[-98.0329,33.0731],[-98.0286,33.0739],[-98.0233,33.0714],[-98.0193,33.0745],[-98.0125,33.0696],[-98.0098,33.0703],[-98.0048,33.0683],[-98.0049,33.0638],[-98.0002,33.0557],[-97.9998,33.0509],[-97.9945,33.0493],[-97.9908,33.0443],[-97.9903,33.0365],[-97.9885,33.0338],[-97.9906,33.0321],[-97.9876,33.0268],[-97.982,33.0257],[-97.9826,33.0235],[-97.9806,33.0223],[-97.9804,33.0192],[-97.9755,33.0184],[-97.9697,33.0083],[-97.9606,33.0164],[-97.9537,33.0142],[-97.9518,33.0023],[-97.9488,33.0035],[-97.9416,33.0015],[-97.9406,32.9929],[-97.9387,32.9906],[-97.9335,32.9905],[-97.9323,32.9953],[-97.9264,32.9958],[-97.9224,32.9929],[-97.918,32.9963],[-97.9101,32.9943],[-97.9072,32.9977],[-97.9076,32.9996],[-97.9036,33.0005],[-97.9015,33.0049],[-97.8993,33.0044],[-97.9003,33.0004],[-97.8988,32.9996],[-97.8957,33.0018],[-97.889,32.9989],[-97.8861,33.0009],[-97.8818,32.9998],[-97.8766,32.9917],[-97.8679,32.9976],[-97.8658,33.0007],[-97.8568,33.001],[-97.8528,32.9992],[-97.8431,33.001],[-97.8408,33.0039],[-97.8346,33.0043],[-97.8269,33.002],[-97.8248,32.9989],[-97.8251,32.9956],[-97.8201,32.9911],[-97.8157,32.9919],[-97.8114,32.9882],[-97.8089,32.9882],[-97.8065,32.9811],[-97.7932,32.9796],[-97.7871,32.9823],[-97.785,32.9696],[-97.7783,32.9659],[-97.7705,32.9651],[-97.7688,32.962],[-97.7624,32.9596],[-97.7614,32.9552],[-97.7555,32.9515],[-97.752,32.9383],[-97.7539,32.9324],[-97.7504,32.9303],[-97.7499,32.9233],[-97.7458,32.919],[-97.7385,32.9175],[-97.7339,32.9192],[-97.7294,32.9148],[-97.7228,32.9168],[-97.7183,32.9099],[-97.7178,32.9021],[-97.7163,32.902],[-97.715,32.8986],[-97.7113,32.8989],[-97.7107,32.8931],[-97.7063,32.8904],[-97.7052,32.8879],[-97.7069,32.8847],[-97.7039,32.882],[-97.7016,32.8759],[-97.696,32.8775],[-97.6932,32.8748],[-97.6888,32.8814],[-97.6844,32.8807],[-97.6788,32.884],[-97.6725,32.8817],[-97.6691,32.8842],[-97.6659,32.8816],[-97.659,32.8814],[-97.656,32.8798],[-97.6504,32.8826],[-97.6405,32.8744],[-97.636,32.8744],[-97.6311,32.8721],[-97.629,32.8734],[-97.6223,32.8731],[-97.6194,32.8767],[-97.6094,32.8772],[-97.6092,32.8793],[-97.6001,32.8784],[-97.5976,32.8805],[-97.5946,32.8797],[-97.5896,32.882],[-97.5854,32.8768],[-97.5822,32.8754],[-97.5778,32.8759],[-97.5771,32.8723],[-97.5697,32.8706],[-97.5685,32.8671],[-97.5541,32.8585],[-97.5481,32.8587],[-97.5429,32.8619],[-97.5383,32.8625],[-97.5245,32.8605],[-97.5186,32.8646],[-97.5121,32.8623],[-97.509,32.8657],[-97.5049,32.8654],[-97.4963,32.8703],[-97.4949,32.8727],[-97.4853,32.8692],[-97.4822,32.8749],[-97.4773,32.8788],[-97.4746,32.8767],[-97.459,32.8745],[-97.4579,32.8732],[-97.4558,32.874],[-97.4506,32.8684],[-97.4488,32.8688],[-97.4437,32.866],[-97.4413,32.8623],[-97.4391,32.8628],[-97.4373,32.8673],[-97.4351,32.866],[-97.4273,32.8667],[-97.4239,32.8701],[-97.423,32.8756],[-97.4249,32.8788],[-97.4246,32.8816],[-97.4141,32.8891],[-97.4084,32.8898],[-97.4035,32.8984],[-97.404,32.904],[-97.4017,32.9053],[-97.4042,32.919],[-97.4153,32.934],[-97.4194,32.9436],[-97.4175,32.9488],[-97.4094,32.9579],[-97.412,32.9705],[-97.4071,32.9782],[-97.4092,32.981],[-97.4091,32.9878],[-97.4121,32.9922],[-97.4172,32.9935],[-97.4193,32.9958],[-97.4186,33.0038],[-97.422,33.0084],[-97.4289,33.0116],[-97.4304,33.0166],[-97.4373,33.0194],[-97.441,33.0193],[-97.4489,33.0322],[-97.4525,33.0324],[-97.4555,33.035],[-97.4546,33.0393],[-97.4559,33.0412],[-97.4622,33.0458],[-97.4677,33.0466],[-97.4722,33.0525],[-97.4687,33.0581],[-97.4737,33.0686],[-97.4716,33.0784],[-97.4726,33.083],[-97.4704,33.085],[-97.4728,33.0899],[-97.4687,33.0926],[-97.4708,33.0984],[-97.4685,33.1],[-97.468,33.1038],[-97.4716,33.1085],[-97.4753,33.1081],[-97.4824,33.1203],[-97.483,33.124],[-97.4891,33.1279],[-97.4916,33.1284],[-97.4936,33.1262],[-97.4956,33.128],[-97.4991,33.1273],[-97.5013,33.1249],[-97.5059,33.1278],[-97.5055,33.1314],[-97.5079,33.1381],[-97.5059,33.1424],[-97.5086,33.1527],[-97.52,33.1538],[-97.522,33.1513],[-97.5248,33.1525],[-97.5303,33.151],[-97.5325,33.1563],[-97.5351,33.1584],[-97.5466,33.1616],[-97.547,33.1633],[-97.5446,33.1672],[-97.5478,33.1714],[-97.5465,33.1791],[-97.5511,33.1823],[-97.5523,33.1871],[-97.5632,33.2006],[-97.5679,33.2019],[-97.5691,33.2184],[-97.5739,33.2204],[-97.5776,33.2345],[-97.5834,33.2327],[-97.5866,33.2339],[-97.5849,33.2492],[-97.5942,33.2566],[-97.5935,33.265],[-97.5961,33.2655],[-97.5976,33.2742],[-97.6055,33.2787],[-97.5981,33.2871],[-97.5985,33.2944],[-97.5998,33.2965],[-97.6068,33.298],[-97.6106,33.303],[-97.6103,33.3056],[-97.6061,33.3073],[-97.6095,33.3131],[-97.6067,33.3149],[-97.6061,33.3185],[-97.6129,33.3225],[-97.613,33.3274],[-97.6103,33.3283],[-97.6106,33.3366],[-97.6167,33.3367],[-97.6134,33.3429],[-97.6188,33.3493],[-97.6201,33.3539],[-97.6186,33.367],[-97.6235,33.3695],[-97.6264,33.3732],[-97.6373,33.3746],[-97.6407,33.3785],[-97.6387,33.3855],[-97.6408,33.3883],[-97.6381,33.3915],[-97.6391,33.3963],[-97.6354,33.399],[-97.6378,33.4042],[-97.6443,33.4095],[-97.6472,33.4081],[-97.6537,33.4137],[-97.6581,33.4141],[-97.6574,33.4207],[-97.6619,33.4225],[-97.669,33.4293],[-97.6756,33.4299],[-97.681,33.4334],[-97.6818,33.4362],[-97.6796,33.4382],[-97.68,33.4418],[-97.6744,33.4462],[-97.6772,33.4536],[-97.6788,33.4557],[-97.6816,33.4556],[-97.6838,33.4624],[-97.697,33.4655],[-97.7027,33.4711],[-97.7012,33.4728],[-97.7063,33.4763],[-97.7106,33.4823],[-97.7083,33.4873],[-97.7117,33.4926],[-97.7112,33.5025],[-97.7168,33.5047],[-97.7221,33.5098],[-97.7261,33.51],[-97.7295,33.5139],[-97.7351,33.5134],[-97.7395,33.518],[-97.7458,33.5162],[-97.748,33.5168],[-97.7507,33.5217],[-97.7552,33.5213],[-97.7577,33.5276],[-97.7545,33.5307],[-97.7524,33.5363],[-97.7571,33.5402],[-97.7621,33.5412],[-97.7676,33.5458],[-97.7712,33.5455],[-97.7768,33.5493],[-97.7795,33.5542],[-97.7777,33.5584],[-97.7887,33.5666],[-97.7893,33.5725],[-97.7945,33.5781],[-97.8005,33.5791],[-97.8044,33.5852],[-97.8109,33.5862],[-97.8135,33.5898],[-97.8198,33.5905],[-97.8243,33.5932],[-97.8248,33.5966],[-97.8291,33.6007],[-97.8336,33.5995],[-97.8349,33.6019],[-97.837,33.602]]]},"properties":{"objectid":539,"tnmid":"{CC00BFC3-FF4E-4946-A27B-FB5BC9430ECA}","metasourceid":"{511D2AC8-11BA-45FC-AB98-F69D693D4C44}","sourcedatadesc":"Watershed Boundary Dataset (WBD)","sourceoriginator":"Natural Resources and Conservation Service and U.S. Geological Survey","sourcefeatureid":null,"loaddate":1723803860000,"referencegnis_ids":"1383210","areaacres":1252206.62,"areasqkm":5067.5,"states":"TX","huc8":"12030101","name":"Upper West Fork Trinity","globalid":"{686DA367-EB75-4BEC-A32F-44D9B4E09D71}","shape_Length":540951.7823365842,"shape_Area":7268329132.07436}},{"type":"Feature","id":540,"geometry":{"type":"Polygon","coordinates":[[[-97.8991,32.9997],[-97.9003,33.0004],[-97.8993,33.0044],[-97.9015,33.0049],[-97.9036,33.0005],[-97.9076,32.9996],[-97.9072,32.9977],[-97.9101,32.9943],[-97.918,32.9963],[-97.9224,32.9929],[-97.9264,32.9958],[-97.9323,32.9953],[-97.9335,32.9893],[-97.9316,32.984],[-97.9274,32.9828],[-97.926,32.9801],[-97.9274,32.9768],[-97.9267,32.9698],[-97.9229,32.9651],[-97.9225,32.9594],[-97.9127,32.9599],[-97.9132,32.9573],[-97.9104,32.9531],[-97.91,32.949],[-97.9082,32.9481],[-97.9111,32.9462],[-97.9136,32.9404],[-97.91,32.935],[-97.9048,32.9318],[-97.9053,32.9279],[-97.9005,32.927],[-97.8942,32.9195],[-97.8883,32.9173],[-97.8845,32.9092],[-97.8769,32.9098],[-97.8749,32.9052],[-97.8696,32.9025],[-97.8704,32.8987],[-97.8669,32.8952],[-97.8677,32.8908],[-97.87,32.8881],[-97.8699,32.8843],[-97.8742,32.8808],[-97.8736,32.8748],[-97.8837,32.8716],[-97.8827,32.8691],[-97.8865,32.8644],[-97.8857,32.8564],[-97.8882,32.8535],[-97.8818,32.8427],[-97.8801,32.8366],[-97.8837,32.8353],[-97.8822,32.8322],[-97.8838,32.8261],[-97.8808,32.8192],[-97.8852,32.8075],[-97.8805,32.8035],[-97.8797,32.7986],[-97.8753,32.8007],[-97.8696,32.8002],[-97.8641,32.7959],[-97.8646,32.7921],[-97.8628,32.7893],[-97.8568,32.7888],[-97.8559,32.7869],[-97.8479,32.785],[-97.8454,32.7813],[-97.842,32.7804],[-97.8414,32.7773],[-97.8367,32.7774],[-97.8357,32.7747],[-97.8317,32.7721],[-97.832,32.7676],[-97.8289,32.7674],[-97.8264,32.7652],[-97.8241,32.7592],[-97.8169,32.7576],[-97.8136,32.7524],[-97.8143,32.7474],[-97.8129,32.7436],[-97.805,32.739],[-97.8013,32.7347],[-97.7972,32.7369],[-97.791,32.7341],[-97.7914,32.7311],[-97.7897,32.7285],[-97.7802,32.7199],[-97.7814,32.7142],[-97.7768,32.709],[-97.7746,32.7034],[-97.7721,32.7016],[-97.7703,32.6965],[-97.7556,32.6931],[-97.7497,32.6857],[-97.7432,32.6848],[-97.7387,32.681],[-97.7383,32.6779],[-97.7353,32.6783],[-97.7335,32.6768],[-97.7362,32.6702],[-97.7301,32.6649],[-97.7297,32.6623],[-97.7334,32.6595],[-97.7383,32.6588],[-97.7382,32.6501],[-97.7354,32.6483],[-97.7324,32.6488],[-97.7301,32.645],[-97.727,32.6455],[-97.7247,32.642],[-97.7137,32.6365],[-97.6946,32.6323],[-97.6918,32.6257],[-97.6939,32.6235],[-97.6945,32.6184],[-97.6895,32.615],[-97.6881,32.6086],[-97.6844,32.6073],[-97.684,32.604],[-97.6868,32.6016],[-97.6853,32.5936],[-97.6839,32.592],[-97.6803,32.5931],[-97.6778,32.5907],[-97.6799,32.5841],[-97.6769,32.581],[-97.6768,32.5788],[-97.6796,32.5772],[-97.6807,32.5735],[-97.6764,32.5695],[-97.677,32.5647],[-97.6725,32.5572],[-97.6667,32.5528],[-97.6604,32.553],[-97.6551,32.5485],[-97.6486,32.5515],[-97.639,32.5434],[-97.6382,32.5396],[-97.6344,32.5407],[-97.6271,32.5388],[-97.614,32.5303],[-97.6062,32.5322],[-97.6012,32.5292],[-97.5966,32.5231],[-97.5949,32.5096],[-97.5903,32.5061],[-97.5852,32.5066],[-97.5827,32.5048],[-97.5826,32.5028],[-97.5785,32.499],[-97.5781,32.4946],[-97.5714,32.4925],[-97.5645,32.4929],[-97.5564,32.5],[-97.5544,32.4983],[-97.5464,32.4984],[-97.5427,32.495],[-97.5389,32.4951],[-97.5348,32.4983],[-97.5301,32.494],[-97.5224,32.4945],[-97.5157,32.4986],[-97.5079,32.4959],[-97.5037,32.4899],[-97.4994,32.487],[-97.4898,32.4894],[-97.4856,32.4857],[-97.4733,32.488],[-97.4707,32.4805],[-97.4662,32.4782],[-97.4635,32.4738],[-97.463,32.4684],[-97.4598,32.465],[-97.4589,32.4594],[-97.4535,32.457],[-97.4492,32.457],[-97.4476,32.4608],[-97.4445,32.4627],[-97.4378,32.4614],[-97.4351,32.466],[-97.4276,32.461],[-97.4245,32.4633],[-97.4213,32.461],[-97.4176,32.4612],[-97.4142,32.4648],[-97.4129,32.4696],[-97.4055,32.4721],[-97.4041,32.4766],[-97.4025,32.4769],[-97.3965,32.4705],[-97.3924,32.4717],[-97.3878,32.4693],[-97.3885,32.4599],[-97.3861,32.4577],[-97.3796,32.4558],[-97.3769,32.4577],[-97.3683,32.4563],[-97.3618,32.4626],[-97.3593,32.4621],[-97.3576,32.4593],[-97.3524,32.4586],[-97.3527,32.4522],[-97.3465,32.4497],[-97.343,32.4499],[-97.3426,32.4419],[-97.3336,32.4387],[-97.3323,32.4417],[-97.3275,32.4397],[-97.3243,32.442],[-97.3239,32.4454],[-97.3178,32.447],[-97.3175,32.4516],[-97.3047,32.4521],[-97.3001,32.4572],[-97.2935,32.4585],[-97.29,32.452],[-97.2842,32.4531],[-97.2814,32.4508],[-97.2739,32.4528],[-97.2688,32.4513],[-97.2667,32.448],[-97.263,32.4496],[-97.2587,32.4492],[-97.2573,32.4465],[-97.253,32.4442],[-97.243,32.4418],[-97.2411,32.444],[-97.2307,32.4418],[-97.226,32.4435],[-97.226,32.4399],[-97.2219,32.4347],[-97.2189,32.4339],[-97.2193,32.4302],[-97.2167,32.4299],[-97.2144,32.4266],[-97.2103,32.4258],[-97.2042,32.4279],[-97.1987,32.4251],[-97.1947,32.4164],[-97.1796,32.413],[-97.1709,32.4152],[-97.1644,32.4108],[-97.1593,32.4109],[-97.1563,32.4129],[-97.1549,32.4208],[-97.1489,32.4278],[-97.1505,32.4345],[-97.1469,32.4376],[-97.142,32.4348],[-97.1352,32.4375],[-97.1296,32.4315],[-97.1275,32.4261],[-97.1202,32.4257],[-97.1159,32.4189],[-97.1132,32.4172],[-97.106,32.4187],[-97.1048,32.4236],[-97.1013,32.428],[-97.0949,32.4245],[-97.0928,32.4249],[-97.0888,32.4216],[-97.0827,32.4219],[-97.0742,32.426],[-97.0728,32.4188],[-97.067,32.414],[-97.0633,32.4133],[-97.0663,32.4096],[-97.0654,32.4074],[-97.0601,32.4089],[-97.0548,32.408],[-97.053,32.4152],[-97.0489,32.4171],[-97.039,32.4196],[-97.0293,32.4183],[-97.026,32.4219],[-97.0267,32.4251],[-97.024,32.4265],[-97.0251,32.4354],[-97.0199,32.4339],[-97.0171,32.4401],[-97.0133,32.4377],[-97.0086,32.438],[-97.0076,32.4479],[-96.9982,32.4642],[-97.0008,32.4688],[-96.9993,32.4747],[-96.9962,32.4824],[-96.9932,32.4835],[-96.9909,32.4891],[-96.9925,32.4948],[-96.9888,32.4997],[-96.9902,32.5065],[-96.9881,32.5105],[-96.9891,32.5137],[-96.9873,32.5159],[-96.9872,32.5218],[-96.9835,32.5218],[-96.9797,32.5276],[-96.9766,32.5289],[-96.9805,32.5347],[-96.9764,32.5379],[-96.976,32.5511],[-96.9721,32.5619],[-96.9667,32.5678],[-96.9637,32.5744],[-96.9606,32.5764],[-96.9618,32.5921],[-96.9634,32.5958],[-96.9592,32.5962],[-96.9583,32.5996],[-96.9524,32.6026],[-96.9523,32.6048],[-96.95,32.606],[-96.9495,32.6093],[-96.9542,32.6124],[-96.9586,32.6132],[-96.961,32.6191],[-96.9563,32.626],[-96.9567,32.6299],[-96.9527,32.6319],[-96.9549,32.6363],[-96.9556,32.647],[-96.9483,32.6466],[-96.9471,32.6491],[-96.9409,32.6505],[-96.9401,32.6545],[-96.9354,32.6524],[-96.932,32.6537],[-96.9285,32.657],[-96.9289,32.662],[-96.9167,32.6623],[-96.9091,32.6672],[-96.9084,32.6702],[-96.9142,32.6783],[-96.9147,32.6816],[-96.9129,32.6851],[-96.9198,32.6881],[-96.9152,32.6969],[-96.924,32.703],[-96.9242,32.7046],[-96.9202,32.7092],[-96.9149,32.7122],[-96.9118,32.7189],[-96.9023,32.7229],[-96.9008,32.7267],[-96.9011,32.7364],[-96.9079,32.745],[-96.909,32.7515],[-96.913,32.7565],[-96.916,32.7576],[-96.9167,32.7614],[-96.9245,32.7672],[-96.9247,32.7786],[-96.9218,32.7812],[-96.9125,32.7836],[-96.9071,32.7948],[-96.8982,32.7962],[-96.8982,32.7983],[-96.9054,32.8006],[-96.906,32.8032],[-96.9122,32.8035],[-96.9202,32.8109],[-96.9292,32.8074],[-96.9379,32.8104],[-96.9401,32.8161],[-96.94,32.8211],[-96.9445,32.8283],[-96.9443,32.8386],[-96.9425,32.8417],[-96.9445,32.845],[-96.9446,32.8497],[-96.9571,32.854],[-96.9564,32.8583],[-96.9686,32.8553],[-96.971,32.8586],[-96.9749,32.8551],[-96.9751,32.8507],[-96.9831,32.8492],[-96.9846,32.8551],[-96.9922,32.8552],[-96.995,32.8595],[-97.0015,32.8603],[-97.0072,32.8701],[-97.0127,32.8746],[-97.0201,32.8757],[-97.0321,32.886],[-97.0329,32.8934],[-97.0369,32.9035],[-97.0434,32.9058],[-97.0482,32.9001],[-97.0515,32.9011],[-97.063,32.9113],[-97.065,32.9165],[-97.0698,32.9169],[-97.0776,32.9212],[-97.0805,32.9285],[-97.0843,32.9321],[-97.087,32.9321],[-97.0891,32.9286],[-97.0928,32.9279],[-97.0949,32.9314],[-97.1,32.9322],[-97.1021,32.9359],[-97.1065,32.9347],[-97.1143,32.9363],[-97.1179,32.9336],[-97.1219,32.9355],[-97.1253,32.9347],[-97.1281,32.9413],[-97.1366,32.9481],[-97.1432,32.9454],[-97.1455,32.9466],[-97.1468,32.9435],[-97.1491,32.9433],[-97.1522,32.9455],[-97.1542,32.9518],[-97.1553,32.9499],[-97.1601,32.9491],[-97.1638,32.9527],[-97.1661,32.951],[-97.1719,32.9509],[-97.1734,32.9478],[-97.1785,32.9446],[-97.1804,32.9468],[-97.1886,32.949],[-97.1883,32.9544],[-97.1946,32.956],[-97.1965,32.9587],[-97.206,32.9593],[-97.21,32.9571],[-97.2148,32.9571],[-97.2175,32.9658],[-97.2218,32.9643],[-97.222,32.9618],[-97.2312,32.955],[-97.2323,32.9523],[-97.2391,32.9534],[-97.2421,32.9524],[-97.2511,32.9546],[-97.2516,32.9532],[-97.2575,32.9507],[-97.2643,32.9504],[-97.2715,32.9542],[-97.2719,32.9565],[-97.2773,32.9484],[-97.2781,32.9436],[-97.2868,32.9451],[-97.2908,32.9476],[-97.2923,32.9433],[-97.295,32.9426],[-97.3085,32.9493],[-97.3232,32.9412],[-97.3294,32.9428],[-97.3333,32.9408],[-97.3387,32.9425],[-97.3441,32.9379],[-97.352,32.9445],[-97.3576,32.9416],[-97.3634,32.944],[-97.3686,32.9405],[-97.3721,32.94],[-97.3817,32.9439],[-97.3882,32.9412],[-97.3991,32.9452],[-97.4055,32.9525],[-97.4118,32.955],[-97.4183,32.9477],[-97.4194,32.9436],[-97.4153,32.934],[-97.4037,32.9177],[-97.4017,32.9053],[-97.404,32.904],[-97.4035,32.8984],[-97.4084,32.8898],[-97.4141,32.8891],[-97.4246,32.8816],[-97.4249,32.8788],[-97.423,32.8756],[-97.4253,32.8684],[-97.4289,32.8661],[-97.4378,32.8671],[-97.44,32.8623],[-97.4426,32.8627],[-97.4437,32.866],[-97.4488,32.8688],[-97.4506,32.8684],[-97.4558,32.874],[-97.4579,32.8732],[-97.459,32.8745],[-97.4746,32.8767],[-97.4773,32.8788],[-97.4822,32.8749],[-97.4853,32.8692],[-97.4949,32.8727],[-97.4963,32.8703],[-97.5049,32.8654],[-97.509,32.8657],[-97.5121,32.8623],[-97.5186,32.8646],[-97.5245,32.8605],[-97.5383,32.8625],[-97.5429,32.8619],[-97.5481,32.8587],[-97.5541,32.8585],[-97.5685,32.8671],[-97.5697,32.8706],[-97.5771,32.8723],[-97.5778,32.8759],[-97.5822,32.8754],[-97.5854,32.8768],[-97.5896,32.882],[-97.5946,32.8797],[-97.5976,32.8805],[-97.6001,32.8784],[-97.6092,32.8793],[-97.6094,32.8772],[-97.6194,32.8767],[-97.6223,32.8731],[-97.629,32.8734],[-97.6311,32.8721],[-97.636,32.8744],[-97.6405,32.8744],[-97.6504,32.8826],[-97.656,32.8798],[-97.659,32.8814],[-97.6659,32.8816],[-97.6691,32.8842],[-97.6725,32.8817],[-97.6788,32.884],[-97.6844,32.8807],[-97.6888,32.8814],[-97.6932,32.8748],[-97.696,32.8775],[-97.7011,32.8758],[-97.7039,32.882],[-97.7069,32.8847],[-97.7052,32.8879],[-97.7063,32.8904],[-97.7107,32.8931],[-97.7113,32.8989],[-97.715,32.8986],[-97.7189,32.9041],[-97.7176,32.9076],[-97.7228,32.9168],[-97.7294,32.9148],[-97.7339,32.9192],[-97.7385,32.9175],[-97.7458,32.919],[-97.7499,32.9233],[-97.7504,32.9303],[-97.7539,32.9324],[-97.752,32.9383],[-97.7555,32.9515],[-97.7614,32.9552],[-97.7624,32.9596],[-97.7688,32.962],[-97.7705,32.9651],[-97.7783,32.9659],[-97.785,32.9696],[-97.7871,32.9823],[-97.7932,32.9796],[-97.8065,32.9811],[-97.8089,32.9882],[-97.8114,32.9882],[-97.8157,32.9919],[-97.8201,32.9911],[-97.8251,32.9956],[-97.8248,32.9989],[-97.8269,33.002],[-97.8305,33.0037],[-97.8403,33.004],[-97.8431,33.001],[-97.8534,32.9992],[-97.8568,33.001],[-97.8658,33.0007],[-97.8679,32.9976],[-97.8766,32.9917],[-97.8818,32.9998],[-97.8861,33.0009],[-97.889,32.9989],[-97.8957,33.0018],[-97.8991,32.9997]]]},"properties":{"objectid":540,"tnmid":"{2E4DD442-0318-4E4B-92A4-5E70C0192CB7}","metasourceid":"{511D2AC8-11BA-45FC-AB98-F69D693D4C44}","sourcedatadesc":"Watershed Boundary Dataset (WBD)","sourceoriginator":"Natural Resources and Conservation Service and U.S. Geological Survey","sourcefeatureid":null,"loaddate":1723803860000,"referencegnis_ids":"1383210","areaacres":968995.81,"areasqkm":3921.39,"states":"TX","huc8":"12030102","name":"Lower West Fork Trinity","globalid":"{F7F09716-4D44-4AB7-A977-1D93994D44DE}","shape_Length":450467.85057373624,"shape_Area":5554237901.20087}},{"type":"Feature","id":541,"geometry":{"type":"Polygon","coordinates":[[[-97.3952,33.7345],[-97.401,33.7372],[-97.4076,33.7335],[-97.4156,33.7329],[-97.4207,33.7347],[-97.423,33.7327],[-97.4266,33.7332],[-97.4309,33.7307],[-97.4305,33.7285],[-97.4334,33.7271],[-97.4363,33.7209],[-97.4388,33.7198],[-97.4416,33.7215],[-97.4431,33.7261],[-97.4548,33.7214],[-97.458,33.723],[-97.4664,33.7217],[-97.473,33.7237],[-97.477,33.7286],[-97.4812,33.7277],[-97.4849,33.7241],[-97.4843,33.7175],[-97.4912,33.7189],[-97.4941,33.7173],[-97.5,33.6976],[-97.5083,33.6968],[-97.5121,33.6981],[-97.5181,33.6962],[-97.5205,33.7003],[-97.5199,33.706],[-97.5279,33.716],[-97.5422,33.7181],[-97.5432,33.713],[-97.5472,33.7131],[-97.5458,33.7119],[-97.5474,33.7092],[-97.5538,33.7096],[-97.557,33.7077],[-97.5586,33.7055],[-97.5602,33.6947],[-97.5664,33.6888],[-97.5709,33.6871],[-97.576,33.6902],[-97.5873,33.6887],[-97.595,33.6953],[-97.5964,33.691],[-97.5981,33.6902],[-97.5976,33.6858],[-97.6014,33.6846],[-97.6046,33.6884],[-97.6054,33.6836],[-97.6078,33.6815],[-97.6144,33.6802],[-97.6177,33.6756],[-97.6218,33.6743],[-97.6226,33.6693],[-97.6299,33.6701],[-97.6401,33.6667],[-97.6428,33.6618],[-97.6456,33.662],[-97.6512,33.6571],[-97.6549,33.6558],[-97.6516,33.6498],[-97.6514,33.6435],[-97.6399,33.6382],[-97.6354,33.6402],[-97.6338,33.6328],[-97.6224,33.6259],[-97.6284,33.6263],[-97.6304,33.6248],[-97.6275,33.6177],[-97.6317,33.6135],[-97.6244,33.6051],[-97.6256,33.6013],[-97.6246,33.5983],[-97.621,33.5954],[-97.6191,33.5951],[-97.6176,33.597],[-97.6148,33.5963],[-97.6096,33.5903],[-97.6058,33.5883],[-97.6046,33.5864],[-97.606,33.5792],[-97.6019,33.5759],[-97.6011,33.5725],[-97.5988,33.572],[-97.5981,33.5688],[-97.5892,33.5707],[-97.5882,33.5676],[-97.5845,33.5655],[-97.5845,33.5616],[-97.5789,33.5595],[-97.5747,33.5542],[-97.5715,33.5453],[-97.5666,33.5422],[-97.5663,33.5389],[-97.5572,33.5326],[-97.557,33.5274],[-97.5608,33.5225],[-97.5584,33.513],[-97.5561,33.511],[-97.5566,33.5085],[-97.5537,33.507],[-97.5546,33.5043],[-97.5474,33.4969],[-97.5472,33.4908],[-97.5499,33.4861],[-97.5388,33.4828],[-97.5371,33.479],[-97.532,33.4784],[-97.5297,33.4811],[-97.5256,33.479],[-97.5261,33.4727],[-97.5229,33.4703],[-97.5188,33.4762],[-97.5106,33.4743],[-97.5068,33.4671],[-97.5034,33.4656],[-97.5017,33.4668],[-97.4991,33.4651],[-97.4947,33.4572],[-97.4903,33.457],[-97.4846,33.454],[-97.4794,33.4484],[-97.4743,33.45],[-97.472,33.4491],[-97.472,33.4458],[-97.4689,33.4437],[-97.4619,33.4314],[-97.4491,33.4247],[-97.4462,33.4184],[-97.4417,33.4187],[-97.4389,33.4168],[-97.4343,33.4098],[-97.4382,33.4017],[-97.4296,33.3977],[-97.4284,33.3938],[-97.4246,33.3907],[-97.4185,33.3918],[-97.4137,33.3866],[-97.4092,33.3872],[-97.4035,33.3839],[-97.4051,33.3775],[-97.4035,33.3745],[-97.4026,33.3698],[-97.4038,33.367],[-97.4024,33.364],[-97.406,33.3592],[-97.4051,33.3547],[-97.4078,33.3507],[-97.4049,33.3479],[-97.4017,33.3475],[-97.3993,33.3426],[-97.3871,33.3295],[-97.3849,33.323],[-97.387,33.308],[-97.3783,33.3045],[-97.373,33.2985],[-97.3664,33.2958],[-97.3676,33.2879],[-97.3658,33.2823],[-97.3659,33.2686],[-97.3552,33.2611],[-97.3527,33.2621],[-97.3461,33.2594],[-97.344,33.2547],[-97.3447,33.2501],[-97.3364,33.2456],[-97.3376,33.2382],[-97.334,33.2368],[-97.3311,33.2312],[-97.3321,33.2185],[-97.3287,33.2167],[-97.3272,33.2129],[-97.3219,33.2131],[-97.3181,33.2109],[-97.316,33.2058],[-97.313,33.2031],[-97.3105,33.1939],[-97.2975,33.1913],[-97.289,33.186],[-97.2757,33.1828],[-97.2686,33.1764],[-97.2678,33.1736],[-97.2625,33.1726],[-97.2565,33.1753],[-97.2492,33.172],[-97.2457,33.1719],[-97.2455,33.1658],[-97.2422,33.163],[-97.2448,33.1594],[-97.245,33.1542],[-97.2365,33.1497],[-97.2382,33.1386],[-97.2327,33.1313],[-97.2222,33.1283],[-97.2192,33.1236],[-97.2126,33.1245],[-97.2076,33.1229],[-97.205,33.1128],[-97.2,33.1072],[-97.1973,33.1074],[-97.1967,33.1047],[-97.19,33.1037],[-97.1859,33.1062],[-97.1834,33.1042],[-97.1791,33.1042],[-97.1675,33.0928],[-97.1613,33.0945],[-97.1592,33.0901],[-97.1562,33.0894],[-97.1553,33.0862],[-97.1493,33.0864],[-97.1471,33.0811],[-97.1479,33.0757],[-97.1459,33.0714],[-97.1388,33.065],[-97.1331,33.0637],[-97.1343,33.059],[-97.1276,33.0535],[-97.1284,33.0501],[-97.1251,33.0466],[-97.1187,33.0457],[-97.1123,33.0481],[-97.1029,33.0452],[-97.0987,33.039],[-97.0906,33.0366],[-97.0903,33.0326],[-97.0941,33.0265],[-97.0899,33.0255],[-97.0881,33.0229],[-97.0787,33.0213],[-97.0781,33.0166],[-97.0737,33.0119],[-97.0722,33.0113],[-97.0663,33.0149],[-97.0609,33.015],[-97.0577,33.0186],[-97.0477,33.0163],[-97.0399,33.0173],[-97.0345,33.0115],[-97.0249,33.0086],[-97.0226,33.01],[-97.0202,33.0087],[-97.0172,33.0093],[-97.0104,33.0053],[-96.9999,33.0072],[-96.996,33],[-96.9939,33],[-96.9906,33.0035],[-96.9853,33.0045],[-96.9822,32.999],[-96.9764,32.9954],[-96.9658,32.993],[-96.9451,32.9811],[-96.9402,32.975],[-96.9406,32.9719],[-96.9446,32.9702],[-96.9474,32.9659],[-96.9608,32.965],[-96.9634,32.9605],[-96.9682,32.9598],[-96.9757,32.966],[-96.9858,32.967],[-96.9901,32.9644],[-96.9942,32.9653],[-97.0066,32.9619],[-97.0142,32.958],[-97.02,32.9578],[-97.0273,32.9552],[-97.0338,32.9473],[-97.0351,32.9412],[-97.0392,32.9387],[-97.0419,32.9327],[-97.0459,32.9307],[-97.0487,32.9249],[-97.0517,32.9253],[-97.0547,32.9207],[-97.065,32.9165],[-97.065,32.9143],[-97.0503,32.9004],[-97.0482,32.9001],[-97.0434,32.9058],[-97.0369,32.9035],[-97.0329,32.8934],[-97.0321,32.886],[-97.0201,32.8757],[-97.0127,32.8746],[-97.0072,32.8701],[-97.0015,32.8603],[-96.995,32.8595],[-96.9922,32.8552],[-96.9846,32.8551],[-96.9831,32.8492],[-96.9751,32.8507],[-96.9749,32.8551],[-96.971,32.8586],[-96.9686,32.8553],[-96.9564,32.8583],[-96.9571,32.854],[-96.9446,32.8497],[-96.9445,32.845],[-96.9425,32.8417],[-96.9443,32.8386],[-96.9445,32.8283],[-96.94,32.8211],[-96.9401,32.8161],[-96.9379,32.8104],[-96.9292,32.8074],[-96.9202,32.8109],[-96.9122,32.8035],[-96.906,32.8032],[-96.9054,32.8006],[-96.8982,32.7983],[-96.8995,32.8059],[-96.9039,32.8096],[-96.904,32.8142],[-96.8865,32.8318],[-96.8843,32.8374],[-96.8753,32.8406],[-96.8703,32.8392],[-96.8628,32.8477],[-96.8469,32.8531],[-96.842,32.8532],[-96.832,32.8574],[-96.8248,32.8558],[-96.8225,32.8575],[-96.8182,32.8578],[-96.8126,32.8541],[-96.81,32.854],[-96.8053,32.8566],[-96.802,32.8656],[-96.7968,32.8689],[-96.7973,32.8768],[-96.7941,32.8806],[-96.7921,32.8865],[-96.7918,32.8895],[-96.7943,32.8958],[-96.8036,32.9001],[-96.8039,32.9078],[-96.8074,32.91],[-96.8075,32.914],[-96.8025,32.9219],[-96.8049,32.9279],[-96.8108,32.9313],[-96.8202,32.9329],[-96.8198,32.9446],[-96.8265,32.9527],[-96.8299,32.9646],[-96.8327,32.9653],[-96.8367,32.9638],[-96.8386,32.9653],[-96.8339,32.9715],[-96.8315,32.9799],[-96.8363,32.9858],[-96.8433,32.99],[-96.8484,33.0006],[-96.8363,33.0078],[-96.835,33.0174],[-96.8404,33.0218],[-96.8418,33.026],[-96.8329,33.0315],[-96.8317,33.0374],[-96.8258,33.0427],[-96.8258,33.0533],[-96.8234,33.0579],[-96.8255,33.0672],[-96.8248,33.0737],[-96.8215,33.0807],[-96.8145,33.0866],[-96.8136,33.0902],[-96.8148,33.0955],[-96.8119,33.1042],[-96.816,33.1133],[-96.8089,33.1199],[-96.8002,33.1187],[-96.7976,33.1219],[-96.7976,33.1248],[-96.7934,33.1262],[-96.7914,33.1303],[-96.7878,33.1331],[-96.789,33.135],[-96.7872,33.1411],[-96.7898,33.1505],[-96.789,33.1537],[-96.786,33.1559],[-96.7811,33.156],[-96.7787,33.1631],[-96.7699,33.1686],[-96.771,33.1767],[-96.7696,33.1892],[-96.7627,33.1938],[-96.7598,33.1986],[-96.7676,33.2079],[-96.7682,33.2195],[-96.7741,33.2227],[-96.7757,33.2304],[-96.7807,33.2302],[-96.782,33.2327],[-96.785,33.2332],[-96.7855,33.2358],[-96.7823,33.2415],[-96.7836,33.2438],[-96.7767,33.2459],[-96.7742,33.248],[-96.7727,33.2527],[-96.7789,33.2586],[-96.7713,33.2615],[-96.77,33.2635],[-96.7713,33.2693],[-96.7676,33.2716],[-96.7667,33.277],[-96.7687,33.2813],[-96.7633,33.2913],[-96.767,33.2957],[-96.7654,33.3064],[-96.7601,33.31],[-96.7589,33.3136],[-96.7609,33.3177],[-96.7584,33.3206],[-96.7578,33.3252],[-96.7602,33.3273],[-96.7574,33.3301],[-96.7594,33.3335],[-96.7526,33.3367],[-96.7511,33.3413],[-96.7538,33.3468],[-96.7512,33.3538],[-96.7527,33.3636],[-96.7511,33.3761],[-96.7534,33.3808],[-96.7424,33.3828],[-96.7343,33.389],[-96.7335,33.3945],[-96.7383,33.4012],[-96.7386,33.4096],[-96.7302,33.4138],[-96.7297,33.4199],[-96.7238,33.4311],[-96.7234,33.4385],[-96.728,33.4431],[-96.7271,33.4468],[-96.724,33.4504],[-96.727,33.4578],[-96.7254,33.4667],[-96.7206,33.4711],[-96.7192,33.4755],[-96.7252,33.4798],[-96.7268,33.4833],[-96.719,33.4933],[-96.7115,33.4959],[-96.7082,33.4993],[-96.7092,33.5062],[-96.7112,33.5082],[-96.7117,33.5145],[-96.7105,33.5157],[-96.7121,33.5189],[-96.7109,33.5207],[-96.712,33.5253],[-96.7109,33.53],[-96.7086,33.5323],[-96.709,33.5384],[-96.7054,33.5483],[-96.6999,33.5505],[-96.6973,33.5548],[-96.6985,33.5629],[-96.7044,33.5669],[-96.7058,33.5804],[-96.7119,33.5897],[-96.7201,33.5928],[-96.7372,33.5948],[-96.7471,33.5919],[-96.7569,33.5963],[-96.7644,33.5956],[-96.7767,33.604],[-96.7865,33.5991],[-96.7985,33.6017],[-96.8074,33.6064],[-96.8112,33.605],[-96.8146,33.606],[-96.8179,33.603],[-96.822,33.6019],[-96.8264,33.6044],[-96.8279,33.6091],[-96.8339,33.61],[-96.8339,33.6143],[-96.8363,33.6167],[-96.8489,33.6094],[-96.8536,33.6114],[-96.8574,33.6095],[-96.8648,33.6209],[-96.8762,33.6195],[-96.8811,33.6249],[-96.8885,33.6277],[-96.8883,33.6328],[-96.903,33.6396],[-96.9025,33.6557],[-96.9155,33.6565],[-96.9219,33.6531],[-96.927,33.6595],[-96.9314,33.658],[-96.9338,33.6595],[-96.941,33.6582],[-96.9449,33.6551],[-96.9476,33.6555],[-96.9493,33.6617],[-96.9574,33.6646],[-96.9664,33.6706],[-96.9659,33.6739],[-96.9694,33.6767],[-96.9698,33.683],[-96.9825,33.6882],[-96.9839,33.6946],[-96.9872,33.6986],[-96.9926,33.6992],[-96.9964,33.7025],[-96.9964,33.7058],[-96.9935,33.7085],[-96.9935,33.7122],[-96.9952,33.7134],[-96.9993,33.7141],[-97.0023,33.71],[-97.0079,33.7087],[-97.0092,33.7044],[-97.0137,33.705],[-97.0137,33.7031],[-97.0182,33.6991],[-97.0181,33.6965],[-97.0204,33.6947],[-97.0228,33.6977],[-97.0379,33.6924],[-97.0419,33.693],[-97.0504,33.6866],[-97.057,33.6875],[-97.0575,33.6919],[-97.0611,33.6908],[-97.0667,33.6931],[-97.0716,33.6921],[-97.0745,33.6934],[-97.0783,33.6964],[-97.0771,33.6978],[-97.0781,33.7004],[-97.0844,33.6978],[-97.0906,33.7],[-97.092,33.7021],[-97.095,33.7022],[-97.0966,33.7001],[-97.1044,33.7005],[-97.1094,33.7074],[-97.1141,33.7098],[-97.1175,33.7026],[-97.1172,33.6991],[-97.1209,33.698],[-97.1215,33.689],[-97.1279,33.6882],[-97.1317,33.6859],[-97.1353,33.6872],[-97.1407,33.6862],[-97.1425,33.7005],[-97.1407,33.7032],[-97.1413,33.7099],[-97.1426,33.7116],[-97.1477,33.7123],[-97.1494,33.7116],[-97.1495,33.7087],[-97.1552,33.7061],[-97.1549,33.7042],[-97.1502,33.7019],[-97.15,33.6993],[-97.1528,33.6962],[-97.1522,33.6937],[-97.1564,33.6896],[-97.1595,33.689],[-97.161,33.6857],[-97.1664,33.6819],[-97.1688,33.6832],[-97.1715,33.6897],[-97.1744,33.6901],[-97.1773,33.6934],[-97.1813,33.694],[-97.1797,33.6984],[-97.1835,33.6975],[-97.1841,33.7005],[-97.1882,33.7009],[-97.1886,33.7038],[-97.2042,33.7084],[-97.2054,33.7154],[-97.2112,33.7189],[-97.225,33.7137],[-97.2296,33.7064],[-97.2346,33.706],[-97.2373,33.7125],[-97.241,33.7105],[-97.2505,33.7125],[-97.2589,33.7069],[-97.2656,33.7109],[-97.2691,33.707],[-97.2732,33.7076],[-97.2752,33.7095],[-97.2823,33.7088],[-97.2883,33.7012],[-97.2927,33.7051],[-97.2999,33.7066],[-97.3011,33.7044],[-97.3042,33.7033],[-97.3079,33.7044],[-97.3118,33.6982],[-97.3176,33.7013],[-97.3184,33.7084],[-97.3258,33.7067],[-97.3272,33.7092],[-97.3313,33.7104],[-97.3315,33.7139],[-97.3349,33.7122],[-97.3378,33.7134],[-97.3407,33.7168],[-97.3492,33.7203],[-97.352,33.7242],[-97.3617,33.7219],[-97.3643,33.7271],[-97.3678,33.7269],[-97.3729,33.731],[-97.3779,33.7283],[-97.3803,33.7305],[-97.3806,33.7332],[-97.3841,33.735],[-97.3874,33.7351],[-97.3896,33.733],[-97.3952,33.7345]]]},"properties":{"objectid":541,"tnmid":"{FCA1485D-7172-46BB-80B0-B0B36FE59FB1}","metasourceid":"{511D2AC8-11BA-45FC-AB98-F69D693D4C44}","sourcedatadesc":"Watershed Boundary Dataset (WBD)","sourceoriginator":"Natural Resources and Conservation Service and U.S. Geological Survey","sourcefeatureid":null,"loaddate":1723803860000,"referencegnis_ids":"1373653","areaacres":1189410.83,"areasqkm":4813.38,"states":"TX","huc8":"12030103","name":"Elm Fork Trinity","globalid":"{61EBF59C-39A7-4518-A6F9-81489FE8E0EA}","shape_Length":515758.75705545326,"shape_Area":6920642112.551075}},{"type":"Feature","id":542,"geometry":{"type":"Polygon","coordinates":[[[-97.7489,33.6484],[-97.756,33.6593],[-97.756,33.6553],[-97.7585,33.6504],[-97.7599,33.6483],[-97.7641,33.6466],[-97.7642,33.6452],[-97.7669,33.6445],[-97.7681,33.6388],[-97.7763,33.64],[-97.7798,33.6364],[-97.7956,33.6368],[-97.8007,33.6321],[-97.8009,33.6262],[-97.8022,33.6255],[-97.8087,33.6255],[-97.8184,33.6298],[-97.8198,33.6282],[-97.8193,33.6245],[-97.8232,33.619],[-97.83,33.6177],[-97.8288,33.6129],[-97.8351,33.6007],[-97.8336,33.5995],[-97.8291,33.6007],[-97.8248,33.5966],[-97.8243,33.5932],[-97.8198,33.5905],[-97.8135,33.5898],[-97.8109,33.5862],[-97.8044,33.5852],[-97.7996,33.5786],[-97.7949,33.5784],[-97.7893,33.5725],[-97.7887,33.5666],[-97.7777,33.5584],[-97.7795,33.5542],[-97.7768,33.5493],[-97.7712,33.5455],[-97.7676,33.5458],[-97.7621,33.5412],[-97.7571,33.5402],[-97.7525,33.5365],[-97.7545,33.5307],[-97.7577,33.5276],[-97.7552,33.5213],[-97.7507,33.5217],[-97.748,33.5168],[-97.7458,33.5162],[-97.7395,33.518],[-97.7351,33.5134],[-97.7295,33.5139],[-97.7261,33.51],[-97.7221,33.5098],[-97.7168,33.5047],[-97.7112,33.5025],[-97.7117,33.4926],[-97.7083,33.4873],[-97.7106,33.4823],[-97.7063,33.4763],[-97.7012,33.4728],[-97.7027,33.4711],[-97.697,33.4655],[-97.6838,33.4624],[-97.6816,33.4556],[-97.6788,33.4557],[-97.6772,33.4536],[-97.6744,33.4462],[-97.68,33.4418],[-97.6796,33.4382],[-97.6818,33.4362],[-97.681,33.4334],[-97.6756,33.4299],[-97.669,33.4293],[-97.6619,33.4225],[-97.6574,33.4207],[-97.6581,33.4141],[-97.6537,33.4137],[-97.6472,33.4081],[-97.6443,33.4095],[-97.6378,33.4042],[-97.6354,33.399],[-97.6391,33.3963],[-97.6381,33.3915],[-97.6408,33.3883],[-97.6387,33.3855],[-97.6407,33.3785],[-97.6373,33.3746],[-97.6264,33.3732],[-97.6235,33.3695],[-97.6186,33.367],[-97.6201,33.3539],[-97.6188,33.3493],[-97.6134,33.3429],[-97.6167,33.3367],[-97.6106,33.3366],[-97.6103,33.3283],[-97.613,33.3274],[-97.6129,33.3225],[-97.6061,33.3185],[-97.6067,33.3149],[-97.6095,33.3131],[-97.6061,33.3073],[-97.6103,33.3056],[-97.6106,33.303],[-97.6068,33.298],[-97.5998,33.2965],[-97.5982,33.2927],[-97.5992,33.2902],[-97.5981,33.2871],[-97.6055,33.2787],[-97.5976,33.2742],[-97.5961,33.2655],[-97.5935,33.265],[-97.5942,33.2566],[-97.5849,33.2492],[-97.5866,33.2339],[-97.5834,33.2327],[-97.5772,33.234],[-97.5739,33.2204],[-97.5689,33.2178],[-97.5679,33.2019],[-97.5632,33.2006],[-97.5523,33.1871],[-97.5511,33.1823],[-97.5468,33.1796],[-97.5478,33.1714],[-97.5446,33.1672],[-97.547,33.1633],[-97.5466,33.1616],[-97.5351,33.1584],[-97.5325,33.1563],[-97.5303,33.151],[-97.5248,33.1525],[-97.522,33.1513],[-97.52,33.1538],[-97.5086,33.1527],[-97.5059,33.1424],[-97.5079,33.1381],[-97.5055,33.1314],[-97.5059,33.1278],[-97.5013,33.1249],[-97.4991,33.1273],[-97.4956,33.128],[-97.4936,33.1262],[-97.4916,33.1284],[-97.4891,33.1279],[-97.483,33.124],[-97.4824,33.1203],[-97.4753,33.1081],[-97.4716,33.1085],[-97.468,33.1038],[-97.4685,33.1],[-97.4708,33.0984],[-97.4687,33.0926],[-97.4728,33.0899],[-97.4704,33.085],[-97.4726,33.083],[-97.4716,33.0784],[-97.4737,33.0686],[-97.4687,33.0581],[-97.4722,33.0525],[-97.4677,33.0466],[-97.4622,33.0458],[-97.4559,33.0412],[-97.4546,33.0393],[-97.4555,33.035],[-97.4525,33.0324],[-97.4489,33.0322],[-97.441,33.0193],[-97.4373,33.0194],[-97.4304,33.0166],[-97.4289,33.0116],[-97.4246,33.0104],[-97.419,33.0047],[-97.4193,32.9958],[-97.4172,32.9935],[-97.4121,32.9922],[-97.4091,32.9878],[-97.4092,32.981],[-97.4071,32.9782],[-97.412,32.9705],[-97.4116,32.9643],[-97.4092,32.9593],[-97.4118,32.955],[-97.4055,32.9525],[-97.3991,32.9452],[-97.3882,32.9412],[-97.3817,32.9439],[-97.3721,32.94],[-97.3686,32.9405],[-97.3634,32.944],[-97.3576,32.9416],[-97.352,32.9445],[-97.3441,32.9379],[-97.3387,32.9425],[-97.3333,32.9408],[-97.3294,32.9428],[-97.3232,32.9412],[-97.3085,32.9493],[-97.295,32.9426],[-97.2923,32.9433],[-97.2908,32.9476],[-97.2868,32.9451],[-97.2781,32.9436],[-97.2773,32.9484],[-97.2719,32.9565],[-97.2715,32.9542],[-97.2643,32.9504],[-97.2575,32.9507],[-97.2516,32.9532],[-97.2511,32.9546],[-97.2421,32.9524],[-97.2391,32.9534],[-97.2323,32.9523],[-97.2312,32.955],[-97.222,32.9618],[-97.2218,32.9643],[-97.2175,32.9658],[-97.2148,32.9571],[-97.21,32.9571],[-97.206,32.9593],[-97.1965,32.9587],[-97.1946,32.956],[-97.1883,32.9544],[-97.1886,32.949],[-97.1804,32.9468],[-97.1785,32.9446],[-97.1734,32.9478],[-97.1719,32.9509],[-97.1661,32.951],[-97.1638,32.9527],[-97.1601,32.9491],[-97.1553,32.9499],[-97.1542,32.9518],[-97.1522,32.9455],[-97.1491,32.9433],[-97.1468,32.9435],[-97.1455,32.9466],[-97.1432,32.9454],[-97.1366,32.9481],[-97.1281,32.9413],[-97.1253,32.9347],[-97.1219,32.9355],[-97.1179,32.9336],[-97.1143,32.9363],[-97.1065,32.9347],[-97.1021,32.9359],[-97.1,32.9322],[-97.0949,32.9314],[-97.0928,32.9279],[-97.0891,32.9286],[-97.087,32.9321],[-97.0843,32.9321],[-97.0805,32.9285],[-97.0776,32.9212],[-97.0698,32.9169],[-97.065,32.9165],[-97.0547,32.9207],[-97.0517,32.9253],[-97.0487,32.9249],[-97.0459,32.9307],[-97.0419,32.9327],[-97.0392,32.9387],[-97.0351,32.9412],[-97.0338,32.9473],[-97.0273,32.9552],[-97.02,32.9578],[-97.0142,32.958],[-97.0066,32.9619],[-96.9942,32.9653],[-96.9901,32.9644],[-96.9858,32.967],[-96.9757,32.966],[-96.9672,32.9597],[-96.9634,32.9605],[-96.9608,32.965],[-96.9474,32.9659],[-96.9446,32.9702],[-96.94,32.9725],[-96.9402,32.975],[-96.9491,32.9845],[-96.9658,32.993],[-96.9764,32.9954],[-96.9822,32.999],[-96.9853,33.0045],[-96.9906,33.0035],[-96.9939,33],[-96.996,33],[-96.9999,33.0072],[-97.0104,33.0053],[-97.0172,33.0093],[-97.0202,33.0087],[-97.0226,33.01],[-97.0249,33.0086],[-97.0345,33.0115],[-97.0399,33.0173],[-97.0477,33.0163],[-97.0577,33.0186],[-97.0609,33.015],[-97.0663,33.0149],[-97.0722,33.0113],[-97.0737,33.0119],[-97.0781,33.0166],[-97.0787,33.0213],[-97.0881,33.0229],[-97.0899,33.0255],[-97.0941,33.0265],[-97.0903,33.0326],[-97.0906,33.0366],[-97.0987,33.039],[-97.1029,33.0452],[-97.1123,33.0481],[-97.1187,33.0457],[-97.1251,33.0466],[-97.1284,33.0501],[-97.1276,33.0535],[-97.1343,33.059],[-97.1331,33.0637],[-97.1388,33.065],[-97.1459,33.0714],[-97.1479,33.0757],[-97.1471,33.0811],[-97.1493,33.0864],[-97.1553,33.0862],[-97.1562,33.0894],[-97.1592,33.0901],[-97.1613,33.0945],[-97.1675,33.0928],[-97.1791,33.1042],[-97.1834,33.1042],[-97.1859,33.1062],[-97.19,33.1037],[-97.1967,33.1047],[-97.1973,33.1074],[-97.2,33.1072],[-97.205,33.1128],[-97.2076,33.1229],[-97.2126,33.1245],[-97.2192,33.1236],[-97.2222,33.1283],[-97.2327,33.1313],[-97.2382,33.1386],[-97.2365,33.1497],[-97.245,33.1542],[-97.2448,33.1594],[-97.2422,33.163],[-97.2455,33.1658],[-97.2457,33.1719],[-97.2492,33.172],[-97.2565,33.1753],[-97.2625,33.1726],[-97.2678,33.1736],[-97.2686,33.1764],[-97.2757,33.1828],[-97.289,33.186],[-97.2975,33.1913],[-97.3105,33.1939],[-97.313,33.2031],[-97.316,33.2058],[-97.3181,33.2109],[-97.3219,33.2131],[-97.3272,33.2129],[-97.3287,33.2167],[-97.3321,33.2185],[-97.3311,33.2312],[-97.334,33.2368],[-97.3376,33.2382],[-97.3364,33.2456],[-97.3447,33.2501],[-97.344,33.2547],[-97.3461,33.2594],[-97.3527,33.2621],[-97.3552,33.2611],[-97.3659,33.2686],[-97.3658,33.2823],[-97.3676,33.2879],[-97.3664,33.2958],[-97.373,33.2985],[-97.3783,33.3045],[-97.387,33.308],[-97.3849,33.323],[-97.3871,33.3295],[-97.3993,33.3426],[-97.4017,33.3475],[-97.4049,33.3479],[-97.4078,33.3507],[-97.4051,33.3547],[-97.406,33.3592],[-97.4024,33.364],[-97.4038,33.367],[-97.4026,33.3698],[-97.4035,33.3745],[-97.4051,33.3775],[-97.4035,33.3839],[-97.4092,33.3872],[-97.4137,33.3866],[-97.4185,33.3918],[-97.4246,33.3907],[-97.4284,33.3938],[-97.4296,33.3977],[-97.4382,33.4017],[-97.4343,33.4098],[-97.4389,33.4168],[-97.4417,33.4187],[-97.4462,33.4184],[-97.4491,33.4247],[-97.4619,33.4314],[-97.4689,33.4437],[-97.472,33.4458],[-97.472,33.4491],[-97.4743,33.45],[-97.4794,33.4484],[-97.4846,33.454],[-97.4903,33.457],[-97.4947,33.4572],[-97.4991,33.4651],[-97.5017,33.4668],[-97.5034,33.4656],[-97.5068,33.4671],[-97.5106,33.4743],[-97.5188,33.4762],[-97.5229,33.4703],[-97.5261,33.4727],[-97.5256,33.479],[-97.5297,33.4811],[-97.532,33.4784],[-97.5371,33.479],[-97.5388,33.4828],[-97.5499,33.4861],[-97.5472,33.4908],[-97.5474,33.4969],[-97.5546,33.5043],[-97.5537,33.507],[-97.5566,33.5085],[-97.5561,33.511],[-97.5584,33.513],[-97.5608,33.5225],[-97.557,33.5274],[-97.5572,33.5326],[-97.5663,33.5389],[-97.5666,33.5422],[-97.5715,33.5453],[-97.5747,33.5542],[-97.5789,33.5595],[-97.5845,33.5616],[-97.5845,33.5655],[-97.5882,33.5676],[-97.5892,33.5707],[-97.5981,33.5688],[-97.5988,33.572],[-97.6011,33.5725],[-97.6019,33.5759],[-97.606,33.5792],[-97.6046,33.5864],[-97.6058,33.5883],[-97.6096,33.5903],[-97.6148,33.5963],[-97.6176,33.597],[-97.6191,33.5951],[-97.621,33.5954],[-97.6246,33.5983],[-97.6256,33.6013],[-97.6244,33.6051],[-97.6317,33.6135],[-97.6275,33.6177],[-97.6304,33.6248],[-97.6284,33.6263],[-97.6224,33.6259],[-97.6338,33.6328],[-97.6354,33.6402],[-97.6395,33.6381],[-97.6441,33.6409],[-97.6476,33.6407],[-97.6514,33.6435],[-97.6511,33.6458],[-97.6535,33.6488],[-97.6642,33.6513],[-97.67,33.6548],[-97.6752,33.6551],[-97.6769,33.6588],[-97.6814,33.6552],[-97.687,33.646],[-97.6946,33.6479],[-97.6985,33.6419],[-97.7084,33.644],[-97.7102,33.6413],[-97.7133,33.641],[-97.717,33.6425],[-97.7193,33.6482],[-97.724,33.6415],[-97.729,33.6386],[-97.7317,33.6349],[-97.7489,33.6484]]]},"properties":{"objectid":542,"tnmid":"{C776D892-EEF6-4426-B8EE-8F76070C1C41}","metasourceid":"{511D2AC8-11BA-45FC-AB98-F69D693D4C44}","sourcedatadesc":"Watershed Boundary Dataset (WBD)","sourceoriginator":"Natural Resources and Conservation Service and U.S. Geological Survey","sourcefeatureid":null,"loaddate":1723803860000,"referencegnis_ids":"1334260","areaacres":460433.09,"areasqkm":1863.31,"states":"TX","huc8":"12030104","name":"Denton","globalid":"{F76400DB-AFF2-4334-8277-AC33A219C1B9}","shape_Length":391727.3145500994,"shape_Area":2670907485.6693325}},{"type":"Feature","id":543,"geometry":{"type":"Polygon","coordinates":[[[-96.7785,33.1351],[-96.7841,33.1402],[-96.7872,33.1411],[-96.789,33.1361],[-96.7878,33.1331],[-96.7914,33.1303],[-96.7934,33.1262],[-96.7976,33.1248],[-96.799,33.1196],[-96.8017,33.1183],[-96.8089,33.1199],[-96.8155,33.1144],[-96.8157,33.1115],[-96.8119,33.1042],[-96.8148,33.0955],[-96.8136,33.0902],[-96.8145,33.0866],[-96.8215,33.0807],[-96.8248,33.0737],[-96.8255,33.0672],[-96.8234,33.0579],[-96.8258,33.0533],[-96.8258,33.0427],[-96.8317,33.0374],[-96.8329,33.0315],[-96.8418,33.026],[-96.8404,33.0218],[-96.835,33.0174],[-96.8363,33.0078],[-96.8484,33.0006],[-96.8433,32.99],[-96.8363,32.9858],[-96.8315,32.9799],[-96.8339,32.9715],[-96.8386,32.9653],[-96.8367,32.9638],[-96.8327,32.9653],[-96.8299,32.9646],[-96.8265,32.9527],[-96.8198,32.9446],[-96.8202,32.9329],[-96.8108,32.9313],[-96.8053,32.9284],[-96.8025,32.9219],[-96.8075,32.914],[-96.8074,32.91],[-96.8039,32.9078],[-96.8036,32.9001],[-96.7943,32.8958],[-96.7918,32.8895],[-96.7941,32.8806],[-96.7973,32.8768],[-96.7968,32.8689],[-96.802,32.8656],[-96.8053,32.8566],[-96.81,32.854],[-96.8126,32.8541],[-96.8182,32.8578],[-96.8225,32.8575],[-96.8248,32.8558],[-96.832,32.8574],[-96.842,32.8532],[-96.8469,32.8531],[-96.8628,32.8477],[-96.8703,32.8392],[-96.8753,32.8406],[-96.8843,32.8374],[-96.8865,32.8318],[-96.904,32.8142],[-96.9036,32.8089],[-96.8995,32.8059],[-96.8982,32.7962],[-96.9071,32.7948],[-96.9116,32.7844],[-96.9243,32.7794],[-96.9245,32.7672],[-96.9167,32.7614],[-96.916,32.7576],[-96.913,32.7565],[-96.909,32.7515],[-96.9079,32.745],[-96.901,32.7358],[-96.9018,32.7234],[-96.9118,32.7189],[-96.9149,32.7122],[-96.9202,32.7092],[-96.9242,32.7046],[-96.924,32.703],[-96.9152,32.6969],[-96.9198,32.6881],[-96.9129,32.6851],[-96.9147,32.6816],[-96.9142,32.6783],[-96.9084,32.6702],[-96.91,32.6664],[-96.9167,32.6623],[-96.9289,32.662],[-96.9285,32.657],[-96.932,32.6537],[-96.9354,32.6524],[-96.9401,32.6545],[-96.9409,32.6505],[-96.9471,32.6491],[-96.9483,32.6466],[-96.9556,32.647],[-96.9549,32.6363],[-96.9527,32.6319],[-96.9567,32.6299],[-96.9563,32.626],[-96.961,32.6191],[-96.9586,32.6132],[-96.9542,32.6124],[-96.9493,32.6089],[-96.9524,32.6026],[-96.9583,32.5996],[-96.9589,32.5965],[-96.9634,32.5958],[-96.9618,32.5921],[-96.9606,32.5764],[-96.9637,32.5744],[-96.9667,32.5678],[-96.9721,32.5619],[-96.9745,32.5539],[-96.9698,32.5515],[-96.9639,32.5528],[-96.9594,32.5403],[-96.9562,32.536],[-96.9499,32.5364],[-96.9455,32.5339],[-96.9429,32.5287],[-96.9387,32.5274],[-96.9363,32.5247],[-96.9359,32.5197],[-96.9278,32.517],[-96.9196,32.5098],[-96.9194,32.5069],[-96.917,32.5048],[-96.9083,32.504],[-96.9047,32.4952],[-96.899,32.4947],[-96.8947,32.492],[-96.891,32.4966],[-96.8872,32.4928],[-96.8921,32.4819],[-96.8879,32.4795],[-96.8831,32.465],[-96.8867,32.4585],[-96.8861,32.4572],[-96.8814,32.4536],[-96.8742,32.4534],[-96.8666,32.4403],[-96.8561,32.4454],[-96.843,32.4399],[-96.8391,32.4341],[-96.8327,32.4294],[-96.8228,32.415],[-96.8156,32.4178],[-96.805,32.4155],[-96.7941,32.4057],[-96.7808,32.3991],[-96.7755,32.3921],[-96.7683,32.3902],[-96.7612,32.3919],[-96.7599,32.3892],[-96.7569,32.3886],[-96.7546,32.3838],[-96.7484,32.3847],[-96.7467,32.3782],[-96.729,32.3756],[-96.7226,32.3726],[-96.7177,32.3724],[-96.7139,32.3745],[-96.7107,32.3715],[-96.7053,32.3732],[-96.696,32.3637],[-96.6929,32.3643],[-96.689,32.368],[-96.6837,32.3602],[-96.6781,32.3632],[-96.677,32.366],[-96.6712,32.3661],[-96.6656,32.3717],[-96.6597,32.3701],[-96.6479,32.3583],[-96.643,32.3572],[-96.6423,32.3508],[-96.6261,32.3272],[-96.6239,32.3283],[-96.618,32.3209],[-96.6102,32.3213],[-96.6073,32.3229],[-96.5969,32.3108],[-96.5935,32.3091],[-96.59,32.3113],[-96.5827,32.3055],[-96.5821,32.2997],[-96.5783,32.3001],[-96.5732,32.2976],[-96.5717,32.2921],[-96.566,32.2946],[-96.5634,32.2986],[-96.559,32.3008],[-96.5494,32.2989],[-96.5369,32.305],[-96.5362,32.3002],[-96.5303,32.297],[-96.5263,32.2911],[-96.5202,32.2905],[-96.5184,32.2888],[-96.5212,32.284],[-96.5208,32.2818],[-96.5176,32.2808],[-96.5129,32.2821],[-96.5107,32.2745],[-96.5074,32.2701],[-96.5098,32.2677],[-96.5084,32.2595],[-96.5008,32.2553],[-96.4957,32.2576],[-96.4922,32.254],[-96.4881,32.255],[-96.4862,32.251],[-96.4811,32.2524],[-96.4756,32.2477],[-96.4734,32.2483],[-96.4725,32.246],[-96.4631,32.2457],[-96.4584,32.2428],[-96.4543,32.2432],[-96.4515,32.239],[-96.4463,32.2379],[-96.444,32.2329],[-96.4399,32.2312],[-96.4332,32.23],[-96.4253,32.2351],[-96.4179,32.2343],[-96.416,32.2315],[-96.4167,32.2239],[-96.415,32.2155],[-96.4119,32.2127],[-96.4118,32.2095],[-96.4079,32.2049],[-96.4075,32.1957],[-96.4009,32.1931],[-96.3973,32.1968],[-96.3924,32.1937],[-96.3881,32.187],[-96.388,32.1817],[-96.3828,32.1784],[-96.3825,32.1756],[-96.3866,32.1697],[-96.3843,32.1618],[-96.371,32.1491],[-96.3646,32.1472],[-96.3573,32.1416],[-96.3551,32.1353],[-96.3505,32.1344],[-96.346,32.1308],[-96.3407,32.131],[-96.3307,32.1273],[-96.3269,32.1239],[-96.3253,32.1176],[-96.3126,32.1196],[-96.3041,32.1168],[-96.2983,32.1207],[-96.2897,32.12],[-96.27,32.1067],[-96.26,32.1034],[-96.2441,32.0867],[-96.2352,32.0849],[-96.2272,32.0742],[-96.2264,32.0687],[-96.2217,32.0643],[-96.2181,32.0653],[-96.2138,32.0732],[-96.2098,32.072],[-96.2001,32.0736],[-96.194,32.0721],[-96.1882,32.0744],[-96.1851,32.0717],[-96.1824,32.0717],[-96.1768,32.0767],[-96.1734,32.072],[-96.1644,32.0708],[-96.1531,32.0626],[-96.1406,32.0602],[-96.1367,32.0612],[-96.1309,32.0591],[-96.1284,32.0547],[-96.1281,32.0481],[-96.1242,32.0461],[-96.1168,32.047],[-96.1101,32.0443],[-96.1124,32.0393],[-96.1092,32.0353],[-96.1052,32.0348],[-96.1009,32.0372],[-96.0998,32.0323],[-96.0959,32.0299],[-96.0934,32.0321],[-96.0937,32.0348],[-96.0905,32.0356],[-96.0743,32.0285],[-96.0739,32.0167],[-96.0677,32.0145],[-96.0666,32.0104],[-96.0703,32.0042],[-96.0746,32.0017],[-96.0787,32.0019],[-96.0832,32.0043],[-96.0885,32.0011],[-96.0887,31.989],[-96.082,31.9812],[-96.0611,31.9697],[-96.0621,31.9595],[-96.0584,31.9576],[-96.0516,31.959],[-96.0468,31.9574],[-96.0425,31.959],[-96.0353,31.9673],[-96.0352,31.9729],[-96.0294,31.9766],[-96.024,31.9776],[-96.0222,31.9815],[-96.019,31.984],[-96.0061,31.9813],[-95.9821,31.9873],[-95.9742,31.9863],[-95.9699,31.9873],[-95.964,31.9925],[-95.9627,31.9993],[-95.9588,31.9997],[-95.9543,32.0042],[-95.9494,32.0051],[-95.9484,32.0098],[-95.9447,32.0088],[-95.9412,32.0127],[-95.9356,32.0145],[-95.9344,32.0164],[-95.9271,32.0132],[-95.9257,32.0158],[-95.9266,32.0201],[-95.9231,32.0261],[-95.9206,32.0273],[-95.92,32.0344],[-95.9175,32.0377],[-95.915,32.038],[-95.9135,32.0415],[-95.9098,32.042],[-95.9053,32.0496],[-95.9124,32.0605],[-95.9114,32.0626],[-95.9187,32.0721],[-95.9208,32.083],[-95.9314,32.0838],[-95.9226,32.0896],[-95.9319,32.1008],[-95.9268,32.1013],[-95.9234,32.1046],[-95.9218,32.1043],[-95.9214,32.1081],[-95.9186,32.1064],[-95.9132,32.1067],[-95.9123,32.112],[-95.9042,32.1096],[-95.9038,32.114],[-95.8971,32.1172],[-95.8923,32.1223],[-95.8947,32.1294],[-95.891,32.1321],[-95.8924,32.1351],[-95.8913,32.1412],[-95.8977,32.1492],[-95.8971,32.1532],[-95.8991,32.1542],[-95.8983,32.1564],[-95.9002,32.158],[-95.9047,32.1544],[-95.9183,32.1507],[-95.9196,32.1518],[-95.9315,32.1508],[-95.9357,32.1531],[-95.9469,32.1408],[-95.9568,32.1417],[-95.9605,32.1395],[-95.9669,32.1408],[-95.9832,32.135],[-95.9855,32.1328],[-95.9903,32.1334],[-95.9952,32.1369],[-96.001,32.1334],[-96.005,32.1363],[-96.0085,32.1334],[-96.0084,32.1292],[-96.0141,32.1255],[-96.0175,32.1198],[-96.0218,32.1187],[-96.0232,32.1144],[-96.0321,32.1145],[-96.0334,32.1105],[-96.0377,32.1101],[-96.0436,32.105],[-96.0518,32.11],[-96.0601,32.1069],[-96.072,32.108],[-96.074,32.097],[-96.0732,32.0945],[-96.0829,32.082],[-96.0848,32.0766],[-96.0884,32.0764],[-96.0883,32.0836],[-96.0854,32.0838],[-96.0797,32.0918],[-96.0837,32.0985],[-96.0803,32.1112],[-96.0817,32.1146],[-96.08,32.1166],[-96.0753,32.1176],[-96.0729,32.1235],[-96.0738,32.1275],[-96.0823,32.1299],[-96.0888,32.1355],[-96.088,32.1428],[-96.0931,32.1494],[-96.0955,32.1608],[-96.0937,32.1717],[-96.1031,32.1772],[-96.1067,32.1862],[-96.106,32.191],[-96.1111,32.1936],[-96.113,32.2024],[-96.1248,32.2059],[-96.1254,32.2093],[-96.1231,32.2133],[-96.1284,32.2169],[-96.1296,32.2198],[-96.129,32.2235],[-96.1263,32.2273],[-96.1289,32.2293],[-96.1294,32.2361],[-96.1362,32.2339],[-96.1407,32.2358],[-96.1426,32.2447],[-96.145,32.2461],[-96.1469,32.2541],[-96.153,32.2554],[-96.1649,32.2628],[-96.1756,32.2669],[-96.1804,32.2762],[-96.1782,32.2843],[-96.1914,32.2964],[-96.1933,32.3049],[-96.2029,32.3105],[-96.2009,32.3141],[-96.2009,32.3188],[-96.2049,32.3219],[-96.2093,32.3205],[-96.2128,32.3216],[-96.2128,32.3287],[-96.2179,32.3262],[-96.2268,32.3344],[-96.2327,32.3333],[-96.2348,32.3356],[-96.2359,32.342],[-96.242,32.3468],[-96.248,32.3478],[-96.2514,32.3573],[-96.2595,32.3595],[-96.2655,32.3715],[-96.2635,32.3744],[-96.2655,32.3778],[-96.282,32.3814],[-96.2872,32.3856],[-96.2888,32.3914],[-96.2954,32.3947],[-96.2985,32.4007],[-96.2977,32.4033],[-96.3008,32.4077],[-96.3006,32.4118],[-96.3037,32.4137],[-96.305,32.4182],[-96.31,32.4181],[-96.311,32.4226],[-96.3152,32.4237],[-96.3151,32.4302],[-96.3252,32.4332],[-96.3247,32.437],[-96.3216,32.4392],[-96.3237,32.4413],[-96.3222,32.4487],[-96.3252,32.4509],[-96.335,32.4508],[-96.3374,32.4555],[-96.3416,32.4562],[-96.3408,32.4598],[-96.3452,32.4681],[-96.3502,32.4703],[-96.3487,32.4769],[-96.3517,32.4815],[-96.3505,32.4872],[-96.355,32.487],[-96.3565,32.4903],[-96.3568,32.4997],[-96.3631,32.5001],[-96.3632,32.5057],[-96.3672,32.5092],[-96.3678,32.5143],[-96.3753,32.5152],[-96.3824,32.5217],[-96.3776,32.5253],[-96.3786,32.5282],[-96.3748,32.5377],[-96.3774,32.5462],[-96.3713,32.5546],[-96.3726,32.5575],[-96.3711,32.5626],[-96.3735,32.5654],[-96.3737,32.5701],[-96.3699,32.5734],[-96.3719,32.5771],[-96.3778,32.5808],[-96.3805,32.5895],[-96.3842,32.5928],[-96.3845,32.5961],[-96.3867,32.5983],[-96.3857,32.6027],[-96.3876,32.6075],[-96.3923,32.6114],[-96.3955,32.6173],[-96.4018,32.6151],[-96.4055,32.6119],[-96.4141,32.6109],[-96.4221,32.6063],[-96.4234,32.6026],[-96.4335,32.5997],[-96.4544,32.587],[-96.4623,32.5892],[-96.4712,32.588],[-96.4737,32.5829],[-96.467,32.5692],[-96.4653,32.5513],[-96.4678,32.5471],[-96.4671,32.541],[-96.4695,32.5386],[-96.4696,32.5329],[-96.4794,32.5242],[-96.479,32.5153],[-96.4744,32.5067],[-96.4787,32.5055],[-96.4791,32.5019],[-96.4827,32.4985],[-96.4969,32.496],[-96.5007,32.4968],[-96.5012,32.4988],[-96.4898,32.5024],[-96.4829,32.5083],[-96.4853,32.5124],[-96.4895,32.5148],[-96.4888,32.523],[-96.4947,32.5276],[-96.4954,32.5334],[-96.4996,32.5365],[-96.4981,32.5435],[-96.486,32.5547],[-96.4888,32.5611],[-96.4874,32.5647],[-96.4841,32.5669],[-96.4839,32.5708],[-96.4917,32.5789],[-96.4975,32.5824],[-96.4976,32.5847],[-96.5051,32.5861],[-96.5136,32.593],[-96.5142,32.5961],[-96.5219,32.6028],[-96.5214,32.6062],[-96.5161,32.6105],[-96.5156,32.6145],[-96.5231,32.6194],[-96.5274,32.6277],[-96.5301,32.6284],[-96.5313,32.6328],[-96.5331,32.634],[-96.5325,32.6362],[-96.5392,32.6378],[-96.5484,32.6436],[-96.5489,32.6483],[-96.5519,32.651],[-96.5523,32.6574],[-96.5563,32.6586],[-96.5581,32.6611],[-96.5621,32.6602],[-96.5632,32.6638],[-96.5788,32.6776],[-96.577,32.6792],[-96.5759,32.6848],[-96.5823,32.6896],[-96.5808,32.6971],[-96.5829,32.7012],[-96.5865,32.7019],[-96.5905,32.7052],[-96.5894,32.7095],[-96.5912,32.7121],[-96.5947,32.7128],[-96.596,32.7187],[-96.5985,32.7193],[-96.6019,32.7243],[-96.6068,32.7226],[-96.6077,32.7248],[-96.6117,32.7265],[-96.6118,32.73],[-96.6165,32.7331],[-96.6236,32.7449],[-96.625,32.751],[-96.6321,32.761],[-96.6383,32.7635],[-96.64,32.7664],[-96.6464,32.7658],[-96.6494,32.7706],[-96.657,32.7743],[-96.6579,32.7824],[-96.6695,32.7889],[-96.6689,32.7941],[-96.6729,32.7989],[-96.6709,32.8051],[-96.6657,32.8107],[-96.6639,32.8225],[-96.6615,32.8248],[-96.6635,32.8277],[-96.6623,32.8323],[-96.6672,32.835],[-96.667,32.8397],[-96.6717,32.8492],[-96.6701,32.8542],[-96.6733,32.86],[-96.6721,32.8617],[-96.6785,32.8679],[-96.6784,32.8783],[-96.6807,32.88],[-96.6817,32.8847],[-96.6923,32.8936],[-96.6875,32.9094],[-96.6987,32.9121],[-96.7011,32.9173],[-96.7007,32.9207],[-96.7047,32.9242],[-96.7051,32.931],[-96.714,32.9376],[-96.7197,32.9395],[-96.7175,32.9445],[-96.7202,32.9534],[-96.7233,32.9578],[-96.7227,32.9642],[-96.7245,32.9684],[-96.7299,32.9678],[-96.7302,32.971],[-96.7341,32.9737],[-96.7341,32.9774],[-96.741,32.9797],[-96.743,32.9836],[-96.7413,32.9866],[-96.742,32.9905],[-96.7545,32.9971],[-96.7633,33.0081],[-96.7671,33.0096],[-96.7677,33.0131],[-96.7644,33.0185],[-96.7655,33.0214],[-96.7703,33.0209],[-96.7722,33.024],[-96.7759,33.0246],[-96.7777,33.0276],[-96.7785,33.0343],[-96.777,33.0404],[-96.7684,33.0465],[-96.7687,33.0502],[-96.7645,33.0576],[-96.7731,33.0864],[-96.7718,33.0894],[-96.7627,33.0924],[-96.7625,33.101],[-96.7642,33.1088],[-96.7715,33.1252],[-96.7678,33.1328],[-96.7743,33.1358],[-96.7785,33.1351]]]},"properties":{"objectid":543,"tnmid":"{CE784039-C6D0-4622-BC46-805423E4BFF2}","metasourceid":"{511D2AC8-11BA-45FC-AB98-F69D693D4C44}","sourcedatadesc":"Watershed Boundary Dataset (WBD)","sourceoriginator":"Natural Resources and Conservation Service and U.S. Geological Survey","sourcefeatureid":null,"loaddate":1723803860000,"referencegnis_ids":"1348789","areaacres":876611.97,"areasqkm":3547.53,"states":"TX","huc8":"12030105","name":"Upper Trinity","globalid":"{460A94BC-421C-41C2-969F-EF1BB09987C1}","shape_Length":605650.836519263,"shape_Area":4998807984.0530815}},{"type":"Feature","id":544,"geometry":{"type":"Polygon","coordinates":[[[-96.6865,33.5367],[-96.6876,33.5374],[-96.687,33.5409],[-96.6894,33.5437],[-96.6882,33.5485],[-96.6973,33.5548],[-96.6999,33.5505],[-96.7054,33.5483],[-96.709,33.5384],[-96.7086,33.5323],[-96.7109,33.53],[-96.712,33.5253],[-96.7109,33.5207],[-96.7121,33.5189],[-96.7105,33.5157],[-96.7117,33.5145],[-96.7112,33.5082],[-96.7092,33.5062],[-96.7082,33.4993],[-96.7115,33.4959],[-96.719,33.4933],[-96.7268,33.4833],[-96.7252,33.4798],[-96.7196,33.4764],[-96.7192,33.474],[-96.7254,33.4667],[-96.727,33.4578],[-96.724,33.4504],[-96.7271,33.4468],[-96.728,33.4431],[-96.7234,33.4385],[-96.7238,33.4311],[-96.7297,33.4199],[-96.7302,33.4138],[-96.7387,33.4091],[-96.7383,33.4012],[-96.7335,33.3945],[-96.7336,33.3914],[-96.7395,33.3841],[-96.7534,33.3808],[-96.7511,33.3761],[-96.7527,33.3636],[-96.7512,33.3538],[-96.7538,33.3468],[-96.7511,33.3413],[-96.7526,33.3367],[-96.7594,33.3335],[-96.7574,33.3301],[-96.7602,33.3273],[-96.7578,33.3252],[-96.7584,33.3206],[-96.7609,33.3177],[-96.7589,33.3136],[-96.7601,33.31],[-96.7654,33.3064],[-96.767,33.2957],[-96.7633,33.2913],[-96.7687,33.2813],[-96.7667,33.277],[-96.7676,33.2716],[-96.7713,33.2693],[-96.77,33.2635],[-96.7713,33.2615],[-96.7789,33.2586],[-96.7727,33.2527],[-96.7742,33.248],[-96.7767,33.2459],[-96.7836,33.2438],[-96.7823,33.2415],[-96.7855,33.2358],[-96.785,33.2332],[-96.782,33.2327],[-96.7807,33.2302],[-96.7757,33.2304],[-96.7741,33.2227],[-96.7682,33.2195],[-96.7676,33.2079],[-96.7598,33.1986],[-96.7627,33.1938],[-96.7696,33.1892],[-96.771,33.1767],[-96.7699,33.1686],[-96.7787,33.1631],[-96.7811,33.156],[-96.7882,33.1551],[-96.7898,33.1505],[-96.7872,33.1411],[-96.7841,33.1402],[-96.7785,33.1351],[-96.7743,33.1358],[-96.7678,33.1328],[-96.7715,33.1252],[-96.7642,33.1088],[-96.7625,33.101],[-96.7627,33.0924],[-96.7718,33.0894],[-96.7731,33.0864],[-96.7645,33.0576],[-96.7687,33.0502],[-96.7684,33.0465],[-96.777,33.0404],[-96.7785,33.0343],[-96.7777,33.0276],[-96.7759,33.0246],[-96.7722,33.024],[-96.7703,33.0209],[-96.7655,33.0214],[-96.7644,33.0185],[-96.7677,33.0131],[-96.7671,33.0096],[-96.7633,33.0081],[-96.7545,32.9971],[-96.742,32.9905],[-96.7413,32.9866],[-96.743,32.9836],[-96.741,32.9797],[-96.7341,32.9774],[-96.7341,32.9737],[-96.7302,32.971],[-96.7299,32.9678],[-96.7245,32.9684],[-96.7227,32.9642],[-96.7233,32.9578],[-96.7202,32.9534],[-96.7175,32.9445],[-96.7197,32.9395],[-96.714,32.9376],[-96.7051,32.931],[-96.7047,32.9242],[-96.7007,32.9207],[-96.7011,32.9173],[-96.6987,32.9121],[-96.6875,32.9094],[-96.6923,32.8936],[-96.6817,32.8847],[-96.6807,32.88],[-96.6784,32.8783],[-96.6785,32.8679],[-96.6721,32.8617],[-96.6733,32.86],[-96.6701,32.8542],[-96.6717,32.8492],[-96.667,32.8397],[-96.6672,32.835],[-96.6623,32.8323],[-96.6635,32.8277],[-96.6615,32.8248],[-96.6639,32.8225],[-96.6657,32.8107],[-96.6709,32.8051],[-96.6729,32.7989],[-96.6689,32.7941],[-96.6695,32.7889],[-96.6579,32.7824],[-96.657,32.7743],[-96.6494,32.7706],[-96.6464,32.7658],[-96.64,32.7664],[-96.6383,32.7635],[-96.6321,32.761],[-96.625,32.751],[-96.6236,32.7449],[-96.6165,32.7331],[-96.6118,32.73],[-96.6117,32.7265],[-96.6077,32.7248],[-96.6068,32.7226],[-96.6013,32.7238],[-96.5985,32.7193],[-96.5951,32.7176],[-96.5947,32.7128],[-96.5912,32.7121],[-96.5894,32.7095],[-96.5905,32.7052],[-96.582,32.6999],[-96.5808,32.6971],[-96.5823,32.6896],[-96.5759,32.6848],[-96.577,32.6792],[-96.5788,32.6776],[-96.5632,32.6638],[-96.5621,32.6602],[-96.5581,32.6611],[-96.5563,32.6586],[-96.5523,32.6574],[-96.5519,32.651],[-96.5489,32.6483],[-96.5484,32.6436],[-96.5392,32.6378],[-96.5325,32.6362],[-96.5331,32.634],[-96.5313,32.6328],[-96.5301,32.6284],[-96.5274,32.6277],[-96.5231,32.6194],[-96.5156,32.6145],[-96.5161,32.6105],[-96.5214,32.6062],[-96.5219,32.6028],[-96.5142,32.5961],[-96.5136,32.593],[-96.5086,32.5885],[-96.5051,32.5861],[-96.4976,32.5847],[-96.4975,32.5824],[-96.4842,32.5713],[-96.4841,32.5669],[-96.4874,32.5647],[-96.4888,32.5611],[-96.486,32.5547],[-96.4981,32.5435],[-96.4996,32.5374],[-96.4995,32.5359],[-96.4954,32.5334],[-96.4947,32.5276],[-96.4888,32.523],[-96.4895,32.5148],[-96.4853,32.5124],[-96.4829,32.5083],[-96.4898,32.5024],[-96.5014,32.4984],[-96.5007,32.4968],[-96.4969,32.496],[-96.4895,32.4967],[-96.4816,32.499],[-96.4791,32.5019],[-96.4787,32.5055],[-96.4744,32.5067],[-96.479,32.5153],[-96.4794,32.5242],[-96.4731,32.5308],[-96.4702,32.5319],[-96.4695,32.5386],[-96.4671,32.541],[-96.4678,32.5471],[-96.4653,32.5513],[-96.4652,32.5555],[-96.467,32.5692],[-96.4737,32.5829],[-96.4731,32.5857],[-96.4692,32.589],[-96.4623,32.5892],[-96.4544,32.587],[-96.4335,32.5997],[-96.4234,32.6026],[-96.4221,32.6063],[-96.4141,32.6109],[-96.4055,32.6119],[-96.4018,32.6151],[-96.398,32.6156],[-96.3919,32.6213],[-96.3981,32.6278],[-96.399,32.6327],[-96.3935,32.6372],[-96.3958,32.6447],[-96.3941,32.6468],[-96.397,32.6513],[-96.3944,32.6568],[-96.4034,32.6662],[-96.3985,32.6721],[-96.4018,32.6783],[-96.398,32.6817],[-96.4032,32.6902],[-96.4033,32.6978],[-96.4052,32.7006],[-96.4057,32.7071],[-96.4015,32.7138],[-96.4074,32.7195],[-96.4058,32.7228],[-96.4101,32.7245],[-96.4119,32.7291],[-96.4172,32.732],[-96.4191,32.7375],[-96.4302,32.7446],[-96.4285,32.7486],[-96.43,32.7508],[-96.4299,32.7562],[-96.4284,32.7586],[-96.4248,32.76],[-96.4261,32.7667],[-96.423,32.7725],[-96.4252,32.7737],[-96.4268,32.7794],[-96.423,32.785],[-96.4245,32.7872],[-96.4218,32.7941],[-96.422,32.803],[-96.4199,32.8075],[-96.421,32.8114],[-96.4174,32.8153],[-96.4184,32.8235],[-96.412,32.8299],[-96.4157,32.8356],[-96.4154,32.8385],[-96.4121,32.8427],[-96.4141,32.8452],[-96.4117,32.8495],[-96.4128,32.8514],[-96.4098,32.8612],[-96.4122,32.8674],[-96.4097,32.8721],[-96.4138,32.8756],[-96.4097,32.8849],[-96.4129,32.8876],[-96.4123,32.8903],[-96.4143,32.8959],[-96.413,32.911],[-96.4093,32.9183],[-96.409,32.9226],[-96.4047,32.9253],[-96.4064,32.9281],[-96.403,32.9305],[-96.4016,32.9337],[-96.4025,32.936],[-96.3982,32.9373],[-96.3987,32.9416],[-96.3918,32.942],[-96.393,32.9511],[-96.3899,32.9574],[-96.3917,32.9599],[-96.3902,32.9645],[-96.3905,32.9689],[-96.3929,32.9708],[-96.3919,32.9745],[-96.383,32.9767],[-96.3817,32.9801],[-96.3833,32.9846],[-96.3816,32.9912],[-96.3768,32.9936],[-96.3716,33.0013],[-96.3736,33.0085],[-96.3696,33.0179],[-96.3703,33.0267],[-96.3753,33.0311],[-96.3734,33.0353],[-96.373,33.043],[-96.3771,33.0464],[-96.3749,33.0515],[-96.3693,33.0516],[-96.3656,33.0543],[-96.3634,33.0599],[-96.3658,33.0645],[-96.3643,33.0708],[-96.3662,33.0743],[-96.3625,33.0782],[-96.3591,33.087],[-96.3558,33.0888],[-96.3551,33.0929],[-96.3491,33.0964],[-96.349,33.1021],[-96.3547,33.106],[-96.3452,33.1089],[-96.3417,33.1119],[-96.3431,33.1145],[-96.3418,33.1166],[-96.334,33.1184],[-96.334,33.1259],[-96.3355,33.129],[-96.3318,33.1354],[-96.3338,33.1393],[-96.3311,33.1509],[-96.333,33.1612],[-96.3371,33.1669],[-96.3429,33.1708],[-96.3423,33.1817],[-96.3384,33.1905],[-96.3408,33.1972],[-96.3402,33.2012],[-96.3373,33.2052],[-96.3317,33.2018],[-96.3278,33.2021],[-96.3195,33.2066],[-96.3197,33.2122],[-96.314,33.211],[-96.3078,33.2138],[-96.3081,33.2233],[-96.3043,33.2216],[-96.298,33.223],[-96.296,33.2288],[-96.2967,33.233],[-96.2935,33.235],[-96.287,33.2307],[-96.2826,33.2332],[-96.2809,33.2385],[-96.2754,33.2384],[-96.2692,33.2423],[-96.2672,33.2419],[-96.2672,33.2393],[-96.2652,33.2381],[-96.2589,33.2372],[-96.2569,33.2414],[-96.2529,33.2432],[-96.247,33.2431],[-96.247,33.2491],[-96.2427,33.2517],[-96.2411,33.2557],[-96.2447,33.2608],[-96.2418,33.2668],[-96.2436,33.272],[-96.2395,33.2758],[-96.2386,33.2792],[-96.2411,33.287],[-96.2404,33.29],[-96.2365,33.2934],[-96.2382,33.3031],[-96.2344,33.3045],[-96.234,33.3076],[-96.2291,33.307],[-96.2224,33.3091],[-96.2214,33.3147],[-96.2172,33.3191],[-96.2164,33.3291],[-96.2198,33.3335],[-96.2201,33.3436],[-96.2245,33.3461],[-96.2263,33.3513],[-96.2322,33.3565],[-96.232,33.3617],[-96.2363,33.3693],[-96.2333,33.3862],[-96.241,33.391],[-96.2493,33.4054],[-96.2563,33.4064],[-96.2613,33.4111],[-96.2661,33.4081],[-96.2723,33.4071],[-96.2743,33.4117],[-96.2848,33.4132],[-96.2914,33.4169],[-96.2993,33.4162],[-96.3085,33.4224],[-96.3127,33.4183],[-96.3229,33.4212],[-96.3232,33.4269],[-96.3344,33.4305],[-96.3367,33.4362],[-96.3397,33.4394],[-96.3412,33.4388],[-96.3461,33.4412],[-96.3492,33.4482],[-96.3517,33.4499],[-96.3562,33.4483],[-96.3562,33.4465],[-96.36,33.4441],[-96.3712,33.4435],[-96.3749,33.4513],[-96.3757,33.4572],[-96.3793,33.4586],[-96.3806,33.4618],[-96.3849,33.4622],[-96.3958,33.4719],[-96.3999,33.4728],[-96.404,33.4763],[-96.4068,33.4869],[-96.4066,33.4923],[-96.4108,33.5026],[-96.417,33.506],[-96.4227,33.5061],[-96.4228,33.5106],[-96.4253,33.5146],[-96.4383,33.522],[-96.442,33.5202],[-96.4455,33.5218],[-96.449,33.5168],[-96.4546,33.5177],[-96.4578,33.5217],[-96.4601,33.5152],[-96.4628,33.5126],[-96.4696,33.5148],[-96.4759,33.5204],[-96.4833,33.5217],[-96.4869,33.5193],[-96.488,33.5163],[-96.4933,33.5153],[-96.4972,33.5181],[-96.5001,33.5177],[-96.5065,33.5145],[-96.51,33.5146],[-96.5148,33.5093],[-96.5194,33.511],[-96.528,33.5181],[-96.5358,33.5173],[-96.5393,33.5144],[-96.544,33.5153],[-96.5454,33.5181],[-96.548,33.5187],[-96.5503,33.5111],[-96.561,33.5049],[-96.5628,33.5055],[-96.5645,33.5096],[-96.5649,33.5164],[-96.5716,33.5187],[-96.58,33.5174],[-96.5847,33.5134],[-96.5909,33.5211],[-96.6008,33.5219],[-96.6076,33.5104],[-96.6124,33.508],[-96.6125,33.5046],[-96.6161,33.5008],[-96.6143,33.4948],[-96.62,33.4931],[-96.6246,33.4985],[-96.6285,33.4984],[-96.6268,33.5036],[-96.6269,33.5118],[-96.6294,33.5139],[-96.6413,33.5149],[-96.6434,33.5172],[-96.6418,33.5237],[-96.6454,33.5307],[-96.6484,33.5291],[-96.6562,33.5289],[-96.6621,33.5321],[-96.6662,33.5312],[-96.669,33.534],[-96.6715,33.5326],[-96.6765,33.5375],[-96.6865,33.5367]]]},"properties":{"objectid":544,"tnmid":"{5925523F-3C92-4375-A406-A090470CA257}","metasourceid":"{511D2AC8-11BA-45FC-AB98-F69D693D4C44}","sourcedatadesc":"Watershed Boundary Dataset (WBD)","sourceoriginator":"Natural Resources and Conservation Service and U.S. Geological Survey","sourcefeatureid":null,"loaddate":1723803860000,"referencegnis_ids":"1373547","areaacres":834063.86,"areasqkm":3375.34,"states":"TX","huc8":"12030106","name":"East Fork Trinity","globalid":"{58B65A93-FB57-4350-B0D5-4BF2E7FF86BE}","shape_Length":427421.9652882762,"shape_Area":4826162146.317623}},{"type":"Feature","id":547,"geometry":{"type":"Polygon","coordinates":[[[-96.971,32.5518],[-96.9745,32.5539],[-96.9755,32.5522],[-96.9764,32.5379],[-96.9804,32.5353],[-96.9768,32.5283],[-96.9797,32.5276],[-96.9835,32.5218],[-96.9872,32.5218],[-96.9873,32.5159],[-96.9891,32.5137],[-96.9881,32.5105],[-96.9902,32.5065],[-96.9888,32.4997],[-96.9925,32.4948],[-96.9909,32.4891],[-96.9932,32.4835],[-96.9962,32.4824],[-96.9993,32.4747],[-97.0008,32.4688],[-96.9982,32.4642],[-97.0076,32.4479],[-97.0086,32.438],[-97.0133,32.4377],[-97.0171,32.4401],[-97.0199,32.4339],[-97.0251,32.4354],[-97.024,32.4265],[-97.0267,32.4251],[-97.026,32.4219],[-97.0287,32.4187],[-97.0317,32.4178],[-97.039,32.4196],[-97.0513,32.4162],[-97.053,32.4152],[-97.0552,32.4079],[-97.0601,32.4089],[-97.066,32.4075],[-97.0663,32.4096],[-97.0633,32.4133],[-97.067,32.414],[-97.0728,32.4188],[-97.0742,32.426],[-97.0827,32.4219],[-97.0888,32.4216],[-97.0928,32.4249],[-97.0949,32.4245],[-97.1013,32.428],[-97.1048,32.4236],[-97.106,32.4187],[-97.1143,32.4176],[-97.1202,32.4257],[-97.1275,32.4261],[-97.1312,32.4337],[-97.1359,32.4377],[-97.1408,32.4349],[-97.1463,32.4376],[-97.1499,32.4354],[-97.1489,32.4278],[-97.1549,32.4208],[-97.1559,32.4136],[-97.1593,32.4109],[-97.1658,32.411],[-97.1709,32.4152],[-97.1796,32.413],[-97.1887,32.4148],[-97.1896,32.4162],[-97.1947,32.4164],[-97.1966,32.4225],[-97.2032,32.4275],[-97.2121,32.4259],[-97.2152,32.4272],[-97.2167,32.4299],[-97.2193,32.4302],[-97.2189,32.4339],[-97.2219,32.4347],[-97.226,32.4399],[-97.226,32.4435],[-97.2307,32.4418],[-97.2411,32.444],[-97.243,32.4418],[-97.253,32.4442],[-97.2573,32.4465],[-97.2587,32.4492],[-97.263,32.4496],[-97.2667,32.448],[-97.2688,32.4513],[-97.2739,32.4528],[-97.2814,32.4508],[-97.2842,32.4531],[-97.29,32.452],[-97.2935,32.4585],[-97.3001,32.4572],[-97.3047,32.4521],[-97.3178,32.4514],[-97.3178,32.447],[-97.3239,32.4454],[-97.3243,32.442],[-97.3275,32.4397],[-97.3326,32.4414],[-97.3336,32.4387],[-97.3317,32.4326],[-97.3333,32.4292],[-97.332,32.4244],[-97.3371,32.4202],[-97.3338,32.4185],[-97.3362,32.4093],[-97.3317,32.4087],[-97.3319,32.4045],[-97.3327,32.4012],[-97.3378,32.3987],[-97.3332,32.3957],[-97.3262,32.3957],[-97.3301,32.3889],[-97.3297,32.3847],[-97.3233,32.3785],[-97.3247,32.3751],[-97.3226,32.3708],[-97.3255,32.3689],[-97.3246,32.3659],[-97.3268,32.3643],[-97.3257,32.3613],[-97.3276,32.3566],[-97.3238,32.3551],[-97.3234,32.3506],[-97.3112,32.349],[-97.31,32.3463],[-97.2952,32.3387],[-97.2924,32.3351],[-97.2838,32.3391],[-97.2823,32.3441],[-97.2796,32.3452],[-97.2774,32.3379],[-97.27,32.3315],[-97.2724,32.3273],[-97.2708,32.3218],[-97.2739,32.3176],[-97.2727,32.3146],[-97.2698,32.3127],[-97.2732,32.3068],[-97.2712,32.3032],[-97.272,32.2952],[-97.2759,32.2906],[-97.2744,32.2839],[-97.2707,32.2821],[-97.2732,32.2788],[-97.2717,32.2761],[-97.2755,32.2742],[-97.2744,32.271],[-97.2759,32.2669],[-97.2737,32.2632],[-97.276,32.2617],[-97.2758,32.2551],[-97.2833,32.2549],[-97.2839,32.2519],[-97.2789,32.252],[-97.2709,32.2494],[-97.2693,32.2446],[-97.2705,32.2407],[-97.2681,32.2389],[-97.2682,32.2362],[-97.2663,32.234],[-97.2635,32.2328],[-97.2514,32.2331],[-97.249,32.2279],[-97.2408,32.224],[-97.2399,32.2209],[-97.241,32.2183],[-97.2444,32.2162],[-97.2416,32.2114],[-97.2441,32.2094],[-97.2448,32.2024],[-97.2417,32.1993],[-97.2361,32.1989],[-97.235,32.1973],[-97.2362,32.1951],[-97.2341,32.1919],[-97.2252,32.1915],[-97.2201,32.1882],[-97.2137,32.1896],[-97.2146,32.1836],[-97.2098,32.179],[-97.203,32.1776],[-97.2005,32.1703],[-97.194,32.1705],[-97.1902,32.1763],[-97.184,32.1716],[-97.1815,32.1718],[-97.1793,32.1796],[-97.1755,32.1796],[-97.1629,32.169],[-97.1569,32.1674],[-97.1523,32.1704],[-97.1473,32.1699],[-97.1456,32.1616],[-97.1389,32.1612],[-97.1359,32.1588],[-97.1329,32.1594],[-97.13,32.1544],[-97.1279,32.1537],[-97.1231,32.1537],[-97.1203,32.1556],[-97.1165,32.1536],[-97.1112,32.1546],[-97.1052,32.1595],[-97.1032,32.1647],[-97.0961,32.1666],[-97.0925,32.1701],[-97.0905,32.176],[-97.0857,32.1779],[-97.0835,32.1899],[-97.0731,32.192],[-97.0705,32.1876],[-97.0567,32.1856],[-97.0519,32.1821],[-97.0449,32.1839],[-97.0426,32.1813],[-97.0365,32.1789],[-97.0288,32.1799],[-97.0268,32.1753],[-97.0182,32.1746],[-97.017,32.1734],[-97.0177,32.171],[-97.0097,32.1684],[-97.009,32.1631],[-97.0065,32.16],[-96.9977,32.1582],[-96.997,32.1529],[-96.9906,32.152],[-96.9894,32.1485],[-96.9844,32.1449],[-96.9837,32.1417],[-96.9808,32.1417],[-96.9751,32.1367],[-96.9677,32.1363],[-96.9662,32.1316],[-96.9588,32.1249],[-96.9565,32.1205],[-96.957,32.1173],[-96.9504,32.1126],[-96.9486,32.1073],[-96.9434,32.1057],[-96.9331,32.0897],[-96.9264,32.0868],[-96.9245,32.0795],[-96.9202,32.0779],[-96.9123,32.078],[-96.9087,32.0743],[-96.9021,32.0733],[-96.897,32.0702],[-96.8902,32.0736],[-96.8857,32.072],[-96.882,32.0733],[-96.876,32.0703],[-96.8751,32.0745],[-96.8643,32.0832],[-96.8543,32.0828],[-96.8492,32.0873],[-96.846,32.0861],[-96.8427,32.0798],[-96.8422,32.0751],[-96.8326,32.0744],[-96.8302,32.0721],[-96.8307,32.0674],[-96.8248,32.0667],[-96.8202,32.0682],[-96.8138,32.0667],[-96.8109,32.0643],[-96.8071,32.0653],[-96.8041,32.063],[-96.8032,32.0595],[-96.7977,32.0584],[-96.7936,32.0638],[-96.7937,32.0664],[-96.7883,32.0673],[-96.7874,32.0745],[-96.7834,32.0743],[-96.7777,32.0816],[-96.7808,32.0846],[-96.7807,32.0879],[-96.7729,32.0874],[-96.7655,32.0847],[-96.76,32.0881],[-96.7532,32.0852],[-96.7488,32.0881],[-96.7464,32.0857],[-96.7428,32.0868],[-96.7386,32.0847],[-96.7336,32.0866],[-96.7319,32.0902],[-96.7294,32.0913],[-96.7298,32.0988],[-96.7233,32.0976],[-96.7235,32.1024],[-96.7204,32.1032],[-96.7181,32.1067],[-96.7138,32.1048],[-96.7084,32.106],[-96.7066,32.1032],[-96.703,32.1018],[-96.6951,32.104],[-96.6925,32.1067],[-96.6865,32.1034],[-96.6791,32.1055],[-96.6755,32.1041],[-96.6661,32.1058],[-96.6638,32.1015],[-96.6591,32.0986],[-96.6559,32.099],[-96.6557,32.102],[-96.6512,32.1049],[-96.6309,32.1073],[-96.6276,32.1138],[-96.6204,32.1144],[-96.6154,32.1129],[-96.6109,32.1158],[-96.6088,32.1118],[-96.5995,32.1133],[-96.5913,32.1086],[-96.5863,32.1091],[-96.5843,32.1118],[-96.5823,32.1119],[-96.5793,32.1075],[-96.572,32.108],[-96.565,32.1048],[-96.5577,32.107],[-96.554,32.1017],[-96.548,32.0982],[-96.5426,32.0907],[-96.5364,32.0909],[-96.5353,32.0872],[-96.5315,32.0863],[-96.5271,32.0902],[-96.5249,32.0881],[-96.52,32.087],[-96.5144,32.0766],[-96.5028,32.081],[-96.5008,32.0778],[-96.4968,32.0761],[-96.4921,32.0686],[-96.4849,32.0631],[-96.4851,32.0602],[-96.4886,32.0563],[-96.4838,32.0525],[-96.4843,32.0468],[-96.4752,32.0421],[-96.4742,32.0358],[-96.4668,32.0377],[-96.4586,32.0326],[-96.4522,32.0313],[-96.4458,32.0347],[-96.4394,32.0351],[-96.4344,32.0332],[-96.4284,32.0344],[-96.4241,32.0378],[-96.4123,32.0388],[-96.4017,32.0312],[-96.3952,32.0334],[-96.3907,32.0292],[-96.3884,32.0289],[-96.3784,32.0319],[-96.3723,32.031],[-96.37,32.0334],[-96.3642,32.032],[-96.3549,32.0344],[-96.3488,32.0324],[-96.3407,32.034],[-96.3353,32.0312],[-96.3197,32.0299],[-96.3174,32.0276],[-96.3174,32.0241],[-96.3133,32.0207],[-96.312,32.0157],[-96.3009,32.0162],[-96.291,32.0096],[-96.2791,32.013],[-96.2767,32.0107],[-96.27,32.014],[-96.2652,32.0142],[-96.2634,32.0105],[-96.2595,32.0108],[-96.2467,31.9884],[-96.2317,31.9861],[-96.2256,31.987],[-96.2159,31.9845],[-96.2128,31.9821],[-96.2126,31.9781],[-96.2072,31.9746],[-96.2021,31.976],[-96.1993,31.974],[-96.2001,31.9778],[-96.1978,31.979],[-96.1772,31.9833],[-96.1753,31.9882],[-96.1778,31.9937],[-96.1758,31.9986],[-96.1677,32.0083],[-96.1676,32.0111],[-96.1699,32.0139],[-96.1853,32.0227],[-96.1841,32.0311],[-96.186,32.035],[-96.1847,32.0384],[-96.1855,32.0412],[-96.1904,32.0432],[-96.1922,32.0469],[-96.1955,32.0477],[-96.1978,32.0508],[-96.2048,32.0519],[-96.217,32.059],[-96.2191,32.0645],[-96.2233,32.0651],[-96.2264,32.0687],[-96.2272,32.0742],[-96.2352,32.0849],[-96.2441,32.0867],[-96.26,32.1034],[-96.27,32.1067],[-96.2897,32.12],[-96.2983,32.1207],[-96.3041,32.1168],[-96.3126,32.1196],[-96.3253,32.1176],[-96.3269,32.1239],[-96.3336,32.129],[-96.346,32.1308],[-96.3505,32.1344],[-96.3551,32.1353],[-96.3573,32.1416],[-96.3646,32.1472],[-96.371,32.1491],[-96.3843,32.1618],[-96.3866,32.1697],[-96.3825,32.1756],[-96.3828,32.1784],[-96.388,32.1817],[-96.388,32.1867],[-96.3917,32.1931],[-96.3973,32.1968],[-96.4009,32.1931],[-96.4075,32.1957],[-96.4079,32.2049],[-96.4118,32.2095],[-96.4119,32.2127],[-96.415,32.2155],[-96.4167,32.2239],[-96.416,32.2315],[-96.4179,32.2343],[-96.4253,32.2351],[-96.4332,32.23],[-96.4399,32.2312],[-96.444,32.2329],[-96.4463,32.2379],[-96.4515,32.239],[-96.4543,32.2432],[-96.4584,32.2428],[-96.4631,32.2457],[-96.4725,32.246],[-96.4734,32.2483],[-96.4756,32.2477],[-96.4811,32.2524],[-96.4862,32.251],[-96.4881,32.255],[-96.4922,32.254],[-96.4957,32.2576],[-96.5008,32.2553],[-96.5084,32.2595],[-96.5098,32.2677],[-96.5074,32.2701],[-96.5107,32.2745],[-96.5129,32.2821],[-96.5176,32.2808],[-96.5208,32.2818],[-96.5212,32.284],[-96.5184,32.2888],[-96.5202,32.2905],[-96.5263,32.2911],[-96.5303,32.297],[-96.5362,32.3002],[-96.5369,32.305],[-96.5494,32.2989],[-96.559,32.3008],[-96.5634,32.2986],[-96.566,32.2946],[-96.5717,32.2921],[-96.5732,32.2976],[-96.5783,32.3001],[-96.5821,32.2997],[-96.5827,32.3055],[-96.59,32.3113],[-96.5935,32.3091],[-96.5969,32.3108],[-96.6073,32.3229],[-96.6102,32.3213],[-96.618,32.3209],[-96.6239,32.3283],[-96.6261,32.3272],[-96.6423,32.3508],[-96.643,32.3572],[-96.6479,32.3583],[-96.6597,32.3701],[-96.6656,32.3717],[-96.6712,32.3661],[-96.677,32.366],[-96.6781,32.3632],[-96.6837,32.3602],[-96.689,32.368],[-96.6929,32.3643],[-96.696,32.3637],[-96.7053,32.3732],[-96.7107,32.3715],[-96.7139,32.3745],[-96.7177,32.3724],[-96.7226,32.3726],[-96.729,32.3756],[-96.7467,32.3782],[-96.7484,32.3847],[-96.7546,32.3838],[-96.7569,32.3886],[-96.7599,32.3892],[-96.7612,32.3919],[-96.7683,32.3902],[-96.7755,32.3921],[-96.7808,32.3991],[-96.7941,32.4057],[-96.805,32.4155],[-96.8156,32.4178],[-96.8228,32.415],[-96.8327,32.4294],[-96.8391,32.4341],[-96.843,32.4399],[-96.8561,32.4454],[-96.8666,32.4403],[-96.8742,32.4534],[-96.8814,32.4536],[-96.8861,32.4572],[-96.8867,32.4585],[-96.8831,32.465],[-96.8879,32.4795],[-96.8921,32.4819],[-96.8872,32.4928],[-96.891,32.4966],[-96.8947,32.492],[-96.899,32.4947],[-96.9047,32.4952],[-96.9083,32.504],[-96.917,32.5048],[-96.9194,32.5069],[-96.9196,32.5098],[-96.9278,32.517],[-96.9359,32.5197],[-96.9363,32.5247],[-96.9387,32.5274],[-96.9429,32.5287],[-96.9455,32.5339],[-96.9499,32.5364],[-96.9562,32.536],[-96.9594,32.5403],[-96.9639,32.5528],[-96.971,32.5518]]]},"properties":{"objectid":547,"tnmid":"{81818EE8-F44A-4CBB-8CB3-0845CD084E41}","metasourceid":"{511D2AC8-11BA-45FC-AB98-F69D693D4C44}","sourcedatadesc":"Watershed Boundary Dataset (WBD)","sourceoriginator":"Natural Resources and Conservation Service and U.S. Geological Survey","sourcefeatureid":null,"loaddate":1723803860000,"referencegnis_ids":"1091195","areaacres":687986.89,"areasqkm":2784.19,"states":"TX","huc8":"12030109","name":"Chambers","globalid":"{DBAF1F21-F850-47B5-BA1D-86FC74795BB1}","shape_Length":448217.2828365984,"shape_Area":3903686255.5991993}}]}