{"type":"FeatureCollection","features":[{"type":"Feature","properties":{"name":"365 Main Phoenix (PX1) / Zayo Phoenix DC","operator":"365 Main / Zayo","city":"Phoenix","state":"AZ","status":"Active"},"geometry":{"type":"Point","coordinates":[-112.073845,33.484087]}},{"type":"Feature","properties":{"name":"American Express Information Processing Center","operator":"American Express","city":"Phoenix","state":"AZ","status":"Active/Expanding"},"geometry":{"type":"Point","coordinates":[-112.131143,33.665613]}},{"type":"Feature","properties":{"name":"CenturyLink/Lumen Phoenix DC #3","operator":"Lumen (CenturyLink)","city":"Phoenix","state":"AZ","status":"Active"},"geometry":{"type":"Point","coordinates":[-112.047705,33.441169]}},{"type":"Feature","properties":{"name":"Digital Realty Chandler (PHX15)","operator":"Digital Realty","city":"Chandler","state":"AZ","status":"Active"},"geometry":{"type":"Point","coordinates":[-111.889082,33.274556]}},{"type":"Feature","properties":{"name":"Flexential Deer Valley","operator":"Flexential","city":"Phoenix","state":"AZ","status":"Active"},"geometry":{"type":"Point","coordinates":[-112.099299,33.68391]}},{"type":"Feature","properties":{"name":"Google Mesa Data Center (Redhawk)","operator":"Google","city":"Mesa","state":"AZ","status":"Active/Expanding"},"geometry":{"type":"Point","coordinates":[-111.670581,33.35044]}},{"type":"Feature","properties":{"name":"INAP Phoenix (PHX004)","operator":"INAP","city":"Chandler","state":"AZ","status":"Active"},"geometry":{"type":"Point","coordinates":[-111.889082,33.274556]}},{"type":"Feature","properties":{"name":"NFINIT Phoenix Van Buren (VBDC) / SunGard Phoenix","operator":"NFINIT / SunGard","city":"Phoenix","state":"AZ","status":"Active"},"geometry":{"type":"Point","coordinates":[-112.072244,33.451458]}},{"type":"Feature","properties":{"name":"Novva Data Centers Mesa Campus","operator":"Novva","city":"Mesa","state":"AZ","status":"Active/Expanding"},"geometry":{"type":"Point","coordinates":[-111.63558,33.335671]}},{"type":"Feature","properties":{"name":"PhoenixNAP / Colo@ / Liquid Web Arizona DC","operator":"PhoenixNAP / Colo@ / Liquid Web","city":"Phoenix","state":"AZ","status":"Active"},"geometry":{"type":"Point","coordinates":[-112.007502,33.416684]}},{"type":"Feature","properties":{"name":"Red Rock Telecommunications Phoenix DC","operator":"Red Rock Telecommunications Inc","city":"Phoenix","state":"AZ","status":"Active"},"geometry":{"type":"Point","coordinates":[-112.000275,33.396997]}},{"type":"Feature","properties":{"name":"Stream Data Centers Phoenix Campus (I-VII)","operator":"Stream Data Centers","city":"Goodyear","state":"AZ","status":"Active/Expanding"},"geometry":{"type":"Point","coordinates":[-112.357841,33.419505]}}]}