{"type":"FeatureCollection","features":[{"type":"Feature","properties":{"huc8":"15060105","name":"Tonto"},"geometry":{"type":"Polygon","coordinates":[[[-111.0998,34.4026],[-111.107,34.4049],[-111.1101,34.3978],[-111.123,34.3925],[-111.1378,34.3914],[-111.1465,34.3836],[-111.1482,34.3785],[-111.1431,34.3733],[-111.1394,34.3602],[-111.148,34.3418],[-111.1372,34.3369],[-111.1382,34.331],[-111.1505,34.332],[-111.1506,34.3272],[-111.1565,34.3227],[-111.1534,34.3174],[-111.1543,34.3078],[-111.1647,34.306],[-111.1688,34.3009],[-111.1856,34.2986],[-111.1895,34.2939],[-111.1958,34.2929],[-111.1999,34.2984],[-111.2116,34.3024],[-111.2105,34.3085],[-111.2154,34.3192],[-111.2382,34.3194],[-111.241,34.3134],[-111.2464,34.3117],[-111.2445,34.306],[-111.2479,34.3035],[-111.2687,34.2908],[-111.2745,34.2909],[-111.2829,34.2829],[-111.2913,34.2852],[-111.2984,34.2788],[-111.3072,34.2765],[-111.3069,34.2678],[-111.3096,34.2659],[-111.3088,34.2607],[-111.3113,34.2542],[-111.3074,34.2506],[-111.3063,34.244],[-111.3075,34.2315],[-111.311,34.2269],[-111.3237,34.2212],[-111.3294,34.2215],[-111.3394,34.2116],[-111.3449,34.2175],[-111.3507,34.2156],[-111.3534,34.2179],[-111.3542,34.2249],[-111.3642,34.231],[-111.3683,34.2302],[-111.3677,34.2275],[-111.3726,34.223],[-111.3796,34.2279],[-111.3897,34.2268],[-111.392,34.2248],[-111.3876,34.2103],[-111.4071,34.2077],[-111.4128,34.2027],[-111.4276,34.2005],[-111.4357,34.1953],[-111.4409,34.1963],[-111.4429,34.1903],[-111.447,34.1884],[-111.4477,34.1784],[-111.4689,34.179],[-111.4784,34.1734],[-111.4817,34.1671],[-111.4779,34.1511],[-111.4836,34.1459],[-111.4842,34.1416],[-111.4892,34.1396],[-111.4936,34.1341],[-111.4923,34.131],[-111.4797,34.13],[-111.4823,34.1221],[-111.4806,34.1191],[-111.4752,34.1187],[-111.4717,34.1113],[-111.4862,34.0951],[-111.4781,34.087],[-111.4791,34.0839],[-111.4761,34.0805],[-111.4644,34.0724],[-111.4614,34.063],[-111.463,34.0593],[-111.4727,34.0581],[-111.4688,34.0477],[-111.4727,34.0417],[-111.4837,34.0401],[-111.4867,34.0358],[-111.4933,34.0379],[-111.4977,34.029],[-111.4952,34.0235],[-111.4975,34.0182],[-111.4961,34.0143],[-111.5006,34.0088],[-111.4996,34.0045],[-111.4947,33.9995],[-111.4723,34.0049],[-111.4702,34.0028],[-111.4669,34.0064],[-111.4593,34.0025],[-111.4541,34.0047],[-111.4496,34.0002],[-111.4448,34.0009],[-111.4404,33.9964],[-111.4427,33.9912],[-111.4335,33.9855],[-111.4345,33.981],[-111.4482,33.9731],[-111.449,33.9687],[-111.4526,33.9655],[-111.4522,33.9608],[-111.448,33.9582],[-111.4523,33.9487],[-111.4473,33.9413],[-111.4471,33.9348],[-111.4521,33.9334],[-111.4493,33.9295],[-111.4517,33.9209],[-111.4374,33.9161],[-111.4259,33.926],[-111.4051,33.9191],[-111.4086,33.9118],[-111.408,33.9052],[-111.4115,33.9038],[-111.4136,33.8987],[-111.4114,33.8917],[-111.4128,33.8857],[-111.4055,33.8821],[-111.4057,33.8795],[-111.3961,33.8768],[-111.3963,33.8684],[-111.3873,33.8626],[-111.396,33.8448],[-111.3954,33.8408],[-111.3903,33.8376],[-111.3926,33.8359],[-111.3818,33.8323],[-111.3718,33.8218],[-111.3728,33.8179],[-111.3843,33.8166],[-111.3885,33.805],[-111.3785,33.7937],[-111.3828,33.7883],[-111.3813,33.7852],[-111.3855,33.7833],[-111.3894,33.7768],[-111.3866,33.7732],[-111.3893,33.7705],[-111.3872,33.7634],[-111.3822,33.7609],[-111.3867,33.75],[-111.3812,33.7476],[-111.3731,33.7493],[-111.3722,33.7454],[-111.3587,33.7408],[-111.3542,33.7332],[-111.3364,33.7205],[-111.3385,33.7159],[-111.3382,33.7027],[-111.3314,33.6885],[-111.3258,33.6844],[-111.3142,33.681],[-111.2995,33.6639],[-111.2912,33.6595],[-111.2831,33.6612],[-111.2726,33.6718],[-111.2543,33.666],[-111.2403,33.6744],[-111.2277,33.6761],[-111.2043,33.6685],[-111.1976,33.674],[-111.1858,33.6685],[-111.1698,33.6758],[-111.1627,33.6739],[-111.154,33.6798],[-111.1494,33.6864],[-111.1418,33.6874],[-111.1323,33.7042],[-111.1221,33.7072],[-111.1238,33.7151],[-111.1196,33.7391],[-111.1256,33.7487],[-111.1331,33.7552],[-111.1324,33.7601],[-111.1363,33.7678],[-111.1325,33.7835],[-111.1341,33.7911],[-111.1259,33.8015],[-111.1286,33.813],[-111.1308,33.8144],[-111.1275,33.8234],[-111.1161,33.8231],[-111.1106,33.8281],[-111.1096,33.8343],[-111.1209,33.8374],[-111.1231,33.8425],[-111.1152,33.8508],[-111.1191,33.8682],[-111.1143,33.8787],[-111.1054,33.8838],[-111.1033,33.8915],[-111.0832,33.9044],[-111.0821,33.9108],[-111.0879,33.9133],[-111.088,33.9213],[-111.095,33.9296],[-111.0908,33.9318],[-111.0899,33.937],[-111.0834,33.9403],[-111.0785,33.9479],[-111.0506,33.9472],[-111.0484,33.9504],[-111.0422,33.9522],[-111.0154,33.945],[-111.003,33.9484],[-110.9971,33.9475],[-110.9889,33.9512],[-110.98,33.9461],[-110.9768,33.9414],[-110.9718,33.9391],[-110.9661,33.9399],[-110.9607,33.9446],[-110.9634,33.9473],[-110.9623,33.9618],[-110.9521,33.9646],[-110.9478,33.9956],[-110.9573,33.9997],[-110.9604,34.0068],[-110.9573,34.0096],[-110.9586,34.0124],[-110.9655,34.014],[-110.9639,34.021],[-110.9673,34.0223],[-110.9669,34.0317],[-110.9616,34.0399],[-110.9624,34.0442],[-110.9662,34.0476],[-110.9691,34.0449],[-110.9728,34.0463],[-110.9758,34.0526],[-110.9914,34.0655],[-110.9995,34.0759],[-110.9993,34.0793],[-110.9931,34.0799],[-110.9924,34.09],[-110.9868,34.1019],[-110.981,34.1056],[-110.9811,34.1103],[-110.9769,34.1167],[-110.9832,34.1265],[-110.9747,34.13],[-110.9729,34.1419],[-110.958,34.1342],[-110.9521,34.142],[-110.9382,34.1497],[-110.934,34.1585],[-110.9163,34.1642],[-110.9167,34.169],[-110.9129,34.1728],[-110.914,34.1757],[-110.9075,34.1826],[-110.9001,34.201],[-110.8883,34.1996],[-110.8828,34.2036],[-110.8802,34.2112],[-110.8696,34.212],[-110.8621,34.2093],[-110.8493,34.2142],[-110.8384,34.2144],[-110.8306,34.2114],[-110.8261,34.2144],[-110.831,34.2249],[-110.8267,34.2261],[-110.8289,34.2365],[-110.8241,34.2373],[-110.8225,34.2412],[-110.8307,34.2426],[-110.8317,34.2479],[-110.8387,34.2505],[-110.8523,34.2742],[-110.8609,34.2754],[-110.8682,34.2803],[-110.8701,34.2854],[-110.8771,34.2868],[-110.8917,34.2977],[-110.8892,34.3073],[-110.9005,34.3198],[-110.9061,34.3191],[-110.9097,34.3119],[-110.9199,34.3092],[-110.9253,34.3126],[-110.9388,34.3134],[-110.9568,34.3239],[-110.9666,34.3258],[-110.9706,34.3351],[-110.9784,34.3378],[-110.9801,34.343],[-110.9866,34.347],[-110.9921,34.3461],[-110.9995,34.3575],[-110.9971,34.3666],[-111.005,34.3659],[-111.0094,34.3684],[-111.0144,34.367],[-111.0194,34.3755],[-111.0241,34.3768],[-111.0312,34.3742],[-111.0419,34.3805],[-111.0511,34.3765],[-111.0568,34.3813],[-111.0657,34.3799],[-111.0734,34.3821],[-111.0734,34.3855],[-111.0773,34.3889],[-111.0773,34.3954],[-111.0831,34.3961],[-111.0935,34.4029],[-111.0998,34.4026]]]}},{"type":"Feature","properties":{"huc8":"15060106","name":"Lower Salt"},"geometry":{"type":"Polygon","coordinates":[[[-111.8203,33.7936],[-111.8212,33.8115],[-111.819,33.8245],[-111.8244,33.8304],[-111.8287,33.8421],[-111.828,33.8332],[-111.8304,33.8266],[-111.8481,33.8048],[-111.881,33.789],[-111.8895,33.7775],[-111.9122,33.7677],[-111.948,33.7469],[-111.966,33.7405],[-111.9991,33.7205],[-112.0155,33.7148],[-112.0269,33.7028],[-112.0308,33.6894],[-112.0296,33.681],[-112.0124,33.6763],[-112.0057,33.6678],[-111.9979,33.6636],[-112.004,33.6497],[-112.0218,33.6326],[-112.0261,33.6246],[-112.028,33.6096],[-112.044,33.6057],[-112.0431,33.6009],[-112.0463,33.598],[-112.0389,33.5973],[-112.0353,33.5938],[-112.0428,33.5815],[-112.0379,33.5775],[-112.0178,33.5728],[-112.0145,33.564],[-112.0112,33.5627],[-112.021,33.5473],[-112.0145,33.5485],[-112.009,33.543],[-112.004,33.5427],[-111.9903,33.5535],[-111.9824,33.5483],[-111.9804,33.544],[-111.9732,33.5417],[-111.9698,33.5451],[-111.9584,33.5417],[-111.9593,33.5146],[-111.97,33.5183],[-111.9742,33.5165],[-111.9804,33.5186],[-111.9932,33.5091],[-112.0191,33.5222],[-112.0332,33.5263],[-112.0496,33.543],[-112.0574,33.5461],[-112.0625,33.5564],[-112.0727,33.5604],[-112.0801,33.5677],[-112.1075,33.5733],[-112.1172,33.5713],[-112.1242,33.5537],[-112.1226,33.5285],[-112.1243,33.4962],[-112.12,33.4914],[-112.1172,33.4767],[-112.1235,33.4661],[-112.1178,33.4626],[-112.1866,33.4637],[-112.1867,33.4483],[-112.1893,33.4454],[-112.221,33.4443],[-112.221,33.4267],[-112.2238,33.4229],[-112.2299,33.4217],[-112.2463,33.4111],[-112.2627,33.4066],[-112.2723,33.4064],[-112.2722,33.3923],[-112.3011,33.3917],[-112.3035,33.3813],[-112.2855,33.3763],[-112.2656,33.3767],[-112.2277,33.36],[-112.2106,33.3626],[-112.1647,33.3629],[-112.133,33.3589],[-112.1221,33.3505],[-112.117,33.3349],[-112.1042,33.3414],[-112.1026,33.3362],[-112.0999,33.3352],[-112.0998,33.3224],[-112.0826,33.33],[-112.0765,33.3265],[-112.0739,33.3273],[-112.0737,33.3299],[-112.0496,33.3389],[-112.0478,33.3426],[-112.0357,33.3424],[-112.0157,33.3511],[-112.0069,33.3576],[-111.9934,33.3587],[-111.9789,33.3644],[-111.972,33.3605],[-111.9567,33.3586],[-111.9571,33.3563],[-111.7736,33.3573],[-111.7677,33.3727],[-111.7677,33.3861],[-111.7013,33.3863],[-111.7091,33.3986],[-111.7112,33.4062],[-111.7242,33.4207],[-111.7378,33.4453],[-111.7493,33.4754],[-111.748,33.4768],[-111.7296,33.4764],[-111.7277,33.4711],[-111.7189,33.4664],[-111.7187,33.4601],[-111.7132,33.4585],[-111.7009,33.4573],[-111.6757,33.4594],[-111.6569,33.4413],[-111.6402,33.4327],[-111.6223,33.4432],[-111.6185,33.4408],[-111.5957,33.441],[-111.5948,33.4394],[-111.5838,33.4411],[-111.5807,33.445],[-111.5676,33.4434],[-111.5611,33.4392],[-111.5519,33.4414],[-111.5386,33.4316],[-111.5336,33.4332],[-111.5287,33.4316],[-111.5074,33.4485],[-111.5109,33.4755],[-111.5169,33.4839],[-111.5094,33.488],[-111.4993,33.4835],[-111.496,33.485],[-111.493,33.4815],[-111.4822,33.4901],[-111.4618,33.4849],[-111.4524,33.4883],[-111.4511,33.4858],[-111.4426,33.4839],[-111.4416,33.4799],[-111.4435,33.4797],[-111.4429,33.4759],[-111.4461,33.4726],[-111.4436,33.4686],[-111.4494,33.4656],[-111.4441,33.4522],[-111.4477,33.4403],[-111.4413,33.4399],[-111.4292,33.4306],[-111.4144,33.4275],[-111.4003,33.4154],[-111.4001,33.4104],[-111.3837,33.4035],[-111.3809,33.4068],[-111.3738,33.4049],[-111.3703,33.4086],[-111.3632,33.4098],[-111.3665,33.4139],[-111.3626,33.4173],[-111.368,33.4257],[-111.3564,33.4257],[-111.3584,33.4293],[-111.3569,33.4317],[-111.3468,33.4329],[-111.3487,33.4302],[-111.3477,33.4222],[-111.3426,33.4169],[-111.3222,33.4144],[-111.3174,33.4169],[-111.3127,33.4121],[-111.3056,33.4105],[-111.2968,33.4148],[-111.2878,33.4242],[-111.277,33.4185],[-111.2764,33.4242],[-111.27,33.4276],[-111.2719,33.4303],[-111.2694,33.4333],[-111.2513,33.4295],[-111.2455,33.4381],[-111.2284,33.4403],[-111.2217,33.4492],[-111.2176,33.4502],[-111.215,33.4446],[-111.2007,33.4381],[-111.1964,33.4317],[-111.1824,33.4259],[-111.1821,33.4224],[-111.1751,33.4188],[-111.1734,33.4122],[-111.1622,33.4114],[-111.1587,33.4159],[-111.1602,33.4255],[-111.1695,33.4321],[-111.1642,33.4381],[-111.1666,33.4439],[-111.1642,33.4539],[-111.1606,33.4569],[-111.1494,33.4553],[-111.1488,33.4593],[-111.1433,33.4592],[-111.1418,33.4627],[-111.1364,33.4644],[-111.1368,33.4764],[-111.1245,33.4811],[-111.1126,33.4947],[-111.1136,33.5052],[-111.1199,33.5081],[-111.1191,33.5115],[-111.122,33.5138],[-111.125,33.5229],[-111.1233,33.5277],[-111.1147,33.5339],[-111.1125,33.5415],[-111.1213,33.5506],[-111.1252,33.5491],[-111.1285,33.5511],[-111.1303,33.5555],[-111.1273,33.5738],[-111.1381,33.5733],[-111.1444,33.5848],[-111.1364,33.5952],[-111.1407,33.6051],[-111.1549,33.6106],[-111.1526,33.6149],[-111.1559,33.6283],[-111.1599,33.6319],[-111.1597,33.6359],[-111.1569,33.6388],[-111.1525,33.6387],[-111.149,33.6439],[-111.1536,33.6496],[-111.1528,33.6623],[-111.1572,33.6696],[-111.1696,33.6758],[-111.1858,33.6685],[-111.1976,33.674],[-111.2043,33.6685],[-111.2277,33.6761],[-111.2403,33.6744],[-111.254,33.666],[-111.2644,33.6676],[-111.2727,33.6718],[-111.2833,33.6611],[-111.2875,33.6589],[-111.2927,33.6599],[-111.2995,33.6639],[-111.3142,33.681],[-111.3258,33.6844],[-111.3314,33.6885],[-111.3382,33.7027],[-111.3385,33.7159],[-111.3363,33.7204],[-111.3544,33.7333],[-111.3582,33.7404],[-111.3721,33.7453],[-111.3748,33.7499],[-111.381,33.7476],[-111.3844,33.7389],[-111.3837,33.7348],[-111.3884,33.7304],[-111.3882,33.7278],[-111.3916,33.7253],[-111.3951,33.7265],[-111.4032,33.7177],[-111.414,33.7138],[-111.4151,33.7083],[-111.4176,33.7071],[-111.4162,33.7044],[-111.4181,33.6993],[-111.4349,33.6855],[-111.4451,33.6849],[-111.452,33.677],[-111.4698,33.6805],[-111.4684,33.6766],[-111.4743,33.6668],[-111.4875,33.6703],[-111.5092,33.6664],[-111.5172,33.6707],[-111.5335,33.6516],[-111.5358,33.6438],[-111.5399,33.6411],[-111.5547,33.6366],[-111.5647,33.637],[-111.5701,33.6323],[-111.5786,33.6302],[-111.5859,33.6371],[-111.5852,33.6316],[-111.5951,33.6317],[-111.603,33.6209],[-111.6072,33.6102],[-111.6057,33.6064],[-111.6082,33.5956],[-111.6188,33.59],[-111.6295,33.5745],[-111.6457,33.5713],[-111.654,33.5658],[-111.6562,33.5614],[-111.655,33.5552],[-111.6606,33.5469],[-111.6766,33.551],[-111.6921,33.5458],[-111.694,33.541],[-111.7001,33.543],[-111.7042,33.5472],[-111.7017,33.5496],[-111.7048,33.5571],[-111.7119,33.558],[-111.7181,33.5683],[-111.729,33.5742],[-111.7353,33.5695],[-111.7427,33.5702],[-111.7484,33.5782],[-111.7526,33.5773],[-111.7571,33.5798],[-111.7626,33.5884],[-111.7616,33.6004],[-111.7644,33.6067],[-111.7688,33.608],[-111.7724,33.6056],[-111.7757,33.6098],[-111.782,33.61],[-111.7844,33.6145],[-111.7912,33.6184],[-111.7931,33.6324],[-111.8002,33.6392],[-111.8121,33.6443],[-111.8121,33.6534],[-111.8177,33.6619],[-111.8142,33.6687],[-111.815,33.6723],[-111.8084,33.6789],[-111.8147,33.6849],[-111.812,33.6897],[-111.8125,33.702],[-111.8198,33.7188],[-111.828,33.7257],[-111.8294,33.7449],[-111.8323,33.7478],[-111.8354,33.7593],[-111.8313,33.7698],[-111.8274,33.772],[-111.8221,33.7812],[-111.8236,33.7839],[-111.8203,33.7936]]]}},{"type":"Feature","properties":{"huc8":"15070103","name":"Hassayampa"},"geometry":{"type":"Polygon","coordinates":[[[-112.5395,34.4896],[-112.5502,34.501],[-112.5538,34.4983],[-112.5549,34.4865],[-112.5625,34.4786],[-112.5588,34.4729],[-112.568,34.4627],[-112.5655,34.455],[-112.5677,34.4506],[-112.566,34.4471],[-112.5682,34.4453],[-112.5626,34.4432],[-112.5598,34.4348],[-112.5667,34.4291],[-112.571,34.4286],[-112.578,34.4153],[-112.5748,34.3984],[-112.5666,34.3941],[-112.5739,34.3897],[-112.5742,34.3837],[-112.592,34.3761],[-112.5935,34.3723],[-112.5894,34.3694],[-112.5901,34.3674],[-112.6012,34.3668],[-112.6098,34.3623],[-112.6186,34.3633],[-112.6247,34.3463],[-112.6342,34.3445],[-112.6352,34.3364],[-112.6274,34.337],[-112.6225,34.3346],[-112.624,34.3314],[-112.6201,34.3218],[-112.6243,34.3189],[-112.6285,34.3205],[-112.6345,34.3128],[-112.6399,34.312],[-112.6494,34.3023],[-112.6595,34.299],[-112.6597,34.2909],[-112.6531,34.2859],[-112.6588,34.2776],[-112.6608,34.2584],[-112.6739,34.2482],[-112.6844,34.2323],[-112.6925,34.225],[-112.7135,34.2179],[-112.724,34.221],[-112.73,34.2155],[-112.738,34.2144],[-112.7445,34.2164],[-112.7561,34.2108],[-112.7633,34.2138],[-112.7675,34.2131],[-112.7708,34.217],[-112.7798,34.2145],[-112.7828,34.2215],[-112.7932,34.2309],[-112.7958,34.2465],[-112.8031,34.2458],[-112.8138,34.2541],[-112.8229,34.2585],[-112.8266,34.2579],[-112.8309,34.262],[-112.8506,34.2712],[-112.8602,34.2662],[-112.8669,34.268],[-112.8691,34.2449],[-112.873,34.2412],[-112.87,34.2366],[-112.8768,34.2281],[-112.8831,34.2274],[-112.8808,34.2235],[-112.888,34.2167],[-112.8817,34.2147],[-112.8888,34.2077],[-112.8996,34.2124],[-112.9123,34.2068],[-112.9144,34.2084],[-112.9157,34.2205],[-112.9243,34.2248],[-112.9406,34.223],[-112.9598,34.229],[-112.97,34.2241],[-112.9724,34.2168],[-112.9668,34.2172],[-112.953,34.2124],[-112.9523,34.203],[-112.9633,34.1703],[-112.967,34.1447],[-112.9933,34.113],[-112.9928,34.1103],[-112.9864,34.1027],[-112.9806,34.0997],[-112.9764,34.0864],[-112.9681,34.0824],[-112.9651,34.0755],[-112.9578,34.0738],[-112.955,34.0789],[-112.9451,34.0788],[-112.9287,34.0633],[-112.9217,34.0612],[-112.9095,34.0437],[-112.9048,34.0261],[-112.9076,34.0026],[-112.8963,33.9849],[-112.8984,33.9714],[-112.8964,33.9562],[-112.8933,33.9534],[-112.8987,33.9475],[-112.8961,33.9416],[-112.8938,33.9425],[-112.8814,33.9326],[-112.8791,33.928],[-112.8823,33.923],[-112.8814,33.9192],[-112.8736,33.9145],[-112.8688,33.9066],[-112.8799,33.902],[-112.8806,33.8995],[-112.886,33.9008],[-112.8924,33.8944],[-112.8979,33.8976],[-112.9034,33.8952],[-112.9096,33.8969],[-112.9121,33.8923],[-112.919,33.8936],[-112.9203,33.8904],[-112.9288,33.895],[-112.934,33.8941],[-112.9359,33.8906],[-112.9463,33.8959],[-112.952,33.8916],[-112.961,33.8912],[-112.9679,33.8861],[-112.9709,33.8804],[-112.9764,33.879],[-112.975,33.8749],[-112.9827,33.8748],[-112.9832,33.8709],[-112.9903,33.8736],[-112.9963,33.8727],[-112.9992,33.8695],[-112.9983,33.8665],[-113.0058,33.8675],[-113.0101,33.8628],[-113.0196,33.8666],[-113.029,33.8621],[-113.0318,33.8657],[-113.039,33.8665],[-113.0452,33.8734],[-113.0546,33.8762],[-113.0706,33.8753],[-113.0753,33.8725],[-113.1023,33.8787],[-113.1108,33.878],[-113.1257,33.8687],[-113.1398,33.8735],[-113.1551,33.8752],[-113.1838,33.8705],[-113.1709,33.8647],[-113.1363,33.8359],[-113.135,33.8247],[-113.1262,33.8135],[-113.1225,33.7962],[-113.1224,33.7757],[-113.1264,33.7674],[-113.1097,33.7537],[-113.1155,33.7438],[-113.1122,33.7417],[-113.1167,33.7346],[-113.1094,33.7217],[-113.1104,33.7192],[-113.117,33.7169],[-113.1163,33.7137],[-113.1191,33.7109],[-113.1107,33.7054],[-113.1091,33.7013],[-113.097,33.6944],[-113.0888,33.6831],[-113.085,33.6814],[-113.0818,33.6845],[-113.0757,33.6842],[-113.0707,33.6912],[-113.0647,33.6917],[-113.059,33.6885],[-113.0574,33.6826],[-113.0517,33.6784],[-113.0534,33.6923],[-113.0452,33.7051],[-113.0372,33.7045],[-113.0283,33.7079],[-113.0208,33.7062],[-113.0128,33.7175],[-113.0061,33.7171],[-113.0069,33.7201],[-113.0023,33.7226],[-112.9977,33.7205],[-112.9934,33.7242],[-112.9864,33.7185],[-112.9795,33.7191],[-112.9746,33.7143],[-112.9617,33.7116],[-112.9585,33.7081],[-112.9398,33.6997],[-112.9006,33.6944],[-112.8627,33.6754],[-112.8475,33.663],[-112.8314,33.6234],[-112.8171,33.6066],[-112.8125,33.6046],[-112.8007,33.5849],[-112.7933,33.5817],[-112.7894,33.5773],[-112.7924,33.5689],[-112.8025,33.5691],[-112.8029,33.5648],[-112.7966,33.5535],[-112.7962,33.5443],[-112.7889,33.5271],[-112.7908,33.5073],[-112.7871,33.4978],[-112.7891,33.49],[-112.7815,33.4616],[-112.783,33.4433],[-112.7797,33.4355],[-112.765,33.4158],[-112.7595,33.3871],[-112.7522,33.3685],[-112.7546,33.3507],[-112.7375,33.3462],[-112.7251,33.3391],[-112.7129,33.3293],[-112.7116,33.3217],[-112.711,33.3266],[-112.6883,33.3292],[-112.6814,33.333],[-112.6638,33.3315],[-112.6562,33.3351],[-112.6519,33.3346],[-112.6383,33.3429],[-112.6385,33.3514],[-112.6423,33.362],[-112.6426,33.4047],[-112.6275,33.4091],[-112.6356,33.4326],[-112.6271,33.4301],[-112.6086,33.4331],[-112.6027,33.4356],[-112.6011,33.4404],[-112.5977,33.4415],[-112.594,33.4383],[-112.5813,33.4382],[-112.5576,33.4462],[-112.5565,33.4494],[-112.5555,33.4468],[-112.543,33.4503],[-112.5259,33.4612],[-112.5256,33.4653],[-112.5206,33.4726],[-112.5231,33.4774],[-112.529,33.4783],[-112.5391,33.486],[-112.5467,33.489],[-112.5512,33.4863],[-112.5623,33.4967],[-112.5677,33.4983],[-112.5718,33.5073],[-112.5637,33.5141],[-112.5609,33.5201],[-112.5613,33.5287],[-112.5562,33.5336],[-112.5567,33.5388],[-112.5592,33.545],[-112.5692,33.555],[-112.5701,33.5693],[-112.5874,33.5781],[-112.5905,33.5859],[-112.5895,33.5907],[-112.5959,33.5977],[-112.6015,33.5972],[-112.6112,33.609],[-112.6142,33.6172],[-112.6098,33.6187],[-112.6048,33.6276],[-112.6104,33.6736],[-112.6206,33.7022],[-112.6224,33.721],[-112.6309,33.7472],[-112.6434,33.7706],[-112.6399,33.7777],[-112.6402,33.7849],[-112.6345,33.7897],[-112.636,33.7938],[-112.6343,33.8062],[-112.6363,33.811],[-112.6338,33.8157],[-112.6372,33.8233],[-112.6313,33.8328],[-112.6273,33.8479],[-112.5955,33.8829],[-112.5931,33.8943],[-112.5822,33.9054],[-112.5832,33.9147],[-112.5752,33.9249],[-112.5701,33.9271],[-112.5668,33.9375],[-112.5616,33.9385],[-112.5544,33.9468],[-112.5474,33.9465],[-112.5488,33.9493],[-112.5423,33.9562],[-112.5433,33.9611],[-112.5388,33.9746],[-112.5254,33.9881],[-112.5251,33.9923],[-112.5307,33.9959],[-112.5334,34.0037],[-112.5391,34.0039],[-112.5477,34.0112],[-112.5459,34.0167],[-112.5535,34.0249],[-112.5535,34.0287],[-112.5567,34.0301],[-112.5547,34.0365],[-112.5557,34.0441],[-112.5519,34.0475],[-112.5524,34.0525],[-112.5464,34.0565],[-112.5321,34.0548],[-112.531,34.0606],[-112.5202,34.0613],[-112.51,34.0721],[-112.5099,34.0766],[-112.5178,34.0819],[-112.5127,34.0859],[-112.5176,34.0942],[-112.5087,34.1005],[-112.5064,34.1048],[-112.5116,34.1139],[-112.5029,34.1108],[-112.5012,34.1159],[-112.4959,34.117],[-112.491,34.1102],[-112.4885,34.1138],[-112.4682,34.124],[-112.4608,34.1187],[-112.4583,34.1197],[-112.4526,34.1245],[-112.4533,34.1281],[-112.4509,34.1307],[-112.4547,34.139],[-112.435,34.1438],[-112.4271,34.1488],[-112.4241,34.1547],[-112.4145,34.1575],[-112.4084,34.1553],[-112.4029,34.161],[-112.403,34.1656],[-112.3972,34.1688],[-112.3943,34.1681],[-112.3886,34.1729],[-112.3828,34.1874],[-112.3788,34.1914],[-112.3719,34.1934],[-112.3612,34.2157],[-112.354,34.2191],[-112.3502,34.2279],[-112.361,34.2343],[-112.357,34.2395],[-112.3584,34.2565],[-112.3525,34.2624],[-112.3527,34.2649],[-112.3629,34.27],[-112.364,34.2741],[-112.371,34.2798],[-112.3672,34.2874],[-112.3739,34.302],[-112.3733,34.3054],[-112.3769,34.3084],[-112.3765,34.3135],[-112.3913,34.3192],[-112.3989,34.319],[-112.4061,34.3236],[-112.401,34.3363],[-112.4015,34.3429],[-112.3969,34.3475],[-112.3934,34.3575],[-112.3932,34.3635],[-112.3964,34.3652],[-112.3949,34.3692],[-112.3981,34.372],[-112.3972,34.3837],[-112.4019,34.3865],[-112.4027,34.3902],[-112.4026,34.3956],[-112.396,34.4026],[-112.3993,34.4061],[-112.3998,34.4134],[-112.4047,34.4155],[-112.4043,34.418],[-112.3964,34.4238],[-112.4117,34.4426],[-112.4182,34.4451],[-112.4183,34.4507],[-112.416,34.4529],[-112.4117,34.4524],[-112.3996,34.4647],[-112.4015,34.4689],[-112.4003,34.474],[-112.4151,34.4831],[-112.4227,34.4791],[-112.4436,34.4839],[-112.4537,34.4893],[-112.4634,34.4828],[-112.4889,34.4861],[-112.5036,34.4913],[-112.5158,34.5007],[-112.5287,34.497],[-112.5306,34.4915],[-112.5365,34.4883],[-112.5395,34.4896]]]}},{"type":"Feature","properties":{"huc8":"15070102","name":"Agua Fria"},"geometry":{"type":"Polygon","coordinates":[[[-112.1581,34.7163],[-112.1599,34.7182],[-112.1757,34.7154],[-112.1809,34.712],[-112.1869,34.7],[-112.2043,34.7046],[-112.2151,34.7047],[-112.2351,34.702],[-112.2402,34.6993],[-112.2425,34.7043],[-112.2482,34.7023],[-112.2532,34.7041],[-112.2581,34.6971],[-112.2629,34.6945],[-112.2607,34.6904],[-112.2687,34.6873],[-112.269,34.68],[-112.2644,34.6765],[-112.265,34.6735],[-112.2607,34.6659],[-112.2569,34.6645],[-112.2622,34.6618],[-112.2642,34.6573],[-112.2888,34.6515],[-112.3002,34.6434],[-112.3876,34.6262],[-112.4008,34.6166],[-112.3941,34.6107],[-112.3913,34.6107],[-112.391,34.6076],[-112.3835,34.6051],[-112.3859,34.5989],[-112.38,34.584],[-112.3875,34.5763],[-112.4006,34.5725],[-112.4048,34.5651],[-112.3979,34.56],[-112.4102,34.55],[-112.415,34.5443],[-112.4154,34.5392],[-112.4267,34.528],[-112.4197,34.522],[-112.4188,34.5163],[-112.4219,34.5106],[-112.4256,34.5093],[-112.4233,34.5046],[-112.4254,34.5001],[-112.4175,34.4932],[-112.4176,34.4867],[-112.4144,34.4849],[-112.413,34.4801],[-112.408,34.4799],[-112.3998,34.4722],[-112.4015,34.4689],[-112.3996,34.4647],[-112.4117,34.4524],[-112.416,34.4529],[-112.4183,34.4507],[-112.4182,34.4451],[-112.4117,34.4426],[-112.3964,34.4238],[-112.4043,34.418],[-112.4047,34.4155],[-112.3998,34.4134],[-112.3993,34.4061],[-112.396,34.4026],[-112.4026,34.3956],[-112.4027,34.3902],[-112.4019,34.3865],[-112.3972,34.3837],[-112.3981,34.372],[-112.3949,34.3692],[-112.3964,34.3652],[-112.3932,34.3635],[-112.3934,34.3575],[-112.3969,34.3475],[-112.4015,34.3429],[-112.401,34.3363],[-112.4061,34.3236],[-112.3989,34.319],[-112.3913,34.3192],[-112.3765,34.3135],[-112.3769,34.3084],[-112.3733,34.3054],[-112.3739,34.302],[-112.3672,34.2874],[-112.371,34.2798],[-112.364,34.2741],[-112.3629,34.27],[-112.3527,34.2649],[-112.3525,34.2624],[-112.3584,34.2565],[-112.357,34.2395],[-112.361,34.2343],[-112.3502,34.2279],[-112.354,34.2191],[-112.3612,34.2157],[-112.3719,34.1934],[-112.3788,34.1914],[-112.3828,34.1874],[-112.3886,34.1729],[-112.3943,34.1681],[-112.3972,34.1688],[-112.403,34.1656],[-112.4029,34.161],[-112.4084,34.1553],[-112.4145,34.1575],[-112.4241,34.1547],[-112.4271,34.1488],[-112.435,34.1438],[-112.4547,34.139],[-112.4509,34.1307],[-112.4533,34.1281],[-112.4526,34.1245],[-112.4583,34.1197],[-112.4608,34.1187],[-112.4682,34.124],[-112.4885,34.1138],[-112.491,34.1102],[-112.4959,34.117],[-112.5012,34.1159],[-112.5029,34.1108],[-112.5117,34.1138],[-112.5064,34.1048],[-112.5087,34.1005],[-112.5176,34.0942],[-112.5127,34.0859],[-112.5178,34.0819],[-112.5099,34.0766],[-112.51,34.0721],[-112.5202,34.0613],[-112.531,34.0606],[-112.5321,34.0548],[-112.5466,34.0564],[-112.5523,34.0527],[-112.5519,34.0475],[-112.5558,34.044],[-112.5547,34.0365],[-112.5568,34.0304],[-112.5535,34.0287],[-112.5535,34.0249],[-112.5459,34.0167],[-112.5481,34.0119],[-112.5391,34.0039],[-112.5334,34.0037],[-112.5307,33.9959],[-112.5251,33.9923],[-112.5255,33.988],[-112.5388,33.9746],[-112.5433,33.9611],[-112.5423,33.9562],[-112.5488,33.9493],[-112.5474,33.9465],[-112.5544,33.9468],[-112.5616,33.9385],[-112.5655,33.939],[-112.5701,33.9271],[-112.5752,33.9249],[-112.583,33.9151],[-112.5824,33.9049],[-112.5931,33.8943],[-112.5949,33.8838],[-112.5992,33.878],[-112.6264,33.8495],[-112.6313,33.8328],[-112.6372,33.8233],[-112.6338,33.8157],[-112.6363,33.811],[-112.6343,33.8062],[-112.636,33.7938],[-112.6344,33.7899],[-112.6402,33.7849],[-112.6399,33.7777],[-112.6433,33.7703],[-112.6309,33.7472],[-112.6224,33.721],[-112.6206,33.7022],[-112.6104,33.6736],[-112.6048,33.6276],[-112.6098,33.6187],[-112.6142,33.6172],[-112.6111,33.6089],[-112.6015,33.5972],[-112.5959,33.5977],[-112.5895,33.5907],[-112.5904,33.5858],[-112.5836,33.5746],[-112.5745,33.5779],[-112.571,33.5758],[-112.5634,33.5766],[-112.5531,33.5817],[-112.5492,33.5868],[-112.532,33.5837],[-112.5278,33.5891],[-112.5248,33.5877],[-112.5068,33.5903],[-112.4753,33.5729],[-112.4704,33.5637],[-112.4696,33.4865],[-112.4617,33.4775],[-112.4596,33.4698],[-112.4416,33.4507],[-112.435,33.4222],[-112.4272,33.4136],[-112.4265,33.401],[-112.3855,33.3973],[-112.3634,33.3889],[-112.3585,33.3885],[-112.3551,33.3919],[-112.2722,33.3923],[-112.2723,33.4064],[-112.2627,33.4066],[-112.2463,33.4111],[-112.2299,33.4217],[-112.2233,33.4232],[-112.221,33.4267],[-112.221,33.4443],[-112.1893,33.4454],[-112.1867,33.4483],[-112.1866,33.4637],[-112.1178,33.4626],[-112.1235,33.4661],[-112.1172,33.4767],[-112.12,33.4914],[-112.1243,33.4962],[-112.1226,33.5285],[-112.1242,33.5537],[-112.1172,33.5713],[-112.1075,33.5733],[-112.0801,33.5677],[-112.0727,33.5604],[-112.0625,33.5564],[-112.0574,33.5461],[-112.0496,33.543],[-112.0332,33.5263],[-112.0191,33.5222],[-111.9932,33.5091],[-111.9804,33.5186],[-111.9742,33.5165],[-111.97,33.5183],[-111.9593,33.5146],[-111.9584,33.5417],[-111.9698,33.5451],[-111.9732,33.5417],[-111.9804,33.544],[-111.9824,33.5483],[-111.9903,33.5535],[-112.004,33.5427],[-112.009,33.543],[-112.0145,33.5485],[-112.021,33.5473],[-112.0112,33.5627],[-112.0145,33.564],[-112.0178,33.5728],[-112.0379,33.5775],[-112.0428,33.5815],[-112.0353,33.5938],[-112.0389,33.5973],[-112.0463,33.598],[-112.0431,33.6009],[-112.044,33.6057],[-112.028,33.6096],[-112.0261,33.6246],[-112.0218,33.6326],[-112.004,33.6497],[-111.9979,33.6636],[-112.0057,33.6678],[-112.0124,33.6763],[-112.0296,33.681],[-112.0308,33.6894],[-112.0269,33.7028],[-112.0155,33.7148],[-111.9991,33.7205],[-111.966,33.7405],[-111.948,33.7469],[-111.9122,33.7677],[-111.8895,33.7775],[-111.881,33.789],[-111.8475,33.8054],[-111.8333,33.8218],[-111.8284,33.8315],[-111.8284,33.8413],[-111.8339,33.8503],[-111.8284,33.8661],[-111.8461,33.88],[-111.8489,33.884],[-111.8467,33.8889],[-111.8589,33.8962],[-111.8618,33.8954],[-111.8762,33.902],[-111.8764,33.9039],[-111.8677,33.9103],[-111.8552,33.9088],[-111.8544,33.9182],[-111.8479,33.9223],[-111.8449,33.9208],[-111.8368,33.9231],[-111.8331,33.9163],[-111.8308,33.9173],[-111.8264,33.9203],[-111.8191,33.9324],[-111.8197,33.9348],[-111.8158,33.9384],[-111.8104,33.9388],[-111.8014,33.9336],[-111.7867,33.9353],[-111.7895,33.9425],[-111.7975,33.9512],[-111.796,33.9544],[-111.7989,33.9556],[-111.7923,33.9693],[-111.7961,33.9755],[-111.7937,33.9806],[-111.8074,33.9863],[-111.8126,33.9944],[-111.8153,33.9951],[-111.8226,34.0086],[-111.8338,34.0187],[-111.8349,34.0235],[-111.8398,34.027],[-111.8456,34.0366],[-111.846,34.0476],[-111.8577,34.0475],[-111.8595,34.0545],[-111.8631,34.0571],[-111.8749,34.0487],[-111.8766,34.05],[-111.8798,34.0576],[-111.8852,34.0621],[-111.8873,34.0815],[-111.9001,34.088],[-111.9,34.0907],[-111.8917,34.0946],[-111.8905,34.102],[-111.8877,34.1037],[-111.8873,34.1115],[-111.8883,34.1156],[-111.8956,34.1199],[-111.8936,34.1323],[-111.8991,34.1344],[-111.9038,34.1451],[-111.9034,34.1508],[-111.8993,34.1532],[-111.895,34.1622],[-111.8977,34.1681],[-111.8915,34.1734],[-111.9015,34.1792],[-111.9034,34.1862],[-111.9059,34.1878],[-111.8991,34.1987],[-111.894,34.1996],[-111.8906,34.2071],[-111.8905,34.2158],[-111.8802,34.2237],[-111.8784,34.2369],[-111.8737,34.2422],[-111.8637,34.2507],[-111.847,34.2549],[-111.8461,34.2607],[-111.8349,34.2655],[-111.8315,34.2701],[-111.8228,34.2723],[-111.8161,34.2794],[-111.8023,34.2852],[-111.7946,34.2855],[-111.7876,34.2916],[-111.7872,34.2956],[-111.7824,34.2993],[-111.7818,34.3029],[-111.7856,34.3078],[-111.7834,34.32],[-111.7912,34.3264],[-111.7895,34.3306],[-111.7917,34.341],[-111.7975,34.3442],[-111.7987,34.3521],[-111.8135,34.3698],[-111.8215,34.3656],[-111.8388,34.3652],[-111.8421,34.3705],[-111.85,34.3754],[-111.8543,34.3877],[-111.8514,34.3945],[-111.8556,34.4006],[-111.8549,34.4061],[-111.847,34.4161],[-111.8554,34.4207],[-111.8678,34.4222],[-111.881,34.4298],[-111.8899,34.4269],[-111.8943,34.4352],[-111.8894,34.446],[-111.8922,34.4544],[-111.8845,34.4688],[-111.8931,34.4775],[-111.8918,34.4829],[-111.8935,34.4884],[-111.9005,34.4925],[-111.9017,34.5028],[-111.915,34.5098],[-111.9323,34.5084],[-111.9379,34.512],[-111.9442,34.5108],[-111.9445,34.5172],[-111.963,34.5276],[-111.9655,34.5387],[-111.9555,34.5406],[-111.9537,34.5445],[-111.9451,34.5482],[-111.9501,34.5539],[-111.9489,34.5594],[-111.9545,34.5613],[-111.9575,34.5661],[-111.9628,34.5666],[-111.9687,34.5539],[-111.9828,34.5564],[-112.0025,34.5512],[-112.0059,34.5592],[-112.001,34.5638],[-112.0044,34.5699],[-112.0114,34.5676],[-112.0192,34.5591],[-112.027,34.5591],[-112.0446,34.5707],[-112.0503,34.5712],[-112.0534,34.5658],[-112.0584,34.567],[-112.0634,34.5644],[-112.0807,34.5735],[-112.0882,34.574],[-112.0864,34.5812],[-112.0882,34.5885],[-112.0816,34.5937],[-112.0866,34.5966],[-112.0896,34.6055],[-112.0852,34.6139],[-112.0808,34.6142],[-112.0767,34.6265],[-112.0787,34.6328],[-112.0824,34.6367],[-112.0864,34.6359],[-112.0965,34.6393],[-112.1007,34.6445],[-112.1128,34.6428],[-112.1157,34.6467],[-112.1249,34.6493],[-112.1315,34.6563],[-112.1459,34.6618],[-112.1503,34.6588],[-112.1558,34.6624],[-112.1571,34.6691],[-112.1494,34.6709],[-112.1518,34.6821],[-112.1485,34.6918],[-112.1354,34.7015],[-112.1279,34.7039],[-112.1341,34.7133],[-112.1433,34.7051],[-112.1514,34.7086],[-112.1589,34.7066],[-112.1581,34.7163]]]}},{"type":"Feature","properties":{"huc8":"15060203","name":"Lower Verde"},"geometry":{"type":"Polygon","coordinates":[[[-111.3641,34.7787],[-111.3724,34.7861],[-111.3804,34.7891],[-111.3904,34.8019],[-111.3958,34.7976],[-111.3936,34.7939],[-111.4001,34.7853],[-111.3987,34.7808],[-111.4018,34.7783],[-111.4073,34.779],[-111.4092,34.7726],[-111.4185,34.7623],[-111.417,34.754],[-111.4097,34.7497],[-111.3983,34.7343],[-111.4036,34.7272],[-111.3963,34.7127],[-111.4042,34.6946],[-111.4058,34.6818],[-111.4113,34.6698],[-111.4181,34.6626],[-111.4146,34.6522],[-111.416,34.6475],[-111.4262,34.6477],[-111.4333,34.6381],[-111.4465,34.6362],[-111.4588,34.6421],[-111.4677,34.6515],[-111.4691,34.6538],[-111.4646,34.6568],[-111.4665,34.6604],[-111.4843,34.6564],[-111.4908,34.6598],[-111.5008,34.6586],[-111.5125,34.669],[-111.5276,34.664],[-111.5413,34.663],[-111.5474,34.6595],[-111.5547,34.6627],[-111.5597,34.6462],[-111.5535,34.6416],[-111.5374,34.6361],[-111.5344,34.6312],[-111.5394,34.6262],[-111.5376,34.6095],[-111.5415,34.6016],[-111.5426,34.5861],[-111.5484,34.5882],[-111.5516,34.5851],[-111.5649,34.5873],[-111.576,34.5931],[-111.58,34.5899],[-111.5933,34.592],[-111.6066,34.5893],[-111.6196,34.5911],[-111.6452,34.5856],[-111.656,34.5957],[-111.6637,34.5924],[-111.691,34.6012],[-111.7128,34.5945],[-111.7316,34.5982],[-111.7502,34.5925],[-111.7779,34.5948],[-111.786,34.593],[-111.7889,34.5949],[-111.7908,34.5891],[-111.7962,34.588],[-111.7986,34.584],[-111.8078,34.5844],[-111.8093,34.5807],[-111.8188,34.581],[-111.8199,34.5683],[-111.845,34.558],[-111.8586,34.5573],[-111.8622,34.5598],[-111.8757,34.5531],[-111.89,34.5516],[-111.8936,34.5472],[-111.9067,34.5416],[-111.9212,34.5427],[-111.9251,34.5469],[-111.9326,34.5427],[-111.9386,34.5424],[-111.9451,34.5482],[-111.9537,34.5445],[-111.9555,34.5406],[-111.9656,34.5383],[-111.963,34.5276],[-111.9445,34.5172],[-111.9442,34.5108],[-111.9379,34.512],[-111.9323,34.5084],[-111.915,34.5098],[-111.9017,34.5028],[-111.9005,34.4925],[-111.8935,34.4884],[-111.8918,34.4829],[-111.8931,34.4775],[-111.8845,34.4688],[-111.8922,34.4544],[-111.8894,34.446],[-111.8943,34.4352],[-111.8899,34.4269],[-111.881,34.4298],[-111.8678,34.4222],[-111.8554,34.4207],[-111.8468,34.4159],[-111.8549,34.4061],[-111.8556,34.4006],[-111.8514,34.3945],[-111.8543,34.3877],[-111.85,34.3754],[-111.8421,34.3705],[-111.8388,34.3652],[-111.8215,34.3656],[-111.814,34.37],[-111.8099,34.367],[-111.7987,34.3521],[-111.7988,34.3458],[-111.7917,34.341],[-111.7895,34.3306],[-111.7912,34.3263],[-111.7834,34.32],[-111.7856,34.3078],[-111.7818,34.3029],[-111.7877,34.2914],[-111.7946,34.2855],[-111.8023,34.2852],[-111.8161,34.2794],[-111.8228,34.2723],[-111.8315,34.2701],[-111.8349,34.2655],[-111.8461,34.2607],[-111.847,34.2549],[-111.8637,34.2507],[-111.8737,34.2422],[-111.8784,34.2369],[-111.8802,34.2237],[-111.8905,34.2158],[-111.8906,34.2071],[-111.894,34.1996],[-111.8991,34.1987],[-111.9058,34.1883],[-111.9015,34.1792],[-111.8915,34.1734],[-111.8977,34.1681],[-111.895,34.1622],[-111.8993,34.1532],[-111.9034,34.1508],[-111.9038,34.1451],[-111.8991,34.1344],[-111.8936,34.1323],[-111.8956,34.1199],[-111.8883,34.1156],[-111.8873,34.1115],[-111.8877,34.1037],[-111.8905,34.102],[-111.8917,34.0946],[-111.9005,34.0894],[-111.8994,34.0868],[-111.8873,34.0815],[-111.8852,34.0621],[-111.8798,34.0576],[-111.8766,34.05],[-111.8749,34.0487],[-111.8631,34.0571],[-111.8595,34.0545],[-111.8577,34.0475],[-111.846,34.0476],[-111.8456,34.0366],[-111.8398,34.027],[-111.8349,34.0235],[-111.8338,34.0187],[-111.8226,34.0086],[-111.8153,33.9951],[-111.8126,33.9944],[-111.8074,33.9863],[-111.7935,33.9802],[-111.7961,33.9755],[-111.7923,33.9693],[-111.7989,33.9556],[-111.796,33.9544],[-111.7975,33.9512],[-111.7895,33.9425],[-111.787,33.9343],[-111.8019,33.9337],[-111.8104,33.9388],[-111.8158,33.9384],[-111.8197,33.9348],[-111.8191,33.9324],[-111.8264,33.9203],[-111.8308,33.9173],[-111.8331,33.9163],[-111.8368,33.9231],[-111.8449,33.9208],[-111.8479,33.9223],[-111.8544,33.9182],[-111.8552,33.9088],[-111.8677,33.9103],[-111.8729,33.9083],[-111.8765,33.9025],[-111.8618,33.8954],[-111.857,33.8953],[-111.8467,33.8889],[-111.8489,33.884],[-111.8461,33.88],[-111.8284,33.8661],[-111.8339,33.8503],[-111.8263,33.8391],[-111.8219,33.8259],[-111.819,33.8245],[-111.8212,33.8115],[-111.8198,33.7951],[-111.8236,33.7839],[-111.8221,33.7812],[-111.8274,33.772],[-111.8313,33.7698],[-111.8354,33.7593],[-111.8323,33.7478],[-111.8294,33.7449],[-111.828,33.7257],[-111.8198,33.7188],[-111.8125,33.702],[-111.812,33.6897],[-111.8147,33.6849],[-111.8084,33.6789],[-111.815,33.6723],[-111.8142,33.6687],[-111.8177,33.6619],[-111.8121,33.6534],[-111.8121,33.6443],[-111.8002,33.6392],[-111.7931,33.6324],[-111.7912,33.6184],[-111.7844,33.6145],[-111.782,33.61],[-111.7757,33.6098],[-111.7724,33.6056],[-111.7688,33.608],[-111.7644,33.6067],[-111.7616,33.6004],[-111.7626,33.5884],[-111.7571,33.5798],[-111.7526,33.5773],[-111.7484,33.5782],[-111.7427,33.5702],[-111.7353,33.5695],[-111.729,33.5742],[-111.7185,33.5686],[-111.7119,33.558],[-111.7048,33.5571],[-111.7017,33.5496],[-111.7041,33.547],[-111.694,33.541],[-111.6922,33.5456],[-111.6881,33.5456],[-111.6815,33.5503],[-111.671,33.5506],[-111.6608,33.5467],[-111.655,33.5552],[-111.6562,33.5614],[-111.654,33.5658],[-111.6457,33.5713],[-111.6295,33.5745],[-111.6188,33.59],[-111.6074,33.5968],[-111.6062,33.6145],[-111.5969,33.6306],[-111.5887,33.6326],[-111.587,33.6304],[-111.5847,33.6323],[-111.5858,33.6371],[-111.5786,33.6302],[-111.5701,33.6323],[-111.5647,33.637],[-111.5547,33.6366],[-111.5399,33.6411],[-111.5358,33.6438],[-111.5335,33.6516],[-111.5172,33.6707],[-111.5092,33.6664],[-111.4875,33.6703],[-111.4761,33.6666],[-111.4724,33.6687],[-111.4685,33.6761],[-111.4698,33.6805],[-111.452,33.677],[-111.4452,33.6848],[-111.4349,33.6855],[-111.421,33.6956],[-111.414,33.7138],[-111.4032,33.7177],[-111.3951,33.7265],[-111.3904,33.7256],[-111.3837,33.7348],[-111.3844,33.7389],[-111.3807,33.7468],[-111.3868,33.7503],[-111.3822,33.7609],[-111.3872,33.7634],[-111.3893,33.7705],[-111.3866,33.7732],[-111.3894,33.7766],[-111.3855,33.7833],[-111.3813,33.7852],[-111.3828,33.7883],[-111.3785,33.7937],[-111.3885,33.805],[-111.3843,33.8166],[-111.3728,33.8179],[-111.3718,33.8218],[-111.3818,33.8323],[-111.3926,33.8359],[-111.3903,33.8376],[-111.3954,33.8408],[-111.396,33.8448],[-111.3873,33.8626],[-111.3963,33.8684],[-111.3961,33.8768],[-111.4057,33.8795],[-111.4055,33.8821],[-111.4128,33.8857],[-111.4114,33.8917],[-111.4136,33.8987],[-111.4115,33.9038],[-111.408,33.9052],[-111.4086,33.9118],[-111.4051,33.9191],[-111.4259,33.926],[-111.4374,33.9161],[-111.4517,33.9209],[-111.4493,33.9295],[-111.4521,33.9334],[-111.4471,33.9348],[-111.4473,33.9413],[-111.4523,33.9487],[-111.448,33.9582],[-111.4522,33.9608],[-111.4526,33.9655],[-111.449,33.9687],[-111.4482,33.9731],[-111.4347,33.9808],[-111.4331,33.9841],[-111.4427,33.9912],[-111.4404,33.9964],[-111.4448,34.0009],[-111.4496,34.0002],[-111.4542,34.0047],[-111.4593,34.0025],[-111.4667,34.0064],[-111.4702,34.0028],[-111.4723,34.0049],[-111.495,33.9995],[-111.5006,34.0085],[-111.4961,34.0143],[-111.4975,34.0182],[-111.4952,34.0237],[-111.4977,34.029],[-111.4933,34.0379],[-111.4867,34.0358],[-111.4837,34.0401],[-111.4727,34.0417],[-111.4688,34.0477],[-111.4727,34.0581],[-111.463,34.0593],[-111.4614,34.063],[-111.4644,34.0724],[-111.4761,34.0805],[-111.4791,34.0839],[-111.4781,34.087],[-111.4862,34.0951],[-111.4717,34.1113],[-111.4752,34.1187],[-111.4806,34.1191],[-111.4823,34.1221],[-111.4797,34.13],[-111.4923,34.131],[-111.4937,34.1329],[-111.4779,34.1511],[-111.4817,34.1671],[-111.4785,34.1733],[-111.4689,34.179],[-111.4477,34.1784],[-111.447,34.1884],[-111.4429,34.1903],[-111.4409,34.1963],[-111.4357,34.1953],[-111.4276,34.2005],[-111.4128,34.2027],[-111.4071,34.2077],[-111.3876,34.2103],[-111.392,34.225],[-111.3877,34.2275],[-111.3783,34.2276],[-111.3726,34.223],[-111.3677,34.2275],[-111.3683,34.2302],[-111.3642,34.231],[-111.3542,34.2249],[-111.3534,34.2179],[-111.3507,34.2156],[-111.3449,34.2175],[-111.3394,34.2116],[-111.3294,34.2215],[-111.3237,34.2212],[-111.3158,34.2263],[-111.3114,34.2267],[-111.3075,34.2315],[-111.3063,34.244],[-111.3074,34.2506],[-111.3113,34.2542],[-111.3088,34.2607],[-111.3096,34.2659],[-111.3069,34.2678],[-111.3072,34.2765],[-111.2984,34.2788],[-111.2913,34.2852],[-111.2829,34.2829],[-111.2745,34.2909],[-111.2687,34.2908],[-111.2479,34.3035],[-111.2445,34.306],[-111.2464,34.3117],[-111.241,34.3134],[-111.2382,34.3194],[-111.2158,34.3194],[-111.2105,34.3085],[-111.2116,34.3023],[-111.1999,34.2984],[-111.1969,34.2933],[-111.1925,34.293],[-111.1856,34.2986],[-111.1688,34.3009],[-111.1647,34.306],[-111.1543,34.3078],[-111.1534,34.3174],[-111.1566,34.3221],[-111.1506,34.3272],[-111.151,34.3316],[-111.1381,34.3312],[-111.1375,34.3375],[-111.148,34.342],[-111.1395,34.3598],[-111.1404,34.365],[-111.1441,34.3754],[-111.1478,34.3774],[-111.1465,34.3836],[-111.151,34.3938],[-111.1606,34.4067],[-111.1709,34.4058],[-111.1825,34.4108],[-111.1952,34.4063],[-111.199,34.4099],[-111.2092,34.4098],[-111.2141,34.4147],[-111.2142,34.4197],[-111.221,34.4174],[-111.2219,34.426],[-111.2268,34.4301],[-111.2276,34.4339],[-111.2388,34.4327],[-111.2416,34.4395],[-111.2391,34.4443],[-111.2482,34.4529],[-111.2567,34.4532],[-111.2574,34.448],[-111.2608,34.448],[-111.2623,34.4442],[-111.2697,34.4462],[-111.2788,34.4405],[-111.3059,34.4349],[-111.3114,34.4292],[-111.3155,34.4307],[-111.3285,34.4226],[-111.3314,34.4255],[-111.3364,34.4242],[-111.3421,34.4314],[-111.3415,34.4407],[-111.3443,34.4449],[-111.3485,34.4468],[-111.3592,34.446],[-111.3713,34.4554],[-111.3763,34.451],[-111.3799,34.4542],[-111.3708,34.4627],[-111.3508,34.4682],[-111.3436,34.4736],[-111.3383,34.4854],[-111.3157,34.4968],[-111.3145,34.4998],[-111.3191,34.507],[-111.3179,34.5115],[-111.3127,34.5161],[-111.3146,34.5321],[-111.296,34.5461],[-111.2786,34.5522],[-111.2736,34.5589],[-111.2644,34.5641],[-111.2652,34.5663],[-111.2719,34.5677],[-111.2758,34.5735],[-111.2856,34.5771],[-111.2989,34.5955],[-111.3065,34.6004],[-111.308,34.6095],[-111.3136,34.6102],[-111.3166,34.6153],[-111.3167,34.6202],[-111.3136,34.622],[-111.3207,34.6247],[-111.3186,34.6316],[-111.325,34.6357],[-111.3199,34.6389],[-111.3194,34.6432],[-111.3121,34.6457],[-111.3027,34.6571],[-111.304,34.6682],[-111.2961,34.6709],[-111.2786,34.6839],[-111.2728,34.6906],[-111.2741,34.6949],[-111.2676,34.6972],[-111.2672,34.7024],[-111.2733,34.7067],[-111.2751,34.716],[-111.2805,34.716],[-111.2835,34.7201],[-111.2887,34.7213],[-111.2844,34.7283],[-111.2881,34.736],[-111.2985,34.7374],[-111.3165,34.7523],[-111.3348,34.7519],[-111.3412,34.7548],[-111.3567,34.7687],[-111.3641,34.7787]]]}},{"type":"Feature","properties":{"huc8":"15050303","name":"Lower Santa Cruz"},"geometry":{"type":"Polygon","coordinates":[[[-112.1801,33.2583],[-112.1918,33.2647],[-112.2027,33.2543],[-112.2212,33.2486],[-112.2251,33.2423],[-112.2231,33.2312],[-112.216,33.2294],[-112.2154,33.2179],[-112.2046,33.1894],[-112.1896,33.178],[-112.1864,33.1711],[-112.1818,33.1703],[-112.1817,33.1645],[-112.1775,33.1609],[-112.1768,33.1572],[-112.185,33.1517],[-112.1862,33.1459],[-112.1957,33.1438],[-112.1997,33.1365],[-112.2233,33.1257],[-112.213,33.1149],[-112.2025,33.1099],[-112.207,33.0928],[-112.2055,33.0851],[-112.2016,33.081],[-112.2034,33.0787],[-112.2071,33.0794],[-112.2115,33.074],[-112.2107,33.0691],[-112.2198,33.0542],[-112.2194,33.0328],[-112.2148,33.0041],[-112.2159,32.9887],[-112.1996,32.9771],[-112.2032,32.9751],[-112.2065,32.966],[-112.2259,32.9503],[-112.2382,32.9359],[-112.2599,32.9008],[-112.2759,32.8975],[-112.2841,32.899],[-112.3039,32.8962],[-112.3168,32.8972],[-112.3304,32.9025],[-112.3271,32.894],[-112.3322,32.8865],[-112.3416,32.8805],[-112.3406,32.8788],[-112.3378,32.88],[-112.3346,32.8718],[-112.3254,32.8669],[-112.3225,32.8616],[-112.3358,32.8484],[-112.3313,32.8433],[-112.3303,32.8292],[-112.3267,32.8198],[-112.3282,32.8154],[-112.3331,32.8084],[-112.339,32.791],[-112.3458,32.7892],[-112.3566,32.7777],[-112.3736,32.7692],[-112.374,32.7648],[-112.3773,32.7636],[-112.3826,32.7558],[-112.3955,32.7569],[-112.3952,32.7428],[-112.3998,32.737],[-112.3979,32.7299],[-112.4008,32.7167],[-112.3969,32.7122],[-112.403,32.7045],[-112.3903,32.6933],[-112.389,32.6879],[-112.3828,32.6845],[-112.3822,32.6783],[-112.3873,32.6808],[-112.3957,32.6738],[-112.3853,32.6658],[-112.3902,32.6607],[-112.388,32.6568],[-112.3899,32.6525],[-112.3804,32.6454],[-112.3798,32.642],[-112.3839,32.6382],[-112.3826,32.6357],[-112.3697,32.6343],[-112.3643,32.6274],[-112.3404,32.6198],[-112.3193,32.6238],[-112.3082,32.6218],[-112.2943,32.6237],[-112.2751,32.6225],[-112.2653,32.6269],[-112.2278,32.6342],[-112.2183,32.6312],[-112.1815,32.6274],[-112.1581,32.6168],[-112.1525,32.6192],[-112.1479,32.6173],[-112.1415,32.619],[-112.1394,32.6242],[-112.1445,32.6267],[-112.1523,32.6412],[-112.1673,32.6751],[-112.1672,32.6822],[-112.1628,32.6927],[-112.1577,32.6977],[-112.1359,32.7036],[-112.1318,32.7171],[-112.1355,32.7284],[-112.1308,32.7361],[-112.1316,32.7432],[-112.1285,32.7487],[-112.125,32.7494],[-112.1247,32.7525],[-112.1155,32.7512],[-112.1101,32.7562],[-112.1063,32.7703],[-112.1087,32.7727],[-112.1065,32.7745],[-112.1092,32.781],[-112.1002,32.7882],[-112.0954,32.7971],[-112.0877,32.7974],[-112.0718,32.8131],[-112.0426,32.8248],[-112.0363,32.8324],[-112.0319,32.8501],[-112.028,32.8502],[-112.0198,32.8648],[-112.0152,32.865],[-111.9987,32.8793],[-111.9469,32.8794],[-111.9467,32.8975],[-111.9398,32.8909],[-111.938,32.8794],[-111.9336,32.8787],[-111.9293,32.8588],[-111.929,32.8275],[-111.9178,32.8115],[-111.9088,32.8105],[-111.8836,32.7966],[-111.8776,32.7967],[-111.8775,32.7921],[-111.8607,32.7921],[-111.8607,32.789],[-111.852,32.7795],[-111.8258,32.768],[-111.8205,32.7694],[-111.8106,32.7625],[-111.8102,32.7595],[-111.7962,32.7422],[-111.7861,32.739],[-111.788,32.7284],[-111.7984,32.7208],[-111.7963,32.7141],[-111.8008,32.7124],[-111.8048,32.7079],[-111.8036,32.7059],[-111.8082,32.7041],[-111.8075,32.6982],[-111.8124,32.6964],[-111.8095,32.696],[-111.8074,32.6905],[-111.8073,32.6775],[-111.8025,32.675],[-111.8039,32.6705],[-111.8019,32.6675],[-111.8046,32.6628],[-111.7977,32.6571],[-111.7926,32.6435],[-111.7832,32.6314],[-111.766,32.6266],[-111.7587,32.6314],[-111.7547,32.6314],[-111.7467,32.6263],[-111.7452,32.6175],[-111.7384,32.6191],[-111.7376,32.6149],[-111.7304,32.6129],[-111.7364,32.6089],[-111.7338,32.6071],[-111.7345,32.6031],[-111.7472,32.5988],[-111.7475,32.5927],[-111.7421,32.5867],[-111.7462,32.5839],[-111.7444,32.5804],[-111.7476,32.579],[-111.7515,32.5714],[-111.7565,32.546],[-111.7546,32.5366],[-111.7426,32.509],[-111.7439,32.4812],[-111.7268,32.4589],[-111.7267,32.447],[-111.718,32.4375],[-111.6816,32.4225],[-111.6453,32.4029],[-111.6344,32.399],[-111.6157,32.3969],[-111.5629,32.3948],[-111.537,32.4039],[-111.5262,32.4112],[-111.517,32.4121],[-111.5114,32.4194],[-111.5058,32.4178],[-111.5052,32.4226],[-111.497,32.4299],[-111.4912,32.449],[-111.4769,32.454],[-111.471,32.4639],[-111.4713,32.4687],[-111.4678,32.472],[-111.4691,32.4745],[-111.4665,32.4835],[-111.4619,32.4841],[-111.4552,32.497],[-111.4521,32.4968],[-111.4432,32.5051],[-111.4436,32.5119],[-111.4368,32.5133],[-111.4325,32.522],[-111.4265,32.5234],[-111.4227,32.522],[-111.4215,32.5154],[-111.4165,32.515],[-111.4153,32.5221],[-111.4041,32.5365],[-111.3943,32.5364],[-111.3814,32.5268],[-111.366,32.5218],[-111.3637,32.5186],[-111.3626,32.5058],[-111.3644,32.5006],[-111.3586,32.4963],[-111.3507,32.4793],[-111.3416,32.4711],[-111.325,32.4635],[-111.3118,32.4495],[-111.3035,32.4444],[-111.2597,32.4288],[-111.255,32.4233],[-111.2371,32.4141],[-111.216,32.4081],[-111.167,32.402],[-111.1509,32.3968],[-111.1464,32.3922],[-111.1425,32.3947],[-111.143,32.3967],[-111.156,32.4061],[-111.1542,32.4113],[-111.1456,32.4208],[-111.1025,32.4572],[-111.0929,32.4625],[-111.0803,32.4621],[-111.0815,32.471],[-111.0688,32.476],[-111.0478,32.4943],[-111.0385,32.4946],[-111.0382,32.499],[-111.0309,32.5036],[-111.034,32.5079],[-111.0314,32.5157],[-111.0407,32.5296],[-111.0329,32.544],[-111.0303,32.5453],[-111.0324,32.5477],[-111.0312,32.5541],[-111.0289,32.5542],[-111.0303,32.5598],[-111.0287,32.5659],[-111.0225,32.5652],[-111.0299,32.5765],[-111.0292,32.5825],[-111.0326,32.5909],[-111.0571,32.5991],[-111.0948,32.6003],[-111.0946,32.6048],[-111.0985,32.6122],[-111.1081,32.6206],[-111.1148,32.6195],[-111.1165,32.6218],[-111.126,32.6238],[-111.1478,32.6191],[-111.1786,32.6173],[-111.2119,32.6112],[-111.2345,32.6121],[-111.2605,32.6165],[-111.2872,32.6109],[-111.3524,32.6106],[-111.369,32.6272],[-111.3758,32.6293],[-111.3881,32.6281],[-111.3934,32.6335],[-111.4043,32.6359],[-111.4079,32.6399],[-111.4149,32.6418],[-111.4163,32.6556],[-111.4133,32.6561],[-111.4133,32.6618],[-111.4609,32.6928],[-111.4645,32.6973],[-111.4654,32.7054],[-111.4774,32.7122],[-111.4853,32.7128],[-111.4877,32.7261],[-111.4986,32.744],[-111.4986,32.7628],[-111.5238,32.7628],[-111.5239,32.8067],[-111.5325,32.807],[-111.5324,32.8286],[-111.541,32.8286],[-111.541,32.8358],[-111.5486,32.8358],[-111.5505,32.8541],[-111.5625,32.8555],[-111.5783,32.8516],[-111.5976,32.8541],[-111.6027,32.8503],[-111.614,32.8501],[-111.6208,32.8444],[-111.6309,32.8493],[-111.6367,32.8477],[-111.6371,32.8652],[-111.6452,32.8692],[-111.6452,32.8785],[-111.6488,32.8811],[-111.6532,32.895],[-111.6617,32.9001],[-111.6677,32.9075],[-111.6662,32.9125],[-111.6681,32.9143],[-111.6688,32.927],[-111.679,32.9455],[-111.6797,32.966],[-111.6742,32.9696],[-111.6704,32.9828],[-111.675,32.9961],[-111.6741,33.0027],[-111.6843,33.0039],[-111.6871,33.0084],[-111.6925,33.0101],[-111.6943,33.0171],[-111.7054,33.0185],[-111.7078,33.0251],[-111.7132,33.0292],[-111.7159,33.0286],[-111.7194,33.0337],[-111.7249,33.0305],[-111.7334,33.0315],[-111.7351,33.0401],[-111.7261,33.0443],[-111.7274,33.049],[-111.7405,33.0561],[-111.7565,33.0601],[-111.7739,33.0581],[-111.8014,33.0652],[-111.8064,33.0719],[-111.8065,33.101],[-111.8245,33.1023],[-111.828,33.1055],[-111.8555,33.1103],[-111.9051,33.1106],[-111.9052,33.1141],[-111.9188,33.122],[-111.9397,33.1214],[-111.9432,33.125],[-111.9572,33.1249],[-111.9614,33.1227],[-111.9614,33.1248],[-111.9791,33.1249],[-111.9868,33.132],[-112.0006,33.1389],[-112.0083,33.1396],[-112.0182,33.147],[-112.0226,33.1466],[-112.0195,33.1561],[-112.0219,33.1587],[-112.0385,33.1639],[-112.0495,33.1716],[-112.0586,33.1732],[-112.093,33.1935],[-112.0959,33.1972],[-112.0961,33.2108],[-112.1014,33.2212],[-112.1113,33.2258],[-112.1205,33.2264],[-112.143,33.2361],[-112.1547,33.2427],[-112.1608,33.2538],[-112.1801,33.2583]]]}},{"type":"Feature","properties":{"huc8":"15030204","name":"Bill Williams"},"geometry":{"type":"Polygon","coordinates":[[[-113.8357,34.7382],[-113.8487,34.7387],[-113.8593,34.7325],[-113.858,34.7228],[-113.8639,34.719],[-113.8682,34.7126],[-113.8644,34.7076],[-113.8587,34.7053],[-113.8563,34.6814],[-113.8672,34.6744],[-113.8687,34.6705],[-113.8625,34.6631],[-113.8652,34.6425],[-113.8791,34.6291],[-113.8829,34.6267],[-113.8944,34.6258],[-113.9539,34.6023],[-114.0222,34.579],[-114.0676,34.5693],[-114.094,34.5526],[-114.0944,34.5434],[-114.0973,34.5401],[-114.1132,34.5399],[-114.1203,34.5345],[-114.1197,34.518],[-114.1129,34.5158],[-114.1118,34.5089],[-114.1057,34.4998],[-114.1061,34.4924],[-114.1221,34.4837],[-114.1192,34.4792],[-114.1208,34.4733],[-114.1163,34.4667],[-114.117,34.4635],[-114.1215,34.4624],[-114.12,34.4587],[-114.1243,34.4542],[-114.1076,34.447],[-114.1088,34.4368],[-114.1045,34.4337],[-114.1024,34.4241],[-114.1121,34.4072],[-114.0974,34.4036],[-114.0932,34.405],[-114.0928,34.4004],[-114.087,34.3953],[-114.0772,34.3927],[-114.0743,34.3857],[-114.073,34.3715],[-114.0806,34.3701],[-114.0884,34.3622],[-114.0884,34.3485],[-114.1022,34.3331],[-114.1031,34.3273],[-114.1128,34.3318],[-114.1257,34.3227],[-114.1238,34.3167],[-114.1331,34.3145],[-114.1365,34.3008],[-114.1271,34.2899],[-114.1154,34.2871],[-114.0996,34.2768],[-114.0948,34.2779],[-114.0829,34.2721],[-114.0835,34.2687],[-114.0772,34.263],[-114.0696,34.261],[-114.0656,34.2449],[-114.0626,34.2437],[-114.0444,34.253],[-114.0425,34.2457],[-114.0295,34.2385],[-114.0231,34.2273],[-114.0239,34.22],[-114.0269,34.2137],[-114.0399,34.2095],[-114.0429,34.2049],[-114.0409,34.2012],[-114.0482,34.1909],[-114.0472,34.1854],[-114.0409,34.1834],[-114.0356,34.1747],[-114.0135,34.1723],[-114.0125,34.1674],[-114.0081,34.1658],[-114.002,34.1579],[-113.9871,34.1601],[-113.9814,34.1672],[-113.9769,34.1629],[-113.9662,34.159],[-113.9613,34.1642],[-113.9581,34.1606],[-113.9554,34.161],[-113.9436,34.1709],[-113.9375,34.1806],[-113.9391,34.1889],[-113.936,34.1898],[-113.9279,34.1732],[-113.9217,34.1728],[-113.9227,34.1699],[-113.9076,34.1598],[-113.9028,34.1589],[-113.901,34.1615],[-113.898,34.1589],[-113.87,34.1517],[-113.8588,34.1571],[-113.8568,34.148],[-113.8587,34.1439],[-113.8555,34.137],[-113.859,34.1354],[-113.8406,34.128],[-113.8415,34.1245],[-113.8379,34.1221],[-113.8399,34.1202],[-113.8338,34.116],[-113.8349,34.1086],[-113.8239,34.1045],[-113.8184,34.0963],[-113.8167,34.0913],[-113.8191,34.0875],[-113.8144,34.0857],[-113.8113,34.0908],[-113.8052,34.0913],[-113.8006,34.0907],[-113.7963,34.0847],[-113.7893,34.087],[-113.7753,34.0831],[-113.7708,34.0856],[-113.7608,34.0765],[-113.7533,34.0784],[-113.749,34.0752],[-113.7327,34.0747],[-113.7277,34.0812],[-113.7241,34.0808],[-113.7152,34.0878],[-113.711,34.0927],[-113.7106,34.0972],[-113.704,34.1],[-113.7027,34.1031],[-113.6969,34.1068],[-113.6918,34.1039],[-113.6866,34.111],[-113.6772,34.1149],[-113.6746,34.124],[-113.6658,34.1216],[-113.6613,34.1265],[-113.6567,34.1242],[-113.654,34.1288],[-113.6497,34.1282],[-113.6355,34.1388],[-113.6301,34.1385],[-113.6235,34.1454],[-113.6109,34.1482],[-113.6025,34.1534],[-113.5982,34.1523],[-113.5839,34.162],[-113.5784,34.1571],[-113.5709,34.1623],[-113.5489,34.1524],[-113.5403,34.1532],[-113.5372,34.1393],[-113.5209,34.1184],[-113.5204,34.1048],[-113.5105,34.1037],[-113.4976,34.1111],[-113.4832,34.1153],[-113.4611,34.0927],[-113.4501,34.088],[-113.4425,34.0728],[-113.4366,34.0705],[-113.4271,34.0599],[-113.4353,34.0538],[-113.4378,34.048],[-113.4287,34.0368],[-113.4019,34.044],[-113.3941,34.0501],[-113.3842,34.0533],[-113.3806,34.0584],[-113.3748,34.0584],[-113.3706,34.0621],[-113.3616,34.0599],[-113.3494,34.0695],[-113.3406,34.0713],[-113.3376,34.0742],[-113.3215,34.0731],[-113.3133,34.0769],[-113.3018,34.0755],[-113.2967,34.0818],[-113.2939,34.0794],[-113.2889,34.0825],[-113.2828,34.0813],[-113.2794,34.0841],[-113.2703,34.0805],[-113.2623,34.0831],[-113.2562,34.0793],[-113.2487,34.0788],[-113.2443,34.0806],[-113.2258,34.0801],[-113.2239,34.0781],[-113.2097,34.0797],[-113.1979,34.0745],[-113.195,34.07],[-113.187,34.067],[-113.1817,34.0607],[-113.1752,34.0595],[-113.1706,34.0521],[-113.1544,34.0436],[-113.1522,34.0387],[-113.1394,34.0336],[-113.129,34.0372],[-113.1156,34.0347],[-113.113,34.0406],[-113.1045,34.044],[-113.1085,34.0474],[-113.1052,34.052],[-113.1086,34.0592],[-113.0999,34.069],[-113.0758,34.1119],[-113.0552,34.1803],[-113.0514,34.1833],[-113.062,34.1857],[-113.0886,34.1761],[-113.1135,34.181],[-113.1162,34.1779],[-113.1253,34.1791],[-113.1687,34.1679],[-113.1914,34.1729],[-113.2208,34.1603],[-113.2543,34.1544],[-113.2665,34.1545],[-113.2893,34.1646],[-113.2972,34.1715],[-113.3108,34.1779],[-113.3298,34.1762],[-113.3855,34.1962],[-113.4047,34.2075],[-113.4263,34.2166],[-113.4399,34.2271],[-113.4519,34.243],[-113.4739,34.2531],[-113.4896,34.276],[-113.4942,34.2772],[-113.5014,34.2843],[-113.5011,34.2881],[-113.5065,34.2891],[-113.515,34.2955],[-113.5142,34.2998],[-113.5181,34.3032],[-113.5183,34.3071],[-113.5224,34.3093],[-113.5246,34.317],[-113.5286,34.321],[-113.5342,34.3216],[-113.5344,34.3256],[-113.5307,34.3304],[-113.5445,34.3304],[-113.5521,34.3343],[-113.571,34.331],[-113.5769,34.3325],[-113.5788,34.336],[-113.586,34.3393],[-113.6033,34.3343],[-113.6109,34.3459],[-113.624,34.3477],[-113.6278,34.3516],[-113.6257,34.3554],[-113.6333,34.3554],[-113.6412,34.3609],[-113.6475,34.3606],[-113.6486,34.3669],[-113.6451,34.374],[-113.6498,34.3763],[-113.6455,34.3795],[-113.6449,34.383],[-113.6401,34.3841],[-113.6456,34.3902],[-113.6466,34.3952],[-113.6494,34.3961],[-113.6583,34.3874],[-113.668,34.3847],[-113.678,34.3863],[-113.6839,34.383],[-113.6938,34.3884],[-113.703,34.3895],[-113.7137,34.3987],[-113.7158,34.404],[-113.7196,34.4026],[-113.7228,34.4067],[-113.7317,34.4036],[-113.736,34.4044],[-113.7498,34.414],[-113.7577,34.4149],[-113.7563,34.4225],[-113.7737,34.4389],[-113.7747,34.4442],[-113.7791,34.4456],[-113.7768,34.4514],[-113.7792,34.4591],[-113.7836,34.4634],[-113.7784,34.4677],[-113.7786,34.4718],[-113.7715,34.4743],[-113.772,34.4791],[-113.7677,34.4795],[-113.7646,34.4827],[-113.7673,34.4851],[-113.7687,34.4945],[-113.7662,34.5008],[-113.7614,34.5051],[-113.7669,34.5078],[-113.7669,34.5146],[-113.7789,34.5345],[-113.7944,34.5417],[-113.7947,34.5484],[-113.7999,34.5585],[-113.7973,34.5628],[-113.7958,34.5778],[-113.7774,34.5979],[-113.7605,34.6077],[-113.7571,34.6157],[-113.7581,34.6193],[-113.7464,34.6322],[-113.7458,34.6416],[-113.7377,34.6478],[-113.7386,34.6561],[-113.7293,34.6632],[-113.7347,34.6702],[-113.734,34.6743],[-113.7364,34.6771],[-113.7493,34.6811],[-113.7515,34.6853],[-113.7647,34.6927],[-113.7644,34.6959],[-113.7692,34.7008],[-113.7756,34.7031],[-113.7775,34.7082],[-113.7854,34.7096],[-113.788,34.7131],[-113.7853,34.7216],[-113.7946,34.7275],[-113.7978,34.7272],[-113.7992,34.7226],[-113.8021,34.7216],[-113.8081,34.7246],[-113.8188,34.7226],[-113.8357,34.7382]]]}},{"type":"Feature","properties":{"huc8":"15050100","name":"Middle Gila"},"geometry":{"type":"Polygon","coordinates":[[[-111.4779,33.4885],[-111.4822,33.4901],[-111.493,33.4815],[-111.496,33.485],[-111.4993,33.4835],[-111.5094,33.488],[-111.5167,33.4841],[-111.5109,33.4755],[-111.5074,33.4485],[-111.5287,33.4316],[-111.5336,33.4332],[-111.5386,33.4316],[-111.5519,33.4414],[-111.5611,33.4392],[-111.5676,33.4434],[-111.5807,33.445],[-111.5838,33.4411],[-111.5948,33.4394],[-111.5957,33.441],[-111.6185,33.4408],[-111.6223,33.4432],[-111.6402,33.4327],[-111.6569,33.4413],[-111.6757,33.4594],[-111.7009,33.4573],[-111.7132,33.4585],[-111.7187,33.4601],[-111.7189,33.4664],[-111.7277,33.4711],[-111.7296,33.4764],[-111.748,33.4768],[-111.7493,33.4754],[-111.7378,33.4453],[-111.7242,33.4207],[-111.7112,33.4062],[-111.7091,33.3986],[-111.7013,33.3863],[-111.7677,33.3861],[-111.7677,33.3727],[-111.7736,33.3573],[-111.9571,33.3563],[-111.9567,33.3586],[-111.972,33.3605],[-111.9789,33.3644],[-111.9934,33.3587],[-112.0069,33.3576],[-112.0157,33.3511],[-112.0357,33.3424],[-112.0478,33.3426],[-112.0496,33.3389],[-112.0737,33.3299],[-112.0739,33.3273],[-112.0765,33.3265],[-112.0826,33.33],[-112.0998,33.3224],[-112.0999,33.3352],[-112.1026,33.3362],[-112.1042,33.3414],[-112.117,33.3349],[-112.1221,33.3505],[-112.133,33.3589],[-112.1647,33.3629],[-112.2106,33.3626],[-112.2277,33.36],[-112.2656,33.3767],[-112.2855,33.3763],[-112.3035,33.3813],[-112.3067,33.3806],[-112.306,33.375],[-112.3107,33.3695],[-112.312,33.3621],[-112.3223,33.351],[-112.3237,33.3412],[-112.3281,33.3343],[-112.3391,33.3289],[-112.3419,33.3241],[-112.3367,33.3201],[-112.3326,33.3106],[-112.3274,33.3107],[-112.3218,33.3072],[-112.3206,33.2996],[-112.3229,33.2926],[-112.3213,33.2911],[-112.3119,33.2875],[-112.3109,33.2845],[-112.3042,33.2837],[-112.3026,33.2772],[-112.2896,33.2705],[-112.2835,33.2708],[-112.2763,33.2563],[-112.2537,33.2534],[-112.2506,33.2498],[-112.2451,33.2486],[-112.2396,33.242],[-112.2378,33.2332],[-112.2301,33.2304],[-112.2231,33.2312],[-112.2251,33.2402],[-112.2237,33.2462],[-112.2145,33.2515],[-112.2027,33.2543],[-112.1918,33.2647],[-112.1819,33.2587],[-112.161,33.2539],[-112.1565,33.2446],[-112.1492,33.2392],[-112.1205,33.2264],[-112.1113,33.2258],[-112.1014,33.2212],[-112.096,33.2102],[-112.0959,33.1971],[-112.0925,33.1932],[-112.0586,33.1732],[-112.0495,33.1716],[-112.0385,33.1639],[-112.0219,33.1587],[-112.0195,33.1561],[-112.0226,33.1466],[-112.0182,33.147],[-112.0083,33.1396],[-112.0006,33.1389],[-111.9868,33.132],[-111.9791,33.1249],[-111.9614,33.1248],[-111.9614,33.1227],[-111.9572,33.1249],[-111.9432,33.125],[-111.9397,33.1214],[-111.9188,33.122],[-111.9052,33.1141],[-111.9051,33.1106],[-111.8555,33.1103],[-111.828,33.1055],[-111.8245,33.1023],[-111.8065,33.101],[-111.8064,33.0719],[-111.8014,33.0652],[-111.7739,33.0581],[-111.7565,33.0601],[-111.7405,33.0561],[-111.7274,33.049],[-111.7261,33.0443],[-111.7351,33.0401],[-111.7334,33.0315],[-111.7249,33.0305],[-111.7194,33.0337],[-111.7159,33.0286],[-111.7132,33.0292],[-111.7078,33.0251],[-111.7054,33.0185],[-111.6943,33.0171],[-111.6925,33.0101],[-111.6871,33.0084],[-111.6843,33.0039],[-111.6741,33.0027],[-111.675,32.9961],[-111.6704,32.9828],[-111.6742,32.9696],[-111.6797,32.966],[-111.679,32.9455],[-111.6688,32.927],[-111.6681,32.9143],[-111.6662,32.9125],[-111.6677,32.9075],[-111.6617,32.9001],[-111.6532,32.895],[-111.6488,32.8811],[-111.6452,32.8785],[-111.6452,32.8692],[-111.6371,32.8652],[-111.6367,32.8477],[-111.6309,32.8493],[-111.6208,32.8444],[-111.614,32.8501],[-111.6027,32.8503],[-111.5976,32.8541],[-111.5783,32.8516],[-111.5635,32.8554],[-111.5509,32.8544],[-111.5486,32.8358],[-111.541,32.8358],[-111.541,32.8286],[-111.5324,32.8286],[-111.5325,32.807],[-111.5239,32.8067],[-111.5238,32.7628],[-111.4985,32.7627],[-111.4986,32.744],[-111.4877,32.7261],[-111.4853,32.7128],[-111.4774,32.7122],[-111.4654,32.7054],[-111.4645,32.6973],[-111.4609,32.6928],[-111.4133,32.6618],[-111.4133,32.6561],[-111.4163,32.6556],[-111.4149,32.6418],[-111.4079,32.6399],[-111.4043,32.6359],[-111.3934,32.6335],[-111.3881,32.6281],[-111.3758,32.6293],[-111.369,32.6272],[-111.353,32.6107],[-111.2872,32.6109],[-111.2605,32.6165],[-111.2345,32.6121],[-111.2119,32.6112],[-111.1256,32.6239],[-111.1165,32.6218],[-111.115,32.6195],[-111.1079,32.6204],[-111.0985,32.6122],[-111.0946,32.6048],[-111.0948,32.6003],[-111.0571,32.5991],[-111.0335,32.5915],[-111.0282,32.5758],[-111.0194,32.5886],[-111.012,32.5892],[-111.0095,32.5949],[-110.9957,32.5981],[-110.9916,32.6041],[-110.9824,32.6092],[-110.9717,32.6195],[-110.9632,32.623],[-110.9551,32.623],[-110.927,32.6409],[-110.9028,32.6838],[-110.9021,32.6893],[-110.9098,32.7103],[-110.918,32.7199],[-110.918,32.7298],[-110.9221,32.7322],[-110.9202,32.7379],[-110.9219,32.7423],[-110.9268,32.7475],[-110.9348,32.7466],[-110.9323,32.7529],[-110.9366,32.7573],[-110.9381,32.7631],[-110.9442,32.7666],[-110.9508,32.7803],[-110.944,32.7918],[-110.9318,32.7977],[-110.9326,32.8043],[-110.9269,32.8138],[-110.9177,32.8161],[-110.9138,32.8263],[-110.9148,32.8318],[-110.9095,32.8365],[-110.9092,32.8399],[-110.8972,32.8494],[-110.8919,32.8567],[-110.8837,32.8616],[-110.8848,32.8811],[-110.8832,32.8853],[-110.89,32.8878],[-110.8902,32.8937],[-110.8943,32.9012],[-110.8936,32.91],[-110.8909,32.9132],[-110.8939,32.9174],[-110.8891,32.9253],[-110.8907,32.928],[-110.8882,32.9297],[-110.8818,32.9314],[-110.8806,32.9338],[-110.8752,32.9327],[-110.8692,32.9389],[-110.8566,32.9439],[-110.8541,32.9472],[-110.8428,32.9492],[-110.8387,32.9533],[-110.8215,32.9545],[-110.8092,32.9597],[-110.7934,32.9706],[-110.7835,32.9845],[-110.7602,32.9789],[-110.755,32.9807],[-110.7544,32.9874],[-110.7491,32.9895],[-110.7473,32.9864],[-110.7438,32.9863],[-110.741,32.9905],[-110.7351,32.9915],[-110.7266,33.0006],[-110.7195,32.9983],[-110.7197,32.9954],[-110.7169,32.9934],[-110.7131,32.9946],[-110.7126,32.9985],[-110.7096,32.9998],[-110.7066,32.9951],[-110.7038,32.9953],[-110.7007,32.9872],[-110.6976,32.9876],[-110.6931,32.9808],[-110.6796,32.9818],[-110.6738,32.9888],[-110.6689,32.9906],[-110.6615,32.9845],[-110.6609,32.9799],[-110.655,32.9725],[-110.6463,32.9741],[-110.6327,32.9678],[-110.6286,32.9635],[-110.6286,32.952],[-110.6249,32.9451],[-110.6244,32.9396],[-110.6273,32.9331],[-110.6254,32.921],[-110.6174,32.9275],[-110.6101,32.9278],[-110.6112,32.9337],[-110.6038,32.943],[-110.5978,32.9406],[-110.5738,32.9433],[-110.5626,32.9468],[-110.56,32.9508],[-110.5528,32.9517],[-110.5452,32.9585],[-110.5296,32.9598],[-110.5256,32.9621],[-110.5061,32.9608],[-110.4966,32.9645],[-110.4938,32.9695],[-110.487,32.9687],[-110.4851,32.9713],[-110.471,32.9755],[-110.4645,32.9799],[-110.4632,32.9896],[-110.4595,32.9911],[-110.4598,32.9964],[-110.4575,32.9978],[-110.4451,32.998],[-110.4431,32.988],[-110.44,32.9899],[-110.4357,32.9874],[-110.432,32.9909],[-110.4246,32.9885],[-110.4204,32.9921],[-110.4092,32.9937],[-110.3921,32.9892],[-110.3829,32.9946],[-110.3722,32.9958],[-110.3672,33.0061],[-110.3679,33.0127],[-110.3649,33.0161],[-110.3581,33.0189],[-110.3331,33.0187],[-110.318,33.0282],[-110.3172,33.0332],[-110.3256,33.0331],[-110.3384,33.0372],[-110.3593,33.0516],[-110.3601,33.0486],[-110.3754,33.0468],[-110.3799,33.0499],[-110.3802,33.054],[-110.3924,33.0624],[-110.3967,33.0602],[-110.4041,33.0666],[-110.4314,33.0722],[-110.437,33.0764],[-110.4405,33.084],[-110.4485,33.0842],[-110.4554,33.0893],[-110.4617,33.1009],[-110.4721,33.1057],[-110.4779,33.1054],[-110.4797,33.1088],[-110.4861,33.1086],[-110.4895,33.1127],[-110.4962,33.1134],[-110.5024,33.1195],[-110.4973,33.1234],[-110.4982,33.1259],[-110.51,33.1361],[-110.5105,33.1439],[-110.5086,33.1464],[-110.5167,33.1549],[-110.5166,33.1616],[-110.5132,33.1664],[-110.5306,33.1762],[-110.5349,33.182],[-110.5431,33.1869],[-110.5519,33.2002],[-110.5688,33.2064],[-110.5841,33.2089],[-110.589,33.2129],[-110.5995,33.2114],[-110.6082,33.2143],[-110.6256,33.2248],[-110.6257,33.2343],[-110.6363,33.2329],[-110.6461,33.2353],[-110.6494,33.2327],[-110.6599,33.2099],[-110.6543,33.1994],[-110.6608,33.1934],[-110.6683,33.1936],[-110.6735,33.1895],[-110.6846,33.1899],[-110.6898,33.1854],[-110.7014,33.1882],[-110.7087,33.1874],[-110.7124,33.1845],[-110.7228,33.1848],[-110.7307,33.1937],[-110.7445,33.1933],[-110.7542,33.1995],[-110.7676,33.202],[-110.768,33.2094],[-110.7812,33.216],[-110.775,33.2268],[-110.7815,33.2297],[-110.7825,33.2399],[-110.7862,33.2426],[-110.7973,33.2432],[-110.8007,33.2498],[-110.797,33.2696],[-110.8072,33.2705],[-110.8113,33.2779],[-110.8285,33.284],[-110.8354,33.293],[-110.8461,33.2912],[-110.8538,33.2853],[-110.8573,33.2853],[-110.8729,33.2936],[-110.87,33.3072],[-110.8722,33.3158],[-110.8862,33.3189],[-110.8918,33.3171],[-110.913,33.3189],[-110.9195,33.3234],[-110.9259,33.3167],[-110.9355,33.3231],[-110.9428,33.3236],[-110.9458,33.3312],[-110.9589,33.3396],[-110.9618,33.3378],[-110.9733,33.339],[-110.9747,33.3421],[-110.9802,33.3446],[-110.9787,33.3503],[-110.9804,33.3528],[-110.9946,33.3548],[-110.9995,33.3608],[-111.0067,33.3648],[-111.0421,33.3685],[-111.0521,33.365],[-111.067,33.3644],[-111.068,33.358],[-111.0829,33.3614],[-111.0882,33.3717],[-111.0904,33.3736],[-111.095,33.3727],[-111.095,33.3763],[-111.0976,33.378],[-111.0913,33.3859],[-111.0948,33.3943],[-111.101,33.3889],[-111.1081,33.3931],[-111.1169,33.3934],[-111.1203,33.396],[-111.1229,33.3945],[-111.1316,33.4033],[-111.1394,33.4061],[-111.1453,33.4075],[-111.1545,33.4047],[-111.1625,33.4114],[-111.1733,33.4121],[-111.1751,33.4188],[-111.1821,33.4224],[-111.1824,33.4259],[-111.1964,33.4317],[-111.2007,33.4381],[-111.215,33.4446],[-111.2175,33.4502],[-111.2217,33.4492],[-111.2284,33.4403],[-111.2455,33.4381],[-111.2513,33.4295],[-111.2694,33.4333],[-111.2719,33.4303],[-111.27,33.4276],[-111.2764,33.4242],[-111.277,33.4185],[-111.2878,33.4242],[-111.2968,33.4148],[-111.3056,33.4105],[-111.3127,33.4121],[-111.3174,33.4169],[-111.3222,33.4144],[-111.3426,33.4169],[-111.3477,33.4222],[-111.3487,33.4302],[-111.3468,33.4329],[-111.3569,33.4317],[-111.3584,33.4293],[-111.3564,33.4257],[-111.368,33.4257],[-111.3626,33.4173],[-111.3665,33.4139],[-111.3632,33.4098],[-111.3703,33.4086],[-111.3738,33.4049],[-111.3809,33.4068],[-111.3837,33.4035],[-111.4001,33.4104],[-111.4003,33.4154],[-111.4144,33.4275],[-111.4292,33.4306],[-111.4413,33.4399],[-111.4477,33.4403],[-111.4441,33.4522],[-111.4494,33.4656],[-111.4436,33.4686],[-111.4461,33.4726],[-111.4429,33.4759],[-111.4435,33.4797],[-111.4416,33.4799],[-111.4426,33.4839],[-111.4511,33.4858],[-111.4524,33.4883],[-111.4618,33.4849],[-111.4708,33.4887],[-111.4779,33.4885]]]}},{"type":"Feature","properties":{"huc8":"15070104","name":"Centennial Wash"},"geometry":{"type":"Polygon","coordinates":[[[-112.9656,34.2162],[-112.9786,34.2157],[-112.98,34.2135],[-112.9841,34.2145],[-112.9954,34.2106],[-113.0066,34.2124],[-113.0123,34.2084],[-113.0198,34.2097],[-113.0305,34.2074],[-113.0371,34.2007],[-113.0416,34.2021],[-113.0437,34.1867],[-113.0552,34.1803],[-113.0758,34.1119],[-113.0999,34.069],[-113.1086,34.0592],[-113.1052,34.052],[-113.1085,34.0474],[-113.1043,34.0442],[-113.113,34.0406],[-113.1156,34.0348],[-113.129,34.0372],[-113.1394,34.0336],[-113.1521,34.0386],[-113.1544,34.0436],[-113.1706,34.0521],[-113.1752,34.0595],[-113.1817,34.0607],[-113.187,34.067],[-113.195,34.07],[-113.1979,34.0745],[-113.2097,34.0797],[-113.2239,34.0781],[-113.2258,34.0801],[-113.2443,34.0806],[-113.2487,34.0788],[-113.2562,34.0793],[-113.2623,34.0831],[-113.2703,34.0805],[-113.2794,34.0841],[-113.2828,34.0813],[-113.2889,34.0825],[-113.2939,34.0794],[-113.2967,34.0818],[-113.3018,34.0755],[-113.3133,34.0769],[-113.3215,34.0731],[-113.3378,34.0741],[-113.3406,34.0713],[-113.3494,34.0695],[-113.3617,34.0598],[-113.3704,34.0621],[-113.3748,34.0584],[-113.3805,34.0585],[-113.3842,34.0533],[-113.3941,34.0501],[-113.4019,34.044],[-113.426,34.0367],[-113.4311,34.0377],[-113.4381,34.0338],[-113.4388,34.0276],[-113.4421,34.0237],[-113.4461,34.0238],[-113.4667,34.0129],[-113.4748,34.0125],[-113.4804,34.0066],[-113.495,34.0052],[-113.5008,33.9975],[-113.5061,33.9988],[-113.5142,33.9897],[-113.5239,33.9879],[-113.5308,33.9831],[-113.5296,33.9771],[-113.5327,33.969],[-113.5498,33.9653],[-113.5526,33.9613],[-113.5525,33.956],[-113.5591,33.9516],[-113.5649,33.9437],[-113.5661,33.9346],[-113.5714,33.9303],[-113.5768,33.9331],[-113.5927,33.9314],[-113.5952,33.9216],[-113.6098,33.9098],[-113.6246,33.9197],[-113.6354,33.9203],[-113.6409,33.9161],[-113.6423,33.9109],[-113.6486,33.9073],[-113.6479,33.9039],[-113.6515,33.8972],[-113.6453,33.895],[-113.644,33.8902],[-113.6502,33.879],[-113.6599,33.8732],[-113.6691,33.8727],[-113.6765,33.8689],[-113.7019,33.8725],[-113.707,33.8629],[-113.716,33.858],[-113.718,33.8526],[-113.7091,33.8358],[-113.71,33.8291],[-113.708,33.8254],[-113.7139,33.8224],[-113.7164,33.8173],[-113.7027,33.8038],[-113.6992,33.8044],[-113.6846,33.7948],[-113.6874,33.7852],[-113.6977,33.773],[-113.6731,33.7715],[-113.6505,33.7587],[-113.6473,33.7392],[-113.6513,33.7344],[-113.6601,33.7319],[-113.6606,33.729],[-113.6563,33.7283],[-113.6572,33.7256],[-113.6431,33.718],[-113.6393,33.7115],[-113.6226,33.7052],[-113.6136,33.6961],[-113.6028,33.71],[-113.5899,33.708],[-113.5873,33.7056],[-113.5831,33.7072],[-113.5814,33.7031],[-113.5732,33.6979],[-113.5722,33.6932],[-113.5636,33.6915],[-113.5556,33.6788],[-113.5413,33.6781],[-113.5308,33.6717],[-113.5354,33.6684],[-113.5302,33.664],[-113.528,33.6565],[-113.5119,33.6689],[-113.495,33.6683],[-113.4811,33.6583],[-113.4709,33.6362],[-113.4688,33.6215],[-113.4715,33.6093],[-113.478,33.6071],[-113.4828,33.6003],[-113.4848,33.5921],[-113.4838,33.5848],[-113.4784,33.5679],[-113.469,33.5528],[-113.4649,33.5332],[-113.458,33.5309],[-113.4584,33.5196],[-113.449,33.5126],[-113.4492,33.5084],[-113.4519,33.5065],[-113.4487,33.5013],[-113.4412,33.498],[-113.4364,33.4987],[-113.4289,33.4955],[-113.4244,33.4969],[-113.4131,33.4911],[-113.406,33.4845],[-113.4048,33.4788],[-113.4008,33.4753],[-113.3914,33.474],[-113.3923,33.4683],[-113.3818,33.4555],[-113.3709,33.4532],[-113.3571,33.4402],[-113.3517,33.4387],[-113.3457,33.4329],[-113.345,33.4289],[-113.3383,33.4275],[-113.3358,33.4235],[-113.332,33.4255],[-113.3245,33.4225],[-113.3167,33.4123],[-113.3106,33.4106],[-113.3053,33.4058],[-113.3008,33.3987],[-113.3045,33.3958],[-113.3034,33.3915],[-113.2942,33.384],[-113.3001,33.3812],[-113.3008,33.3742],[-113.2853,33.3638],[-113.2886,33.3592],[-113.2865,33.3554],[-113.2968,33.3504],[-113.2905,33.3459],[-113.2896,33.3406],[-113.2796,33.3344],[-113.2804,33.3219],[-113.2725,33.3165],[-113.28,33.3082],[-113.2779,33.3068],[-113.2793,33.3014],[-113.2741,33.2945],[-113.2631,33.2901],[-113.2602,33.281],[-113.252,33.278],[-113.2404,33.2683],[-113.2333,33.2671],[-113.2232,33.2609],[-113.2207,33.2619],[-113.2213,33.2661],[-113.2182,33.2715],[-113.2043,33.2813],[-113.1999,33.2808],[-113.197,33.2904],[-113.1892,33.2955],[-113.1529,33.3],[-113.1497,33.2956],[-113.1356,33.2893],[-113.1218,33.2866],[-113.1152,33.2734],[-113.1002,33.2732],[-113.0932,33.2696],[-113.09,33.2722],[-113.0768,33.2642],[-113.0725,33.2675],[-113.0652,33.2666],[-113.0459,33.2527],[-113.0288,33.2563],[-113.0151,33.2527],[-113.0107,33.2477],[-112.999,33.2434],[-112.9988,33.2381],[-112.9841,33.237],[-112.9756,33.2273],[-112.97,33.2259],[-112.9696,33.2223],[-112.9656,33.2187],[-112.9668,33.215],[-112.9598,33.2139],[-112.9557,33.2082],[-112.9488,33.2099],[-112.9413,33.2041],[-112.9328,33.2052],[-112.9236,33.201],[-112.9156,33.1934],[-112.8918,33.1843],[-112.8897,33.1808],[-112.8926,33.1769],[-112.8847,33.1679],[-112.8816,33.1702],[-112.8851,33.1788],[-112.8845,33.1892],[-112.8771,33.2043],[-112.8838,33.2119],[-112.8853,33.2174],[-112.8797,33.218],[-112.8689,33.2132],[-112.865,33.2168],[-112.8608,33.2163],[-112.8496,33.2109],[-112.8361,33.2195],[-112.83,33.2329],[-112.8188,33.2487],[-112.8122,33.2511],[-112.8117,33.2554],[-112.8041,33.2612],[-112.7996,33.2633],[-112.7846,33.2636],[-112.7738,33.2608],[-112.7715,33.2654],[-112.776,33.2788],[-112.7806,33.2821],[-112.7811,33.2899],[-112.7959,33.2905],[-112.7961,33.2944],[-112.7905,33.3076],[-112.7759,33.3178],[-112.767,33.3203],[-112.77,33.3232],[-112.781,33.3263],[-112.7873,33.3315],[-112.7911,33.3386],[-112.8028,33.3423],[-112.8158,33.3582],[-112.821,33.3721],[-112.8278,33.3774],[-112.832,33.3854],[-112.8297,33.3897],[-112.8376,33.4],[-112.8372,33.4141],[-112.843,33.4407],[-112.8428,33.476],[-112.8227,33.5496],[-112.818,33.5802],[-112.8111,33.5868],[-112.8157,33.5927],[-112.8076,33.5966],[-112.8127,33.6048],[-112.8171,33.6066],[-112.8314,33.6234],[-112.8475,33.663],[-112.8622,33.675],[-112.9009,33.6945],[-112.9398,33.6997],[-112.9585,33.7081],[-112.9617,33.7116],[-112.9746,33.7143],[-112.9795,33.7191],[-112.9864,33.7185],[-112.9934,33.7242],[-112.9977,33.7205],[-113.0023,33.7226],[-113.0069,33.7201],[-113.0061,33.7171],[-113.0128,33.7175],[-113.0208,33.7062],[-113.0283,33.7079],[-113.0372,33.7045],[-113.0452,33.7051],[-113.0534,33.6923],[-113.0517,33.6784],[-113.0574,33.6826],[-113.059,33.6885],[-113.0647,33.6917],[-113.0705,33.6913],[-113.0756,33.6843],[-113.0818,33.6845],[-113.0849,33.6814],[-113.0901,33.684],[-113.097,33.6944],[-113.1091,33.7013],[-113.1107,33.7054],[-113.1191,33.7109],[-113.1163,33.7137],[-113.117,33.7169],[-113.1104,33.7192],[-113.1094,33.7217],[-113.1167,33.7346],[-113.1122,33.7417],[-113.1155,33.7438],[-113.1097,33.7537],[-113.1264,33.7674],[-113.1224,33.7757],[-113.1225,33.7962],[-113.1262,33.8135],[-113.135,33.8247],[-113.1363,33.8359],[-113.1709,33.8647],[-113.1838,33.8705],[-113.1551,33.8752],[-113.1398,33.8735],[-113.1257,33.8687],[-113.1108,33.878],[-113.1023,33.8787],[-113.0753,33.8725],[-113.0706,33.8753],[-113.0546,33.8762],[-113.0452,33.8734],[-113.039,33.8665],[-113.0318,33.8657],[-113.029,33.8621],[-113.0196,33.8666],[-113.0101,33.8628],[-113.0058,33.8675],[-112.9983,33.8665],[-112.9992,33.8695],[-112.9963,33.8727],[-112.9903,33.8736],[-112.9832,33.8709],[-112.9827,33.8748],[-112.975,33.8749],[-112.9764,33.879],[-112.9709,33.8804],[-112.9679,33.8861],[-112.961,33.8912],[-112.952,33.8916],[-112.9463,33.8959],[-112.9359,33.8906],[-112.934,33.8941],[-112.9288,33.895],[-112.9203,33.8904],[-112.919,33.8936],[-112.9121,33.8923],[-112.9096,33.8969],[-112.9034,33.8952],[-112.8979,33.8976],[-112.8924,33.8944],[-112.886,33.9008],[-112.8806,33.8995],[-112.8799,33.902],[-112.8688,33.9066],[-112.8736,33.9145],[-112.8814,33.9192],[-112.8823,33.923],[-112.8791,33.928],[-112.8814,33.9326],[-112.8938,33.9425],[-112.8961,33.9416],[-112.8987,33.9475],[-112.8933,33.9534],[-112.8964,33.9562],[-112.8984,33.9714],[-112.8963,33.9849],[-112.9076,34.0026],[-112.9048,34.0261],[-112.9095,34.0437],[-112.9217,34.0612],[-112.9287,34.0633],[-112.9451,34.0788],[-112.955,34.0789],[-112.9578,34.0738],[-112.9651,34.0755],[-112.9681,34.0824],[-112.9764,34.0864],[-112.9806,34.0997],[-112.9864,34.1027],[-112.9928,34.1103],[-112.9933,34.113],[-112.9715,34.1377],[-112.9655,34.1485],[-112.9633,34.1703],[-112.9521,34.2078],[-112.953,34.2124],[-112.9656,34.2162]]]}},{"type":"Feature","properties":{"huc8":"15070201","name":"Lower Gila"},"geometry":{"type":"Polygon","coordinates":[[[-113.41,33.4787],[-113.4125,33.4806],[-113.4173,33.4776],[-113.417,33.4738],[-113.4231,33.4745],[-113.4486,33.467],[-113.4477,33.4606],[-113.4569,33.4499],[-113.4678,33.4469],[-113.466,33.4398],[-113.4772,33.434],[-113.4914,33.4203],[-113.5051,33.4138],[-113.5114,33.4136],[-113.5163,33.4165],[-113.5247,33.4154],[-113.5402,33.403],[-113.5385,33.3984],[-113.5413,33.3948],[-113.5466,33.3927],[-113.5513,33.3964],[-113.5575,33.3941],[-113.5545,33.3855],[-113.5624,33.3776],[-113.5729,33.3748],[-113.5815,33.3841],[-113.586,33.3775],[-113.6146,33.3749],[-113.6158,33.3718],[-113.6137,33.3686],[-113.6224,33.3614],[-113.6205,33.3538],[-113.6242,33.3527],[-113.6477,33.3578],[-113.6527,33.3654],[-113.6594,33.3669],[-113.663,33.372],[-113.6718,33.372],[-113.6744,33.3669],[-113.6812,33.3691],[-113.6925,33.3774],[-113.6903,33.3818],[-113.6921,33.386],[-113.6982,33.3854],[-113.7015,33.3889],[-113.713,33.3871],[-113.7124,33.3834],[-113.7164,33.3818],[-113.7139,33.3771],[-113.7172,33.3757],[-113.726,33.3772],[-113.7317,33.383],[-113.7444,33.3882],[-113.7489,33.3853],[-113.7532,33.3778],[-113.7524,33.375],[-113.7572,33.3734],[-113.7597,33.3739],[-113.7605,33.3798],[-113.7685,33.3805],[-113.7727,33.3777],[-113.7798,33.3789],[-113.7919,33.3854],[-113.8125,33.3912],[-113.8244,33.399],[-113.8348,33.4002],[-113.8448,33.394],[-113.8496,33.3959],[-113.8514,33.4021],[-113.8557,33.406],[-113.8605,33.401],[-113.8715,33.398],[-113.874,33.4008],[-113.877,33.3966],[-113.8819,33.3963],[-113.8889,33.4003],[-113.8861,33.4038],[-113.8908,33.4075],[-113.9005,33.411],[-113.907,33.4098],[-113.9151,33.4142],[-113.9171,33.4137],[-113.916,33.4077],[-113.9208,33.4082],[-113.9269,33.4034],[-113.9379,33.4078],[-113.9477,33.4081],[-113.956,33.4134],[-113.9679,33.4162],[-113.9766,33.417],[-113.9872,33.4128],[-113.998,33.4146],[-113.9994,33.4114],[-114.0024,33.4122],[-114.0059,33.4088],[-114.0086,33.4003],[-114.0033,33.3906],[-113.9999,33.3898],[-113.9999,33.3849],[-114.0127,33.3819],[-114.0178,33.3736],[-114.0248,33.3724],[-114.0266,33.3693],[-114.0344,33.3701],[-114.0301,33.3646],[-114.0325,33.3608],[-114.0299,33.3545],[-114.047,33.3557],[-114.052,33.349],[-114.0548,33.3504],[-114.0659,33.3481],[-114.0671,33.3443],[-114.0856,33.3412],[-114.0984,33.3279],[-114.1161,33.3199],[-114.1177,33.3152],[-114.1262,33.3154],[-114.1282,33.3122],[-114.1345,33.3118],[-114.1382,33.3145],[-114.1464,33.3102],[-114.144,33.3044],[-114.1464,33.2909],[-114.1676,33.291],[-114.1712,33.2803],[-114.1804,33.2827],[-114.1829,33.2803],[-114.1874,33.2813],[-114.198,33.2771],[-114.197,33.2697],[-114.2084,33.2587],[-114.2042,33.2555],[-114.2068,33.2513],[-114.2,33.2466],[-114.202,33.2404],[-114.2105,33.2342],[-114.2206,33.2338],[-114.2205,33.2319],[-114.228,33.2281],[-114.2262,33.2206],[-114.232,33.2178],[-114.2284,33.2098],[-114.2235,33.2056],[-114.2245,33.1987],[-114.2228,33.1964],[-114.2263,33.1939],[-114.2254,33.1864],[-114.2238,33.1833],[-114.2171,33.1812],[-114.2171,33.178],[-114.211,33.1757],[-114.2128,33.1716],[-114.2062,33.1652],[-114.2062,33.159],[-114.2,33.156],[-114.1963,33.1474],[-114.1912,33.1433],[-114.186,33.1442],[-114.1813,33.1392],[-114.1831,33.1373],[-114.1793,33.1308],[-114.1753,33.1292],[-114.1795,33.1205],[-114.1719,33.1219],[-114.1703,33.1253],[-114.1632,33.1233],[-114.1639,33.1213],[-114.1589,33.117],[-114.1611,33.1152],[-114.161,33.1092],[-114.1532,33.1053],[-114.1533,33.1029],[-114.1405,33.0898],[-114.1413,33.0854],[-114.15,33.0826],[-114.1469,33.072],[-114.1229,33.0684],[-114.1213,33.0571],[-114.1276,33.0545],[-114.1321,33.0582],[-114.1357,33.0576],[-114.1369,33.0503],[-114.1426,33.0479],[-114.1507,33.0488],[-114.1606,33.0568],[-114.1663,33.0575],[-114.1863,33.0476],[-114.2219,33.0392],[-114.2387,33.0321],[-114.2751,33.0281],[-114.2938,33.0198],[-114.2997,33.0205],[-114.3081,33.0146],[-114.3098,33.0104],[-114.3188,33.0096],[-114.3197,33.0076],[-114.3146,33.0051],[-114.3179,33],[-114.3147,32.9896],[-114.3203,32.9885],[-114.3163,32.9859],[-114.3197,32.9747],[-114.3126,32.9565],[-114.316,32.9545],[-114.3163,32.9507],[-114.3133,32.948],[-114.3171,32.9404],[-114.3175,32.9276],[-114.3365,32.9156],[-114.3518,32.9133],[-114.3758,32.8988],[-114.3754,32.886],[-114.3791,32.8656],[-114.3891,32.8565],[-114.3968,32.8369],[-114.4046,32.8286],[-114.4102,32.8137],[-114.417,32.8044],[-114.4114,32.8004],[-114.4049,32.8011],[-114.4024,32.7902],[-114.4073,32.7876],[-114.4136,32.7878],[-114.415,32.7899],[-114.4249,32.7891],[-114.4317,32.793],[-114.433,32.7903],[-114.4439,32.7907],[-114.4427,32.7876],[-114.4446,32.7856],[-114.4413,32.7788],[-114.4428,32.7763],[-114.4497,32.7807],[-114.452,32.7881],[-114.4661,32.7878],[-114.4758,32.7926],[-114.4747,32.7993],[-114.4818,32.8074],[-114.494,32.8015],[-114.5007,32.7831],[-114.496,32.7646],[-114.4972,32.759],[-114.492,32.749],[-114.4957,32.743],[-114.5162,32.7422],[-114.5304,32.7309],[-114.5311,32.7218],[-114.5472,32.7168],[-114.5583,32.7205],[-114.5599,32.7176],[-114.5567,32.7169],[-114.553,32.7107],[-114.5561,32.7096],[-114.556,32.687],[-114.5647,32.6801],[-114.5342,32.6741],[-114.472,32.683],[-114.467,32.6818],[-114.4611,32.6768],[-114.4408,32.6697],[-114.4309,32.6619],[-114.4295,32.6489],[-114.4194,32.6443],[-114.4074,32.632],[-114.4008,32.6196],[-114.4017,32.6058],[-114.3964,32.6003],[-114.3907,32.5998],[-114.3915,32.5955],[-114.3806,32.5915],[-114.377,32.5877],[-114.357,32.5838],[-114.3521,32.5864],[-114.345,32.5854],[-114.3411,32.5792],[-114.33,32.578],[-114.323,32.5728],[-114.312,32.5748],[-114.3056,32.5728],[-114.3066,32.5631],[-114.297,32.5521],[-114.2991,32.5497],[-114.2982,32.5459],[-114.289,32.5411],[-114.2878,32.5342],[-114.2816,32.5345],[-114.275,32.5296],[-114.2684,32.5309],[-114.2654,32.5276],[-114.2592,32.5295],[-114.256,32.5273],[-114.2491,32.5279],[-114.2466,32.5348],[-114.2412,32.5327],[-114.2364,32.5345],[-114.2251,32.5307],[-114.2272,32.519],[-114.2246,32.5146],[-114.2217,32.5146],[-114.221,32.5107],[-114.2153,32.509],[-114.2213,32.5012],[-114.2191,32.4934],[-114.2105,32.4912],[-114.2114,32.4857],[-114.2088,32.4813],[-114.2018,32.4806],[-114.199,32.4763],[-114.1996,32.4697],[-114.1954,32.4688],[-114.1857,32.4591],[-114.1872,32.4556],[-114.1842,32.4505],[-114.1709,32.4457],[-114.1743,32.4372],[-114.1687,32.4283],[-114.1633,32.4251],[-114.1529,32.424],[-114.1442,32.4171],[-114.1426,32.4108],[-114.1506,32.408],[-114.1425,32.4021],[-114.1428,32.3976],[-114.1392,32.3951],[-114.1325,32.3825],[-114.1183,32.38],[-114.1203,32.3754],[-114.1179,32.3717],[-114.1191,32.3633],[-114.117,32.3602],[-114.1117,32.3578],[-114.1068,32.3599],[-114.0924,32.3586],[-114.0921,32.3549],[-114.0845,32.3498],[-114.0887,32.3469],[-114.0867,32.3377],[-114.0797,32.3366],[-114.0774,32.3348],[-114.0804,32.3307],[-114.069,32.3263],[-114.059,32.3186],[-114.0563,32.313],[-114.0606,32.3071],[-114.0595,32.3016],[-114.0637,32.3003],[-114.0644,32.2971],[-114.0621,32.2858],[-114.0531,32.2815],[-114.0451,32.2786],[-114.0324,32.2882],[-114.005,32.2873],[-113.9795,32.2814],[-113.9365,32.2849],[-113.9009,32.2937],[-113.8687,32.3062],[-113.8605,32.3028],[-113.8442,32.2901],[-113.8314,32.2871],[-113.8275,32.2916],[-113.8222,32.2926],[-113.8205,32.2869],[-113.8114,32.2846],[-113.8123,32.2756],[-113.8074,32.2676],[-113.8029,32.2661],[-113.8019,32.2607],[-113.804,32.2596],[-113.8002,32.2571],[-113.8015,32.2537],[-113.799,32.2524],[-113.7895,32.2517],[-113.7783,32.2563],[-113.7728,32.2549],[-113.7656,32.2582],[-113.7571,32.253],[-113.7519,32.2585],[-113.7482,32.2508],[-113.7349,32.2401],[-113.717,32.2361],[-113.7147,32.2311],[-113.7068,32.2341],[-113.7043,32.2308],[-113.7021,32.2326],[-113.6974,32.2269],[-113.6895,32.2273],[-113.6817,32.2308],[-113.6789,32.2332],[-113.6795,32.2357],[-113.6748,32.2372],[-113.6746,32.2453],[-113.6707,32.2508],[-113.6561,32.2575],[-113.6253,32.2774],[-113.6132,32.2884],[-113.5703,32.3128],[-113.5659,32.3105],[-113.5667,32.3057],[-113.5622,32.3021],[-113.5605,32.2952],[-113.5521,32.2913],[-113.555,32.2831],[-113.5468,32.2718],[-113.5355,32.2727],[-113.5307,32.276],[-113.5262,32.2855],[-113.5171,32.292],[-113.5018,32.3099],[-113.4959,32.3215],[-113.4939,32.3341],[-113.4722,32.3823],[-113.4673,32.387],[-113.4616,32.3878],[-113.4513,32.3988],[-113.4565,32.4043],[-113.4606,32.4037],[-113.4634,32.4065],[-113.4584,32.4141],[-113.4639,32.4161],[-113.4689,32.4216],[-113.4702,32.4258],[-113.4676,32.4296],[-113.4724,32.4363],[-113.4934,32.4498],[-113.4999,32.4595],[-113.5014,32.4728],[-113.4989,32.4794],[-113.5043,32.4833],[-113.5247,32.4883],[-113.5305,32.495],[-113.5259,32.504],[-113.5286,32.5115],[-113.5371,32.5155],[-113.5422,32.5128],[-113.5569,32.5115],[-113.5766,32.5229],[-113.5915,32.539],[-113.5943,32.5467],[-113.5895,32.5511],[-113.6041,32.5627],[-113.6175,32.5653],[-113.6225,32.5737],[-113.633,32.5785],[-113.6353,32.5881],[-113.6472,32.5913],[-113.6637,32.6127],[-113.672,32.6181],[-113.6722,32.6227],[-113.6796,32.6332],[-113.68,32.6392],[-113.6852,32.6436],[-113.69,32.6539],[-113.697,32.6581],[-113.6982,32.6651],[-113.7104,32.6757],[-113.7123,32.6818],[-113.7171,32.6837],[-113.7187,32.6905],[-113.7233,32.6907],[-113.7318,32.6984],[-113.745,32.7235],[-113.7553,32.7328],[-113.7538,32.7465],[-113.763,32.7524],[-113.754,32.7635],[-113.7516,32.7729],[-113.7364,32.7744],[-113.7423,32.7853],[-113.7354,32.7803],[-113.7265,32.7801],[-113.7159,32.7868],[-113.7138,32.7936],[-113.7081,32.7951],[-113.6958,32.7936],[-113.6856,32.7882],[-113.6726,32.7901],[-113.6686,32.7924],[-113.6702,32.7945],[-113.6511,32.8034],[-113.6451,32.8113],[-113.6256,32.821],[-113.6107,32.821],[-113.5969,32.8258],[-113.5859,32.8202],[-113.5741,32.822],[-113.5679,32.8263],[-113.5551,32.8248],[-113.5368,32.8404],[-113.5229,32.8408],[-113.5156,32.8442],[-113.4994,32.8355],[-113.4953,32.8272],[-113.4858,32.8188],[-113.4816,32.81],[-113.4818,32.7951],[-113.4739,32.7954],[-113.4721,32.7984],[-113.4724,32.8193],[-113.478,32.8187],[-113.4849,32.8262],[-113.4835,32.8412],[-113.4757,32.8476],[-113.4772,32.859],[-113.4748,32.864],[-113.48,32.874],[-113.4793,32.8768],[-113.4672,32.8669],[-113.4639,32.8681],[-113.4346,32.8639],[-113.4133,32.8431],[-113.3847,32.8374],[-113.3787,32.833],[-113.3133,32.8414],[-113.3095,32.8352],[-113.3086,32.8278],[-113.304,32.8247],[-113.2993,32.8267],[-113.2931,32.8258],[-113.2887,32.8226],[-113.2835,32.8229],[-113.2793,32.819],[-113.2746,32.8209],[-113.2627,32.816],[-113.2508,32.8168],[-113.2333,32.8115],[-113.2273,32.813],[-113.2243,32.8102],[-113.2069,32.8116],[-113.2021,32.8165],[-113.2064,32.8203],[-113.2038,32.8329],[-113.1948,32.8374],[-113.1958,32.8422],[-113.1903,32.8418],[-113.1831,32.8483],[-113.173,32.8515],[-113.1684,32.8625],[-113.1512,32.8671],[-113.149,32.879],[-113.1435,32.8806],[-113.1424,32.8832],[-113.1318,32.873],[-113.0685,32.8898],[-113.0646,32.8936],[-113.0644,32.8998],[-113.0563,32.9083],[-113.04,32.9169],[-113.0338,32.914],[-113.03,32.9205],[-113.0314,32.9234],[-113.0282,32.9271],[-113.0278,32.9335],[-113.0361,32.9438],[-113.0294,32.9457],[-113.0272,32.9525],[-113.0288,32.9607],[-113.0252,32.9712],[-113.0186,32.975],[-113.0126,32.9732],[-113.0089,32.9793],[-113.0035,32.9801],[-113.0039,32.9841],[-113.0009,32.9851],[-113.0031,32.9966],[-113.0106,33.0056],[-113.0056,33.0067],[-113.0082,33.0114],[-113.0067,33.0277],[-113.0082,33.0347],[-113.0174,33.0371],[-113.0238,33.0486],[-113.0209,33.0586],[-113.0219,33.0679],[-113.0075,33.0796],[-113.0012,33.0758],[-112.9949,33.0785],[-112.9941,33.0856],[-112.9872,33.0871],[-112.9914,33.0994],[-112.9886,33.1147],[-112.9819,33.1166],[-112.9641,33.1138],[-112.9567,33.1179],[-112.9596,33.1276],[-112.9643,33.1294],[-112.9593,33.1345],[-112.9604,33.1419],[-112.955,33.139],[-112.9475,33.1473],[-112.9062,33.1482],[-112.9082,33.1593],[-112.9062,33.165],[-112.8886,33.165],[-112.8848,33.1679],[-112.8926,33.1769],[-112.8897,33.1808],[-112.8918,33.1843],[-112.9156,33.1934],[-112.9236,33.201],[-112.9328,33.2052],[-112.9413,33.2041],[-112.9488,33.2099],[-112.9557,33.2082],[-112.9598,33.2139],[-112.9668,33.215],[-112.9656,33.2187],[-112.9696,33.2223],[-112.97,33.2259],[-112.9756,33.2273],[-112.9841,33.237],[-112.9988,33.2381],[-112.999,33.2434],[-113.0107,33.2477],[-113.0151,33.2527],[-113.0288,33.2563],[-113.0459,33.2527],[-113.0652,33.2666],[-113.0725,33.2675],[-113.0768,33.2642],[-113.09,33.2722],[-113.0932,33.2696],[-113.1002,33.2732],[-113.1152,33.2734],[-113.1218,33.2866],[-113.1356,33.2893],[-113.1497,33.2956],[-113.1529,33.3],[-113.1892,33.2955],[-113.197,33.2904],[-113.1999,33.2808],[-113.2043,33.2813],[-113.2182,33.2715],[-113.2211,33.2616],[-113.2262,33.2615],[-113.2322,33.2667],[-113.2404,33.2683],[-113.252,33.278],[-113.2605,33.2812],[-113.2631,33.2901],[-113.27,33.2921],[-113.278,33.2981],[-113.2799,33.3044],[-113.278,33.3069],[-113.28,33.3081],[-113.2725,33.3165],[-113.2804,33.3219],[-113.2796,33.3344],[-113.2896,33.3406],[-113.2905,33.3459],[-113.2968,33.3504],[-113.2865,33.3554],[-113.2886,33.3592],[-113.2853,33.3638],[-113.3008,33.3742],[-113.3001,33.3812],[-113.2942,33.384],[-113.3034,33.3915],[-113.3045,33.3958],[-113.3008,33.3987],[-113.3053,33.4058],[-113.3106,33.4106],[-113.3167,33.4123],[-113.3245,33.4225],[-113.332,33.4255],[-113.3358,33.4235],[-113.3383,33.4275],[-113.345,33.4289],[-113.3457,33.4329],[-113.3517,33.4387],[-113.3571,33.4402],[-113.3709,33.4532],[-113.3818,33.4555],[-113.3923,33.4683],[-113.3915,33.474],[-113.4008,33.4752],[-113.4048,33.4789],[-113.41,33.4787]]]}},{"type":"Feature","properties":{"huc8":"15070101","name":"Lower Gila-Painted Rock Reservoir"},"geometry":{"type":"Polygon","coordinates":[[[-112.7922,33.5694],[-112.7895,33.5774],[-112.8007,33.5849],[-112.8055,33.5912],[-112.8054,33.5949],[-112.8076,33.5966],[-112.8157,33.5927],[-112.8111,33.5868],[-112.8178,33.5807],[-112.8208,33.57],[-112.8227,33.5496],[-112.8428,33.476],[-112.8439,33.45],[-112.8372,33.4141],[-112.8378,33.4005],[-112.8297,33.3897],[-112.832,33.3854],[-112.8278,33.3774],[-112.821,33.3721],[-112.8158,33.3582],[-112.8032,33.3427],[-112.7911,33.3386],[-112.7873,33.3315],[-112.781,33.3263],[-112.77,33.3232],[-112.767,33.3203],[-112.7759,33.3178],[-112.7905,33.3076],[-112.7961,33.2944],[-112.7959,33.2905],[-112.7811,33.2899],[-112.7806,33.2821],[-112.776,33.2788],[-112.7718,33.269],[-112.7726,33.2615],[-112.7887,33.2636],[-112.8041,33.2612],[-112.8117,33.2554],[-112.8122,33.2511],[-112.8188,33.2487],[-112.83,33.2329],[-112.8361,33.2195],[-112.8496,33.2109],[-112.8608,33.2163],[-112.865,33.2168],[-112.8689,33.2132],[-112.8797,33.218],[-112.8852,33.2174],[-112.8838,33.2119],[-112.8771,33.2043],[-112.8845,33.1892],[-112.8851,33.1788],[-112.882,33.1697],[-112.8885,33.165],[-112.9062,33.165],[-112.9082,33.1593],[-112.9062,33.1482],[-112.9475,33.1473],[-112.955,33.139],[-112.9604,33.1419],[-112.9593,33.1345],[-112.9643,33.1294],[-112.9596,33.1275],[-112.9566,33.1181],[-112.9598,33.1154],[-112.9689,33.1137],[-112.9835,33.1166],[-112.9887,33.1146],[-112.9914,33.0994],[-112.9872,33.0871],[-112.9941,33.0856],[-112.9949,33.0785],[-113.0012,33.0758],[-113.0075,33.0796],[-113.0219,33.0679],[-113.0209,33.0586],[-113.0238,33.0486],[-113.0174,33.0371],[-113.0082,33.0347],[-113.0067,33.0277],[-113.0082,33.0114],[-113.0056,33.0067],[-113.0106,33.0056],[-113.0031,32.9966],[-113.0009,32.9851],[-113.0039,32.9841],[-113.0035,32.9801],[-113.0089,32.9793],[-113.0126,32.9732],[-113.0186,32.975],[-113.0252,32.9712],[-113.0288,32.9607],[-113.0272,32.9525],[-113.0294,32.9457],[-113.0361,32.9438],[-113.0278,32.9335],[-113.0282,32.9271],[-113.0314,32.9234],[-113.03,32.9205],[-113.0342,32.9156],[-113.0306,32.9142],[-113.0292,32.9027],[-113.0235,32.8922],[-113.0013,32.8993],[-112.9845,32.8974],[-112.9695,32.8801],[-112.9355,32.8779],[-112.9267,32.8717],[-112.9243,32.8653],[-112.9012,32.8466],[-112.86,32.8279],[-112.8555,32.8215],[-112.8537,32.8115],[-112.8476,32.8079],[-112.8484,32.8056],[-112.8445,32.8019],[-112.8481,32.7987],[-112.8478,32.796],[-112.8359,32.7867],[-112.8259,32.7836],[-112.8272,32.7799],[-112.8211,32.7667],[-112.8092,32.7575],[-112.8054,32.7487],[-112.7997,32.7444],[-112.7969,32.7385],[-112.7852,32.7361],[-112.774,32.7427],[-112.7575,32.7345],[-112.7512,32.7265],[-112.7439,32.722],[-112.7396,32.7165],[-112.7429,32.7059],[-112.7375,32.684],[-112.7382,32.677],[-112.7404,32.6721],[-112.7479,32.6724],[-112.7501,32.6675],[-112.7392,32.6595],[-112.7323,32.6603],[-112.7292,32.6537],[-112.7177,32.651],[-112.7128,32.6455],[-112.7043,32.6416],[-112.6899,32.62],[-112.6927,32.6133],[-112.6817,32.6039],[-112.6853,32.5991],[-112.6896,32.6034],[-112.6908,32.6022],[-112.6892,32.5938],[-112.6915,32.5917],[-112.6859,32.5847],[-112.6775,32.5818],[-112.6751,32.5838],[-112.6652,32.583],[-112.6565,32.576],[-112.6463,32.5736],[-112.6411,32.5658],[-112.634,32.5658],[-112.6274,32.5558],[-112.6199,32.5597],[-112.6077,32.5578],[-112.6008,32.5506],[-112.6074,32.5442],[-112.6048,32.5432],[-112.6066,32.5403],[-112.6025,32.5409],[-112.5992,32.5357],[-112.5859,32.5331],[-112.5866,32.5289],[-112.5761,32.5304],[-112.571,32.5389],[-112.5648,32.5431],[-112.5546,32.5433],[-112.5533,32.5459],[-112.5568,32.5509],[-112.5526,32.5535],[-112.5339,32.542],[-112.5042,32.5346],[-112.4956,32.5362],[-112.4937,32.5295],[-112.4775,32.5259],[-112.4762,32.5203],[-112.4705,32.5167],[-112.4651,32.5218],[-112.4583,32.521],[-112.4575,32.5365],[-112.4522,32.5417],[-112.4483,32.5425],[-112.4452,32.537],[-112.439,32.5336],[-112.4324,32.5377],[-112.4339,32.541],[-112.4314,32.5434],[-112.4325,32.5655],[-112.4292,32.573],[-112.4309,32.5796],[-112.4116,32.5817],[-112.4066,32.5778],[-112.3983,32.583],[-112.3962,32.587],[-112.4001,32.6022],[-112.3868,32.615],[-112.3889,32.6184],[-112.3793,32.627],[-112.3786,32.6302],[-112.3839,32.6381],[-112.3798,32.642],[-112.3804,32.6454],[-112.3899,32.6524],[-112.388,32.6568],[-112.3902,32.6607],[-112.3853,32.6658],[-112.3957,32.6738],[-112.3873,32.6808],[-112.3822,32.6783],[-112.3828,32.6845],[-112.389,32.6879],[-112.3903,32.6933],[-112.403,32.7045],[-112.3969,32.7122],[-112.4008,32.7167],[-112.3979,32.7299],[-112.3998,32.737],[-112.3952,32.7428],[-112.3955,32.7569],[-112.3826,32.7558],[-112.3773,32.7636],[-112.374,32.7648],[-112.3736,32.7692],[-112.3566,32.7777],[-112.3458,32.7892],[-112.339,32.791],[-112.3331,32.8084],[-112.3282,32.8154],[-112.3267,32.8198],[-112.3303,32.8292],[-112.3313,32.8433],[-112.3358,32.8484],[-112.3225,32.8616],[-112.3254,32.8669],[-112.3346,32.8718],[-112.3378,32.88],[-112.3406,32.8788],[-112.3416,32.8805],[-112.3322,32.8865],[-112.3271,32.894],[-112.3304,32.9025],[-112.3168,32.8972],[-112.3039,32.8962],[-112.2841,32.899],[-112.2759,32.8975],[-112.2599,32.9008],[-112.2382,32.9359],[-112.2259,32.9503],[-112.2065,32.966],[-112.2032,32.9751],[-112.1997,32.9769],[-112.1998,32.979],[-112.2159,32.9887],[-112.2148,33.0041],[-112.2194,33.0328],[-112.2198,33.0542],[-112.2107,33.0691],[-112.2115,33.074],[-112.2071,33.0794],[-112.2034,33.0787],[-112.2016,33.081],[-112.2055,33.0851],[-112.207,33.0928],[-112.2025,33.1099],[-112.213,33.1149],[-112.2233,33.1257],[-112.1997,33.1365],[-112.199,33.1402],[-112.1938,33.145],[-112.1862,33.1459],[-112.185,33.1517],[-112.1768,33.1566],[-112.1774,33.1608],[-112.1817,33.1645],[-112.1819,33.1703],[-112.1864,33.1711],[-112.1896,33.178],[-112.2046,33.1894],[-112.2154,33.2179],[-112.2161,33.2295],[-112.2301,33.2304],[-112.2379,33.2333],[-112.242,33.2452],[-112.2537,33.2534],[-112.2763,33.2563],[-112.2835,33.2708],[-112.2896,33.2705],[-112.3026,33.2772],[-112.3042,33.2837],[-112.3109,33.2845],[-112.3119,33.2875],[-112.3228,33.2924],[-112.321,33.306],[-112.3271,33.3106],[-112.3326,33.3106],[-112.3367,33.3201],[-112.3418,33.324],[-112.3395,33.3286],[-112.3302,33.3325],[-112.3246,33.3396],[-112.3225,33.3508],[-112.3117,33.3625],[-112.3011,33.3917],[-112.3551,33.3919],[-112.3593,33.3884],[-112.3855,33.3973],[-112.4265,33.401],[-112.4272,33.4136],[-112.435,33.4222],[-112.4416,33.4507],[-112.4596,33.4698],[-112.4617,33.4775],[-112.4696,33.4865],[-112.4707,33.5671],[-112.4841,33.5792],[-112.5062,33.5902],[-112.5109,33.5903],[-112.5248,33.5877],[-112.5278,33.5891],[-112.532,33.5837],[-112.5492,33.5868],[-112.5531,33.5817],[-112.5634,33.5766],[-112.571,33.5758],[-112.5745,33.5779],[-112.5787,33.5759],[-112.5769,33.572],[-112.5701,33.5693],[-112.5692,33.555],[-112.5592,33.545],[-112.5567,33.5388],[-112.5562,33.5336],[-112.5613,33.5287],[-112.5609,33.5201],[-112.5637,33.5141],[-112.5718,33.5075],[-112.5692,33.5014],[-112.5512,33.4863],[-112.5451,33.4886],[-112.529,33.4783],[-112.5231,33.4774],[-112.5206,33.4727],[-112.5256,33.4653],[-112.5256,33.4615],[-112.543,33.4503],[-112.5555,33.4468],[-112.5565,33.4494],[-112.5576,33.4462],[-112.5813,33.4382],[-112.594,33.4383],[-112.5977,33.4415],[-112.6011,33.4404],[-112.6027,33.4356],[-112.6086,33.4331],[-112.6271,33.4301],[-112.6356,33.4326],[-112.6275,33.4091],[-112.6426,33.4047],[-112.6423,33.362],[-112.6385,33.3514],[-112.6383,33.3429],[-112.6519,33.3346],[-112.6562,33.3351],[-112.6638,33.3315],[-112.6814,33.333],[-112.6883,33.3292],[-112.711,33.3266],[-112.7116,33.3217],[-112.7129,33.3293],[-112.7251,33.3391],[-112.7375,33.3462],[-112.7546,33.3507],[-112.7522,33.3685],[-112.7595,33.3871],[-112.765,33.4158],[-112.7798,33.4357],[-112.7836,33.4464],[-112.7815,33.4616],[-112.789,33.4893],[-112.7871,33.4978],[-112.7909,33.5077],[-112.7889,33.5271],[-112.7962,33.5443],[-112.7966,33.5535],[-112.8029,33.5648],[-112.8025,33.5691],[-112.7922,33.5694]]]}}]}