{"type":"FeatureCollection","features":[{"type":"Feature","properties":{"company":"Intel Corporation","facility":"Ocotillo Campus","sector":"Semiconductor Manufacturing","commitment":"Net positive water by 2030: restore more than 100% of the fresh water Intel consumes.","source_url":"https://www.intel.com/content/www/us/en/corporate-responsibility/water-restoration.html"},"geometry":{"type":"Point","coordinates":[-111.877274,33.243602]}},{"type":"Feature","properties":{"company":"Salt River Project (SRP)","facility":"SRP Headquarters / Project Administration Building","sector":"Utility","commitment":"By 2035: 30% lower generation-related water-use intensity than 2005, and 5 billion gallons conserved through partnership.","source_url":"https://www.srpnet.com/grid-water-management/future-planning/sustainability"},"geometry":{"type":"Point","coordinates":[-111.954032,33.444768]}}]}