{"type":"FeatureCollection","features":[{"type":"Feature","properties":{"metro":"columbus","AQ_NAME":"Other rocks","ROCK_TYPE":"999"},"geometry":{"type":"Polygon","coordinates":[[[-82.875077534689,40.2],[-82.86485326058141,40.137637642635354],[-82.87388626058987,40.06356764256634],[-82.86644726058285,40.037811642542465],[-82.84960926056738,40.007076642513766],[-82.82028926054,39.983104642491526],[-82.7571642604812,39.96174264247156],[-82.73727426046275,39.94274864245381],[-82.7339252604595,39.93659964244807],[-82.73636626046186,39.91138064242455],[-82.75508926047928,39.88110364239651],[-82.75804926048204,39.870826642386874],[-82.75527226047939,39.85874164237566],[-82.74617726047086,39.850784642368126],[-82.73469526046028,39.847167642364866],[-82.7,39.84639965801188],[-82.7,39.8],[-82.73383604098206,39.8],[-82.73522926046076,39.80096864232178],[-82.75832326048226,39.806724642327254],[-82.80173526052272,39.806129642326596],[-82.81391926053402,39.80232664232312],[-82.81747552554457,39.8],[-83.0224226201294,39.8],[-83.01837926072449,39.80740764232769],[-83.01576226072211,39.83559464235395],[-83.01916526072523,39.8626136423793],[-83.01709726072318,39.88486464239986],[-82.99979426070718,39.94358064245466],[-83.00530226071237,39.9692226424786],[-83.0145722607208,39.97568164248446],[-83.04560826074976,39.98179664249028],[-83.05895226076223,39.98697664249494],[-83.07724026077926,40.00284964250977],[-83.0869902607883,40.025726642531026],[-83.09226226079318,40.05432464255773],[-83.09075926079186,40.070648642572905],[-83.09644326079706,40.09480664259536],[-83.09499326079572,40.132003642630025],[-83.09886126079937,40.154571642651035],[-83.09653426079717,40.17979464267455],[-83.09911349309355,40.2],[-83.07888576763601,40.2],[-83.07884226078068,40.19974564269319],[-83.06426226076724,40.16468464266063],[-83.05876126076214,40.15991964265618],[-83.05088826075462,40.159503642655636],[-83.04666126075085,40.1622696426582],[-83.04691675108582,40.2],[-82.875077534689,40.2]]]}},{"type":"Feature","properties":{"metro":"columbus","AQ_NAME":"Silurian-Devonian aquifers","ROCK_NAME":"Carbonate-rock aquifers","ROCK_TYPE":"400"},"geometry":{"type":"Polygon","coordinates":[[[-83.3,39.8],[-83.3,40.2],[-83.04691675108582,40.2],[-83.04666126075085,40.1622696426582],[-83.05088826075462,40.159503642655636],[-83.05876126076214,40.15991964265618],[-83.06426226076724,40.16468464266063],[-83.07884226078068,40.19974564269319],[-83.07888576763601,40.2],[-83.09911349309355,40.2],[-83.09653426079717,40.17979464267455],[-83.09886126079937,40.154571642651035],[-83.09499326079572,40.132003642630025],[-83.09644326079706,40.09480664259536],[-83.09075926079186,40.070648642572905],[-83.09226226079318,40.05432464255773],[-83.0869902607883,40.025726642531026],[-83.07724026077926,40.00284964250977],[-83.05895226076223,39.98697664249494],[-83.04560826074976,39.98179664249028],[-83.0145722607208,39.97568164248446],[-83.00530226071237,39.9692226424786],[-82.99979426070718,39.94358064245466],[-83.01709726072318,39.88486464239986],[-83.01916526072523,39.8626136423793],[-83.01576226072211,39.83559464235395],[-83.01837926072449,39.80740764232769],[-83.0224226201294,39.8],[-83.3,39.8]]]}},{"type":"Feature","properties":{"metro":"columbus","AQ_NAME":"Mississippian aquifers","ROCK_NAME":"Sandstone and carbonate-rock aquifers","ROCK_TYPE":"500"},"geometry":{"type":"Polygon","coordinates":[[[-82.7,40.2],[-82.7,39.8],[-82.81747552554457,39.8],[-82.81391926053402,39.80232664232312],[-82.80173526052272,39.806129642326596],[-82.75832326048226,39.806724642327254],[-82.73522926046076,39.80096864232178],[-82.73383604098206,39.8],[-82.7,39.8],[-82.7,39.84639965801188],[-82.73469526046028,39.847167642364866],[-82.74617726047086,39.850784642368126],[-82.75527226047939,39.85874164237566],[-82.75804926048204,39.870826642386874],[-82.75508926047928,39.88110364239651],[-82.73636626046186,39.91138064242455],[-82.7339252604595,39.93659964244807],[-82.73727426046275,39.94274864245381],[-82.7571642604812,39.96174264247156],[-82.82028926054,39.983104642491526],[-82.84960926056738,40.007076642513766],[-82.86644726058285,40.037811642542465],[-82.87388626058987,40.06356764256634],[-82.86485326058141,40.137637642635354],[-82.875077534689,40.2],[-82.7,40.2]]]}}]}