{"type":"FeatureCollection","features":[{"type":"Feature","properties":{"name":"3439-3445 Clover Valley Road","operator":"Meta","city":"Johnstown","state":"OH","status":"Active"},"geometry":{"type":"Point","coordinates":[-82.723399,40.106603]}},{"type":"Feature","properties":{"name":"4500 Beech Rd NW","operator":"KARIS Critical","city":"Johnstown","state":"OH","status":"Active"},"geometry":{"type":"Point","coordinates":[-82.751977,40.122548]}},{"type":"Feature","properties":{"name":"535 Cole Road","operator":"KARIS Critical","city":"Galloway","state":"OH","status":"Active"},"geometry":{"type":"Point","coordinates":[-83.178669,39.961616]}},{"type":"Feature","properties":{"name":"Aligned - 6770 Mink St","operator":"Aligned Data Centers","city":"Pataskala","state":"OH","status":"Active"},"geometry":{"type":"Point","coordinates":[-82.729376,39.993093]}},{"type":"Feature","properties":{"name":"Amazon AWS CMH - Beech North Campus","operator":"Amazon AWS","city":"Johnstown","state":"OH","status":"Active"},"geometry":{"type":"Point","coordinates":[-82.753603,40.100429]}},{"type":"Feature","properties":{"name":"Amazon AWS CMH - Beech South Campus","operator":"Amazon AWS","city":"Johnstown","state":"OH","status":"Active"},"geometry":{"type":"Point","coordinates":[-82.753896,40.096229]}},{"type":"Feature","properties":{"name":"Amazon AWS CMH - Cosgray Campus","operator":"Amazon AWS","city":"Hilliard","state":"OH","status":"Active"},"geometry":{"type":"Point","coordinates":[-83.180945,40.050018]}},{"type":"Feature","properties":{"name":"Amazon AWS CMH - Hayden Campus","operator":"Amazon AWS","city":"Hilliard","state":"OH","status":"Active"},"geometry":{"type":"Point","coordinates":[-83.135328,40.062496]}},{"type":"Feature","properties":{"name":"Amazon AWS CMH - Industrial Parkway Campus","operator":"Amazon AWS","city":"Plain City","state":"OH","status":"Active"},"geometry":{"type":"Point","coordinates":[-83.209912,40.137378]}},{"type":"Feature","properties":{"name":"Amazon AWS CMH - Scioto Campus","operator":"Amazon AWS","city":"Hilliard","state":"OH","status":"Active"},"geometry":{"type":"Point","coordinates":[-83.120423,40.011431]}},{"type":"Feature","properties":{"name":"Amazon AWS CMH - Warner Campus","operator":"Amazon AWS","city":"Plain City","state":"OH","status":"Active"},"geometry":{"type":"Point","coordinates":[-83.200451,40.12157]}},{"type":"Feature","properties":{"name":"BrescoBroadband Columbus 1","operator":"Bresco Broadband, LLC","city":"Columbus","state":"OH","status":"Active"},"geometry":{"type":"Point","coordinates":[-82.996184,39.962785]}},{"type":"Feature","properties":{"name":"BrescoBroadband Columbus 2","operator":"Bresco Broadband, LLC","city":"Columbus","state":"OH","status":"Active"},"geometry":{"type":"Point","coordinates":[-82.988506,39.960074]}},{"type":"Feature","properties":{"name":"CENTRA Columbus (CMH1)","operator":"CENTRA","city":"Columbus","state":"OH","status":"Active"},"geometry":{"type":"Point","coordinates":[-82.996184,39.962785]}},{"type":"Feature","properties":{"name":"CeraNet DC1","operator":"CeraNet, Inc.","city":"Columbus","state":"OH","status":"Active"},"geometry":{"type":"Point","coordinates":[-82.855491,39.995942]}},{"type":"Feature","properties":{"name":"CeraNet DC3","operator":"CeraNet, Inc.","city":"Westerville","state":"OH","status":"Active"},"geometry":{"type":"Point","coordinates":[-82.899878,40.083556]}},{"type":"Feature","properties":{"name":"Citynet Columbus","operator":"Citynet, LLC","city":"Columbus","state":"OH","status":"Active"},"geometry":{"type":"Point","coordinates":[-82.994633,39.96833]}},{"type":"Feature","properties":{"name":"Cogent Data Center - Columbus","operator":"Cogent Communications, Inc.","city":"Columbus","state":"OH","status":"Active"},"geometry":{"type":"Point","coordinates":[-82.995777,39.967929]}},{"type":"Feature","properties":{"name":"Cogent Data Center - Columbus 2","operator":"Cogent Communications, Inc.","city":"Columbus","state":"OH","status":"Active"},"geometry":{"type":"Point","coordinates":[-82.99871,39.974202]}},{"type":"Feature","properties":{"name":"Cologix Johnstown Campus","operator":"Cologix","city":"Johnstown","state":"OH","status":"Active"},"geometry":{"type":"Point","coordinates":[-82.71547,40.137177]}},{"type":"Feature","properties":{"name":"Cologix Scherers Rd Campus","operator":"Cologix","city":"Columbus","state":"OH","status":"Active"},"geometry":{"type":"Point","coordinates":[-83.002223,40.116503]}},{"type":"Feature","properties":{"name":"Compass New Albany","operator":"Compass Datacenters","city":"New Albany","state":"OH","status":"Active"},"geometry":{"type":"Point","coordinates":[-82.808603,40.104639]}},{"type":"Feature","properties":{"name":"Crown Castle Columbus (OH1)","operator":"Crown Castle","city":"Columbus","state":"OH","status":"Active"},"geometry":{"type":"Point","coordinates":[-82.997236,39.959071]}},{"type":"Feature","properties":{"name":"Csquare - Columbus CMH1-A","operator":"Csquare","city":"North Lewis Center","state":"OH","status":"Active"},"geometry":{"type":"Point","coordinates":[-83.009838,40.167593]}},{"type":"Feature","properties":{"name":"DartPoints Dublin, OH - CMH01","operator":"DartPoints","city":"Dublin","state":"OH","status":"Active"},"geometry":{"type":"Point","coordinates":[-83.129797,40.09344]}},{"type":"Feature","properties":{"name":"DataBank - 251 Neilston St","operator":"DataBank","city":"Columbus","state":"OH","status":"Active"},"geometry":{"type":"Point","coordinates":[-82.994633,39.96833]}},{"type":"Feature","properties":{"name":"Edged Columbus","operator":"Edged Energy","city":"New Albany","state":"OH","status":"Active"},"geometry":{"type":"Point","coordinates":[-82.811079,40.105126]}},{"type":"Feature","properties":{"name":"eNET CMH-1","operator":"eNET, Inc","city":"Columbus","state":"OH","status":"Active"},"geometry":{"type":"Point","coordinates":[-82.937024,40.082049]}},{"type":"Feature","properties":{"name":"Expedient Dublin","operator":"Expedient Data Centers","city":"Dublin","state":"OH","status":"Active"},"geometry":{"type":"Point","coordinates":[-83.144373,40.09168]}},{"type":"Feature","properties":{"name":"Expedient Lewis Center","operator":"Expedient Data Centers","city":"Lewis Center","state":"OH","status":"Active"},"geometry":{"type":"Point","coordinates":[-83.014316,40.156951]}},{"type":"Feature","properties":{"name":"Expedient Upper Arlington","operator":"Expedient Data Centers","city":"Columbus","state":"OH","status":"Active"},"geometry":{"type":"Point","coordinates":[-83.079215,40.057188]}},{"type":"Feature","properties":{"name":"Google Lockbourne Data Center","operator":"Google","city":"Lockbourne","state":"OH","status":"Active"},"geometry":{"type":"Point","coordinates":[-83.003982,39.861118]}},{"type":"Feature","properties":{"name":"ICS 180 Borden","operator":"ICS","city":"Columbus","state":"OH","status":"Active"},"geometry":{"type":"Point","coordinates":[-82.996184,39.962785]}},{"type":"Feature","properties":{"name":"ICS Main POP","operator":"ICS","city":"Columbus","state":"OH","status":"Active"},"geometry":{"type":"Point","coordinates":[-82.995738,39.967732]}},{"type":"Feature","properties":{"name":"LexisNexis Hilliard","operator":"LexisNexis","city":"Hilliard","state":"OH","status":"Active"},"geometry":{"type":"Point","coordinates":[-83.135313,40.055025]}},{"type":"Feature","properties":{"name":"Lumen Columbus","operator":"Lumen","city":"Columbus","state":"OH","status":"Active"},"geometry":{"type":"Point","coordinates":[-82.995738,39.967732]}},{"type":"Feature","properties":{"name":"Lumen Columbus 1","operator":"Lumen","city":"Columbus","state":"OH","status":"Active"},"geometry":{"type":"Point","coordinates":[-82.995849,39.968296]}},{"type":"Feature","properties":{"name":"Lumen Columbus 2","operator":"Lumen","city":"Columbus","state":"OH","status":"Active"},"geometry":{"type":"Point","coordinates":[-82.995738,39.967732]}},{"type":"Feature","properties":{"name":"Microsoft - Beech Rd NW & Fitzwilliam Ln","operator":"Microsoft","city":"New Albany","state":"OH","status":"Active"},"geometry":{"type":"Point","coordinates":[-82.753664,40.100761]}},{"type":"Feature","properties":{"name":"QTS New Albany 1 Campus","operator":"QTS Data Centers","city":"New Albany","state":"OH","status":"Active"},"geometry":{"type":"Point","coordinates":[-82.75446,40.066757]}},{"type":"Feature","properties":{"name":"QTS New Albany 2 Campus","operator":"QTS Data Centers","city":"New Albany","state":"OH","status":"Active"},"geometry":{"type":"Point","coordinates":[-82.753877,40.072883]}},{"type":"Feature","properties":{"name":"QTS New Albany 3","operator":"QTS Data Centers","city":"New Albany","state":"OH","status":"Active"},"geometry":{"type":"Point","coordinates":[-82.775071,40.077073]}},{"type":"Feature","properties":{"name":"Racksquared Spring Street Datacenter","operator":"RackSquared","city":"Columbus","state":"OH","status":"Active"},"geometry":{"type":"Point","coordinates":[-82.992868,39.967038]}},{"type":"Feature","properties":{"name":"Racksquared Value Way Datacenter","operator":"RackSquared","city":"Columbus","state":"OH","status":"Active"},"geometry":{"type":"Point","coordinates":[-82.95199,40.044549]}},{"type":"Feature","properties":{"name":"Uniti Columbus","operator":"Uniti Wholesale","city":"Columbus","state":"OH","status":"Active"},"geometry":{"type":"Point","coordinates":[-82.996184,39.962785]}},{"type":"Feature","properties":{"name":"WeConnect Community Data Center","operator":"City of Westerville - WeConnect","city":"Westerville","state":"OH","status":"Active"},"geometry":{"type":"Point","coordinates":[-82.943976,40.123664]}},{"type":"Feature","properties":{"name":"WOW! Data Center","operator":"WOW Business/E Solutions","city":"Columbus","state":"OH","status":"Active"},"geometry":{"type":"Point","coordinates":[-82.995738,39.967732]}}]}