{"type":"FeatureCollection","features":[{"type":"Feature","id":5698,"geometry":{"type":"Polygon","coordinates":[[[-82.6908,40.2104],[-82.6925,40.22],[-82.6962,40.2256],[-82.6997,40.2237],[-82.7128,40.21],[-82.7156,40.2118],[-82.7152,40.2177],[-82.7328,40.2182],[-82.7369,40.2212],[-82.7423,40.222],[-82.743,40.2196],[-82.7406,40.2166],[-82.7399,40.2081],[-82.737,40.1993],[-82.7387,40.1934],[-82.7346,40.1885],[-82.7365,40.1851],[-82.7336,40.1834],[-82.745,40.1692],[-82.7373,40.1645],[-82.7365,40.1616],[-82.7259,40.1576],[-82.7272,40.1555],[-82.7263,40.1535],[-82.7284,40.1528],[-82.7268,40.1513],[-82.731,40.1488],[-82.7363,40.1424],[-82.7353,40.1367],[-82.7311,40.1353],[-82.7355,40.1327],[-82.7278,40.1285],[-82.7147,40.1099],[-82.7075,40.1072],[-82.7117,40.1033],[-82.7129,40.0986],[-82.6982,40.089],[-82.6938,40.0825],[-82.6941,40.0796],[-82.6999,40.0789],[-82.6979,40.0762],[-82.7006,40.071],[-82.6967,40.0705],[-82.6909,40.0653],[-82.6865,40.0658],[-82.6812,40.0606],[-82.6754,40.0582],[-82.6757,40.0556],[-82.6705,40.0502],[-82.6715,40.0478],[-82.6756,40.0476],[-82.6746,40.046],[-82.6765,40.0438],[-82.6699,40.0401],[-82.6728,40.0356],[-82.6652,40.0317],[-82.6643,40.0296],[-82.6592,40.0298],[-82.6548,40.0342],[-82.6485,40.0319],[-82.6467,40.029],[-82.6387,40.0271],[-82.6365,40.0242],[-82.6289,40.0221],[-82.6244,40.0252],[-82.6163,40.0252],[-82.6124,40.028],[-82.6096,40.0271],[-82.6045,40.0291],[-82.6014,40.0328],[-82.6029,40.0352],[-82.6001,40.0364],[-82.5889,40.0344],[-82.5885,40.0366],[-82.5817,40.0424],[-82.5666,40.0453],[-82.5636,40.0416],[-82.5564,40.042],[-82.5541,40.0399],[-82.5508,40.041],[-82.55,40.04],[-82.5444,40.0424],[-82.5402,40.038],[-82.536,40.0387],[-82.5313,40.0362],[-82.5272,40.0396],[-82.5189,40.0405],[-82.5186,40.0441],[-82.5151,40.0463],[-82.5128,40.0414],[-82.5081,40.0372],[-82.5002,40.0383],[-82.4961,40.0367],[-82.491,40.0381],[-82.4929,40.0419],[-82.491,40.0432],[-82.4857,40.0417],[-82.4632,40.0424],[-82.4605,40.0437],[-82.4594,40.0466],[-82.4546,40.0469],[-82.4498,40.0509],[-82.4471,40.0513],[-82.4467,40.0532],[-82.4447,40.0525],[-82.4399,40.0548],[-82.4339,40.0541],[-82.4307,40.0506],[-82.426,40.0487],[-82.4119,40.0495],[-82.4096,40.0463],[-82.4049,40.0468],[-82.4062,40.0504],[-82.4054,40.0555],[-82.4089,40.0617],[-82.4149,40.0646],[-82.4191,40.0639],[-82.4215,40.0664],[-82.43,40.0694],[-82.44,40.0709],[-82.4446,40.0772],[-82.4529,40.0806],[-82.4554,40.0865],[-82.4579,40.0861],[-82.4593,40.0899],[-82.4621,40.0916],[-82.4637,40.0895],[-82.4723,40.0908],[-82.4731,40.0937],[-82.4759,40.0954],[-82.4832,40.0937],[-82.4982,40.0997],[-82.5022,40.0971],[-82.5008,40.0953],[-82.5021,40.0943],[-82.5115,40.0954],[-82.5115,40.0981],[-82.5144,40.1009],[-82.5186,40.1003],[-82.5229,40.1066],[-82.5254,40.1064],[-82.5309,40.101],[-82.5314,40.0957],[-82.5336,40.0951],[-82.532,40.0903],[-82.5336,40.0874],[-82.5402,40.0873],[-82.5413,40.0845],[-82.5454,40.0845],[-82.5478,40.0811],[-82.5542,40.0839],[-82.5537,40.0866],[-82.5562,40.0888],[-82.5559,40.0927],[-82.562,40.0982],[-82.5669,40.0993],[-82.5712,40.1041],[-82.5792,40.1056],[-82.5779,40.1093],[-82.5804,40.116],[-82.5928,40.1223],[-82.5985,40.1288],[-82.5967,40.1291],[-82.5966,40.1315],[-82.5902,40.1333],[-82.5893,40.1353],[-82.5965,40.1374],[-82.6018,40.1411],[-82.6016,40.1426],[-82.6109,40.1474],[-82.6101,40.1501],[-82.6135,40.1516],[-82.6124,40.1536],[-82.6147,40.155],[-82.6136,40.1585],[-82.6148,40.1605],[-82.6278,40.1658],[-82.6343,40.1648],[-82.6374,40.1669],[-82.6381,40.1695],[-82.6455,40.1704],[-82.6466,40.1723],[-82.6554,40.1729],[-82.6533,40.1778],[-82.6497,40.1796],[-82.6512,40.1829],[-82.6477,40.1872],[-82.6499,40.1904],[-82.6485,40.1917],[-82.6492,40.1957],[-82.6583,40.1985],[-82.6572,40.2024],[-82.6523,40.2072],[-82.6522,40.2089],[-82.6577,40.2159],[-82.6602,40.217],[-82.6601,40.2187],[-82.6628,40.219],[-82.6704,40.2149],[-82.6724,40.2162],[-82.6766,40.2155],[-82.6849,40.2091],[-82.6913,40.2064],[-82.6908,40.2104]]]},"properties":{"objectid":5698,"tnmid":"{9AC92D17-BA56-46E5-AFBC-5F669FBD2BE8}","metasourceid":"{511D2AC8-11BA-45FC-AB98-F69D693D4C44}","sourcedatadesc":"Watershed Boundary Dataset (WBD)","sourceoriginator":"Natural Resources and Conservation Service and U.S. Geological Survey","sourcefeatureid":null,"loaddate":1723726881000,"referencegnis_ids":"1057942","areaacres":65675.18,"areasqkm":265.78,"states":"OH","huc10":"0504000603","name":"Raccoon Creek","hutype":"S","humod":"NM","globalid":"{20C33CE1-E29C-11E2-8094-0021280458E6}","shape_Length":154708.9182745596,"shape_Area":454851400.3222793}},{"type":"Feature","id":5699,"geometry":{"type":"Polygon","coordinates":[[[-82.7086,40.0954],[-82.7111,40.0966],[-82.7154,40.0919],[-82.7271,40.0945],[-82.7324,40.094],[-82.7365,40.0902],[-82.7379,40.0829],[-82.7428,40.0784],[-82.7422,40.0761],[-82.7441,40.0742],[-82.7431,40.0611],[-82.7461,40.062],[-82.7486,40.0587],[-82.7454,40.0562],[-82.7456,40.0546],[-82.7477,40.0547],[-82.7478,40.052],[-82.7538,40.0508],[-82.7554,40.0474],[-82.7604,40.0449],[-82.7621,40.0418],[-82.7622,40.0387],[-82.7577,40.0325],[-82.7598,40.0302],[-82.7571,40.0262],[-82.7593,40.0182],[-82.7554,40.0139],[-82.7505,40.0128],[-82.7504,40.0089],[-82.7483,40.006],[-82.7337,39.9959],[-82.7277,39.9851],[-82.7254,39.983],[-82.7207,39.9825],[-82.716,39.9785],[-82.7127,39.9737],[-82.7153,39.9703],[-82.7145,39.968],[-82.7098,39.966],[-82.7084,39.9678],[-82.7057,39.9671],[-82.7051,39.9634],[-82.7081,39.9614],[-82.707,39.9569],[-82.6961,39.9545],[-82.6938,39.9494],[-82.6893,39.9467],[-82.68,39.9464],[-82.6747,39.939],[-82.6667,39.9413],[-82.6645,39.9399],[-82.6583,39.9415],[-82.6548,39.9404],[-82.651,39.9346],[-82.6407,39.9344],[-82.6429,39.9287],[-82.6419,39.9226],[-82.6361,39.9225],[-82.6267,39.9149],[-82.6151,39.912],[-82.6022,39.8978],[-82.5946,39.8999],[-82.5664,39.902],[-82.564,39.9011],[-82.5594,39.9027],[-82.5582,39.9008],[-82.5512,39.902],[-82.5474,39.8999],[-82.5447,39.9005],[-82.5317,39.8938],[-82.5315,39.8897],[-82.5229,39.8824],[-82.5163,39.8838],[-82.504,39.8788],[-82.4958,39.8816],[-82.4939,39.8852],[-82.488,39.8885],[-82.4707,39.8873],[-82.4675,39.8856],[-82.4602,39.8868],[-82.4579,39.8786],[-82.4545,39.8735],[-82.4387,39.8746],[-82.4344,39.8679],[-82.4345,39.8627],[-82.4322,39.8591],[-82.4294,39.8567],[-82.4258,39.8577],[-82.4212,39.8551],[-82.4138,39.8589],[-82.4141,39.8618],[-82.4116,39.8644],[-82.4126,39.8664],[-82.4106,39.8686],[-82.4113,39.8777],[-82.4144,39.8789],[-82.4187,39.8864],[-82.4186,39.8946],[-82.4113,39.8988],[-82.4062,39.9045],[-82.3966,39.9081],[-82.4017,39.9108],[-82.3999,39.9124],[-82.3993,39.9171],[-82.4038,39.923],[-82.4005,39.9267],[-82.4001,39.9308],[-82.4072,39.9371],[-82.4057,39.9385],[-82.4066,39.9403],[-82.4037,39.943],[-82.3998,39.9426],[-82.3983,39.9454],[-82.3991,39.9471],[-82.3937,39.9507],[-82.3881,39.9493],[-82.3864,39.9504],[-82.3863,39.9605],[-82.3817,39.9584],[-82.3813,39.9563],[-82.3718,39.9621],[-82.3681,39.9598],[-82.3632,39.9599],[-82.349,39.9653],[-82.3412,39.9629],[-82.3329,39.9687],[-82.3276,39.9762],[-82.3291,39.9811],[-82.3465,39.9871],[-82.3455,39.9899],[-82.3569,39.9873],[-82.3617,39.9917],[-82.3663,39.992],[-82.368,39.9936],[-82.3665,39.9968],[-82.3682,39.9968],[-82.368,39.9992],[-82.3646,40.0066],[-82.3636,40.016],[-82.36,40.0194],[-82.362,40.0225],[-82.3664,40.0218],[-82.3729,40.0245],[-82.3746,40.0231],[-82.3753,40.0156],[-82.3834,40.0122],[-82.3878,40.0136],[-82.3911,40.0191],[-82.3958,40.0171],[-82.4046,40.0194],[-82.4013,40.026],[-82.3967,40.0271],[-82.3954,40.0291],[-82.3953,40.0342],[-82.4014,40.0389],[-82.3982,40.041],[-82.3935,40.0476],[-82.3947,40.0516],[-82.3918,40.053],[-82.3992,40.0581],[-82.4066,40.0582],[-82.4049,40.0468],[-82.4061,40.046],[-82.4096,40.0463],[-82.4119,40.0495],[-82.426,40.0487],[-82.4307,40.0506],[-82.4339,40.0541],[-82.4399,40.0548],[-82.4447,40.0525],[-82.4467,40.0532],[-82.4471,40.0513],[-82.4498,40.0509],[-82.4546,40.0469],[-82.4594,40.0466],[-82.4605,40.0437],[-82.4632,40.0424],[-82.4857,40.0417],[-82.491,40.0432],[-82.4929,40.0419],[-82.491,40.0381],[-82.4961,40.0367],[-82.5002,40.0383],[-82.5081,40.0372],[-82.5128,40.0414],[-82.5151,40.0463],[-82.5186,40.0441],[-82.5189,40.0405],[-82.5272,40.0396],[-82.5313,40.0362],[-82.536,40.0387],[-82.5402,40.038],[-82.5444,40.0424],[-82.5541,40.0399],[-82.5564,40.042],[-82.5636,40.0416],[-82.5664,40.0453],[-82.5733,40.0448],[-82.578,40.0423],[-82.5817,40.0424],[-82.5885,40.0366],[-82.5889,40.0344],[-82.6001,40.0364],[-82.6029,40.0352],[-82.6014,40.0328],[-82.6045,40.0291],[-82.6096,40.0271],[-82.6124,40.028],[-82.6163,40.0252],[-82.6244,40.0252],[-82.6293,40.022],[-82.6342,40.0246],[-82.6365,40.0242],[-82.6387,40.0271],[-82.6467,40.029],[-82.6485,40.0319],[-82.6548,40.0342],[-82.6592,40.0298],[-82.6643,40.0296],[-82.6652,40.0317],[-82.6728,40.0356],[-82.6697,40.0397],[-82.6765,40.044],[-82.6746,40.046],[-82.6756,40.0476],[-82.6715,40.0478],[-82.6705,40.0503],[-82.6757,40.0556],[-82.6754,40.0582],[-82.6812,40.0606],[-82.6826,40.0633],[-82.6866,40.0658],[-82.6909,40.0653],[-82.6967,40.0705],[-82.7006,40.071],[-82.6979,40.0762],[-82.6999,40.0789],[-82.6941,40.0796],[-82.6938,40.0825],[-82.6982,40.089],[-82.7021,40.0908],[-82.7062,40.0953],[-82.7086,40.0954]]]},"properties":{"objectid":5699,"tnmid":"{D84A4880-E365-4693-851E-964C5BF9FC41}","metasourceid":"{511D2AC8-11BA-45FC-AB98-F69D693D4C44}","sourcedatadesc":"Watershed Boundary Dataset (WBD)","sourceoriginator":"Natural Resources and Conservation Service and U.S. Geological Survey","sourcefeatureid":null,"loaddate":1723726881000,"referencegnis_ids":"1066212","areaacres":118647.67,"areasqkm":480.15,"states":"OH","huc10":"0504000604","name":"South Fork Licking River","hutype":"S","humod":"NM","globalid":"{20C35C35-E29C-11E2-8094-0021280458E6}","shape_Length":191029.35897568695,"shape_Area":818658231.7313855}},{"type":"Feature","id":5711,"geometry":{"type":"Polygon","coordinates":[[[-83.5312,40.016],[-83.5363,40.0191],[-83.5394,40.0193],[-83.5434,40.0158],[-83.5467,40.0188],[-83.5521,40.0193],[-83.5602,40.013],[-83.5652,40.0069],[-83.5708,40.0047],[-83.5768,40.0047],[-83.5795,40.0004],[-83.5791,39.9953],[-83.5775,39.9957],[-83.5756,39.9937],[-83.5726,39.9942],[-83.5674,39.9861],[-83.5688,39.9855],[-83.5678,39.9809],[-83.5745,39.9764],[-83.574,39.9736],[-83.5721,39.9734],[-83.5734,39.9713],[-83.5727,39.9648],[-83.5706,39.9638],[-83.5719,39.9624],[-83.5687,39.9586],[-83.5624,39.9561],[-83.5568,39.9469],[-83.558,39.9457],[-83.5566,39.9423],[-83.5616,39.9398],[-83.5598,39.936],[-83.5579,39.9364],[-83.5571,39.9349],[-83.5607,39.9334],[-83.5586,39.9307],[-83.5592,39.9278],[-83.5606,39.9273],[-83.561,39.9237],[-83.5645,39.9228],[-83.5618,39.9171],[-83.5594,39.9158],[-83.5569,39.9166],[-83.5501,39.9101],[-83.5512,39.9083],[-83.5499,39.9046],[-83.5524,39.9054],[-83.5549,39.9019],[-83.5572,39.8964],[-83.5554,39.894],[-83.5589,39.8926],[-83.5592,39.8892],[-83.5576,39.8863],[-83.5578,39.8801],[-83.5554,39.8779],[-83.5513,39.8773],[-83.5497,39.8788],[-83.5491,39.8777],[-83.5485,39.8734],[-83.5515,39.8712],[-83.5481,39.8664],[-83.552,39.8649],[-83.5497,39.8629],[-83.5476,39.8568],[-83.5411,39.8546],[-83.5373,39.8564],[-83.5334,39.8556],[-83.5326,39.8579],[-83.5298,39.8584],[-83.5282,39.8544],[-83.525,39.8546],[-83.5265,39.8499],[-83.524,39.8506],[-83.5193,39.8463],[-83.5166,39.846],[-83.5152,39.8426],[-83.5092,39.8422],[-83.4986,39.8361],[-83.4957,39.8379],[-83.4918,39.833],[-83.4929,39.8309],[-83.4909,39.825],[-83.4863,39.828],[-83.4885,39.8308],[-83.4852,39.8329],[-83.4877,39.8363],[-83.4866,39.8389],[-83.4822,39.8389],[-83.4749,39.8347],[-83.4673,39.838],[-83.4634,39.838],[-83.461,39.84],[-83.4572,39.8375],[-83.4502,39.8408],[-83.4488,39.84],[-83.4508,39.8369],[-83.4497,39.8342],[-83.4369,39.837],[-83.4276,39.8355],[-83.4188,39.8387],[-83.4157,39.8426],[-83.4132,39.8394],[-83.4089,39.8376],[-83.3995,39.8363],[-83.3963,39.8308],[-83.3969,39.8286],[-83.3933,39.8266],[-83.3889,39.8283],[-83.3842,39.821],[-83.3774,39.8239],[-83.3758,39.8177],[-83.37,39.8201],[-83.3686,39.812],[-83.3645,39.8098],[-83.3646,39.8067],[-83.3603,39.8065],[-83.3565,39.8031],[-83.3508,39.8031],[-83.3373,39.7993],[-83.3344,39.7999],[-83.3342,39.7883],[-83.3277,39.7865],[-83.326,39.7809],[-83.3305,39.7722],[-83.3254,39.7713],[-83.3264,39.7679],[-83.3126,39.7608],[-83.3158,39.7549],[-83.3063,39.7522],[-83.3022,39.7534],[-83.3008,39.7565],[-83.2937,39.7583],[-83.2899,39.7573],[-83.2864,39.7591],[-83.2872,39.7615],[-83.284,39.7623],[-83.2824,39.7644],[-83.2837,39.7656],[-83.2812,39.7679],[-83.2844,39.7707],[-83.2806,39.7746],[-83.2841,39.7764],[-83.2825,39.7841],[-83.2832,39.7899],[-83.2868,39.7926],[-83.2871,39.7985],[-83.2814,39.8033],[-83.2816,39.809],[-83.2791,39.8113],[-83.2806,39.8152],[-83.2844,39.816],[-83.2844,39.8187],[-83.2814,39.8187],[-83.2782,39.8241],[-83.2777,39.8362],[-83.2836,39.8385],[-83.2958,39.8391],[-83.2986,39.835],[-83.3039,39.8347],[-83.3113,39.8363],[-83.3118,39.8392],[-83.3134,39.8393],[-83.3118,39.8446],[-83.3097,39.8447],[-83.3092,39.8499],[-83.3133,39.8501],[-83.3149,39.8568],[-83.3125,39.8576],[-83.3057,39.8556],[-83.3044,39.8572],[-83.3054,39.8595],[-83.308,39.8611],[-83.3065,39.8622],[-83.3031,39.8622],[-83.2995,39.8598],[-83.295,39.8619],[-83.2972,39.8637],[-83.2958,39.8665],[-83.2963,39.8708],[-83.3015,39.8762],[-83.2971,39.8843],[-83.2949,39.8852],[-83.3024,39.8892],[-83.3002,39.8928],[-83.3013,39.8968],[-83.3033,39.8996],[-83.3057,39.8998],[-83.3047,39.9015],[-83.3122,39.9099],[-83.3192,39.9104],[-83.3234,39.9135],[-83.3263,39.9132],[-83.3266,39.9147],[-83.3225,39.9191],[-83.3233,39.9238],[-83.3253,39.9245],[-83.3252,39.9284],[-83.3314,39.9326],[-83.3395,39.9313],[-83.3468,39.9325],[-83.3501,39.9301],[-83.351,39.9325],[-83.3543,39.9329],[-83.3538,39.9353],[-83.3555,39.9368],[-83.3535,39.9393],[-83.3557,39.9411],[-83.356,39.9455],[-83.3602,39.9489],[-83.3641,39.9473],[-83.3694,39.9496],[-83.3702,39.9582],[-83.3741,39.9606],[-83.3726,39.9629],[-83.3743,39.9681],[-83.3959,39.9633],[-83.3965,39.9577],[-83.3924,39.9512],[-83.3955,39.949],[-83.4012,39.9488],[-83.4077,39.9538],[-83.4065,39.9564],[-83.4075,39.9588],[-83.4055,39.9596],[-83.4069,39.9636],[-83.4125,39.968],[-83.4192,39.97],[-83.4202,39.9736],[-83.4446,39.9762],[-83.4473,39.9739],[-83.4472,39.9711],[-83.4573,39.9715],[-83.4589,39.9805],[-83.462,39.9817],[-83.462,39.9852],[-83.4655,39.9862],[-83.4696,39.9903],[-83.4823,39.9911],[-83.4827,39.9957],[-83.4869,39.9985],[-83.49,39.9985],[-83.494,40.0056],[-83.5045,40.0085],[-83.5086,40.0077],[-83.5125,40.0094],[-83.5187,40.0079],[-83.5213,40.01],[-83.5265,40.01],[-83.5312,40.016]]]},"properties":{"objectid":5711,"tnmid":"{33CE47C3-F988-409D-BE32-B20AD8CFF5C0}","metasourceid":"{511D2AC8-11BA-45FC-AB98-F69D693D4C44}","sourcedatadesc":"Watershed Boundary Dataset (WBD)","sourceoriginator":"Natural Resources and Conservation Service and U.S. Geological Survey","sourcefeatureid":null,"loaddate":1723726881000,"referencegnis_ids":"1039652","areaacres":92761.09,"areasqkm":375.39,"states":"OH","huc10":"0506000201","name":"Headwaters Deer Creek","hutype":"S","humod":"NM","globalid":"{1F0338CC-E29C-11E2-8094-0021280458E6}","shape_Length":175491.66640038797,"shape_Area":638549286.3657396}},{"type":"Feature","id":5717,"geometry":{"type":"Polygon","coordinates":[[[-83.646,40.4572],[-83.6552,40.4517],[-83.6535,40.4485],[-83.6539,40.4433],[-83.6512,40.4391],[-83.6599,40.4356],[-83.6624,40.4329],[-83.6612,40.431],[-83.6659,40.4239],[-83.6666,40.4194],[-83.6658,40.4175],[-83.6554,40.4121],[-83.6558,40.4076],[-83.6581,40.4052],[-83.6558,40.4011],[-83.6565,40.3957],[-83.6539,40.3931],[-83.6539,40.3902],[-83.6569,40.389],[-83.6578,40.3846],[-83.6567,40.3822],[-83.6529,40.3805],[-83.6511,40.3765],[-83.6474,40.3765],[-83.643,40.3718],[-83.6418,40.3665],[-83.6319,40.3647],[-83.6249,40.3592],[-83.6184,40.3582],[-83.6109,40.3506],[-83.6222,40.3468],[-83.6226,40.3435],[-83.6317,40.3418],[-83.6338,40.3394],[-83.6382,40.3414],[-83.6407,40.3382],[-83.6344,40.3338],[-83.635,40.3304],[-83.633,40.3265],[-83.6294,40.3266],[-83.6265,40.3236],[-83.6266,40.319],[-83.6213,40.3144],[-83.6225,40.3093],[-83.613,40.3106],[-83.612,40.3125],[-83.6055,40.3154],[-83.6046,40.3184],[-83.5981,40.3208],[-83.5949,40.3256],[-83.5893,40.3235],[-83.5862,40.3251],[-83.5822,40.3241],[-83.5758,40.3272],[-83.5702,40.3243],[-83.5662,40.3196],[-83.5614,40.3227],[-83.5545,40.3226],[-83.5491,40.327],[-83.5446,40.3344],[-83.5363,40.335],[-83.5331,40.3387],[-83.5304,40.3387],[-83.5243,40.3337],[-83.5114,40.3281],[-83.5083,40.3132],[-83.483,40.3064],[-83.4853,40.3016],[-83.4847,40.2968],[-83.4887,40.2932],[-83.4801,40.2896],[-83.4775,40.2841],[-83.4711,40.2812],[-83.4708,40.2778],[-83.4674,40.2772],[-83.4658,40.275],[-83.4626,40.2753],[-83.4628,40.2698],[-83.4567,40.2696],[-83.4547,40.2578],[-83.4492,40.2559],[-83.4457,40.258],[-83.4375,40.2586],[-83.4318,40.2566],[-83.4275,40.2502],[-83.4189,40.2453],[-83.4093,40.2312],[-83.401,40.2288],[-83.4006,40.226],[-83.3924,40.2212],[-83.3899,40.2178],[-83.3857,40.2192],[-83.3789,40.2181],[-83.3759,40.2153],[-83.3674,40.2121],[-83.3593,40.2121],[-83.3569,40.2146],[-83.3531,40.2118],[-83.3529,40.2086],[-83.3465,40.2028],[-83.3481,40.1904],[-83.3365,40.186],[-83.333,40.1819],[-83.3274,40.1807],[-83.3241,40.1765],[-83.3145,40.1752],[-83.3054,40.1769],[-83.2976,40.1798],[-83.2932,40.1845],[-83.2881,40.1872],[-83.2836,40.1871],[-83.2788,40.1841],[-83.2671,40.185],[-83.2686,40.1967],[-83.2575,40.1998],[-83.2539,40.2],[-83.2499,40.1969],[-83.2359,40.1972],[-83.2213,40.203],[-83.2223,40.1962],[-83.2159,40.1962],[-83.2113,40.1994],[-83.2028,40.2009],[-83.196,40.2056],[-83.1885,40.2065],[-83.1753,40.2159],[-83.1718,40.2238],[-83.1674,40.2273],[-83.1699,40.236],[-83.1677,40.2405],[-83.1633,40.2404],[-83.1604,40.2428],[-83.1508,40.2414],[-83.1478,40.2438],[-83.1536,40.2463],[-83.1573,40.2535],[-83.1632,40.2562],[-83.1781,40.258],[-83.1861,40.2608],[-83.1871,40.2633],[-83.1841,40.2659],[-83.1845,40.2688],[-83.186,40.2704],[-83.1903,40.2697],[-83.1901,40.2713],[-83.1801,40.2811],[-83.1848,40.2877],[-83.1889,40.2893],[-83.2024,40.2889],[-83.2154,40.2963],[-83.2233,40.293],[-83.223,40.2862],[-83.2259,40.2847],[-83.2296,40.2875],[-83.2412,40.2905],[-83.2445,40.2952],[-83.2414,40.2977],[-83.2467,40.3082],[-83.2511,40.3104],[-83.2733,40.3138],[-83.2831,40.3179],[-83.2847,40.3282],[-83.2875,40.3314],[-83.299,40.328],[-83.3225,40.3279],[-83.3335,40.3311],[-83.3378,40.3348],[-83.3462,40.3386],[-83.3531,40.3515],[-83.3633,40.3512],[-83.3776,40.3473],[-83.386,40.3501],[-83.3869,40.3528],[-83.4024,40.3596],[-83.4085,40.3599],[-83.4152,40.3626],[-83.4165,40.3654],[-83.4198,40.3662],[-83.4291,40.3628],[-83.4331,40.3594],[-83.4364,40.3601],[-83.4551,40.3572],[-83.455,40.3532],[-83.4612,40.3532],[-83.4641,40.3585],[-83.4675,40.3603],[-83.4682,40.3661],[-83.4719,40.3695],[-83.473,40.3747],[-83.4694,40.3765],[-83.4709,40.379],[-83.4746,40.3799],[-83.4799,40.3749],[-83.483,40.3751],[-83.4911,40.3787],[-83.492,40.3841],[-83.4937,40.3826],[-83.4946,40.3844],[-83.4976,40.3845],[-83.5025,40.3791],[-83.5119,40.3802],[-83.5171,40.3762],[-83.5229,40.375],[-83.526,40.3773],[-83.5277,40.3764],[-83.5332,40.3786],[-83.5382,40.3782],[-83.545,40.3839],[-83.5536,40.3828],[-83.5591,40.386],[-83.56,40.3876],[-83.5583,40.3889],[-83.5603,40.3896],[-83.5606,40.392],[-83.5589,40.3944],[-83.5644,40.3957],[-83.5636,40.3976],[-83.5655,40.3995],[-83.5725,40.3998],[-83.5766,40.4039],[-83.5803,40.4051],[-83.5851,40.4029],[-83.5885,40.4028],[-83.5892,40.4041],[-83.5919,40.4027],[-83.5986,40.4064],[-83.6048,40.4158],[-83.6048,40.4188],[-83.6089,40.4186],[-83.6083,40.4208],[-83.6107,40.424],[-83.6147,40.4276],[-83.6197,40.4294],[-83.6229,40.4334],[-83.622,40.4343],[-83.6272,40.4377],[-83.6407,40.4554],[-83.646,40.4572]]]},"properties":{"objectid":5717,"tnmid":"{CD18FBF1-E63D-4DFA-BECD-400CA60A9200}","metasourceid":"{511D2AC8-11BA-45FC-AB98-F69D693D4C44}","sourcedatadesc":"Watershed Boundary Dataset (WBD)","sourceoriginator":"Natural Resources and Conservation Service and U.S. Geological Survey","sourcefeatureid":null,"loaddate":1723726881000,"referencegnis_ids":"1043314","areaacres":114584.16,"areasqkm":463.71,"states":"OH","huc10":"0506000106","name":"Mill Creek","hutype":"S","humod":"NM","globalid":"{20C4308B-E29C-11E2-8094-0021280458E6}","shape_Length":205963.42344391218,"shape_Area":798028425.7389858}},{"type":"Feature","id":5725,"geometry":{"type":"Polygon","coordinates":[[[-83.3122,39.8574],[-83.3148,39.8569],[-83.315,39.8552],[-83.3133,39.8501],[-83.3092,39.8499],[-83.3097,39.8447],[-83.3118,39.8446],[-83.3118,39.8421],[-83.3134,39.8413],[-83.3113,39.8363],[-83.2997,39.8345],[-83.2962,39.839],[-83.2941,39.8392],[-83.2836,39.8385],[-83.2777,39.8362],[-83.2782,39.8241],[-83.2814,39.8187],[-83.2844,39.8187],[-83.2844,39.816],[-83.2806,39.8152],[-83.2791,39.8113],[-83.2816,39.809],[-83.2814,39.8033],[-83.2871,39.7985],[-83.2868,39.7926],[-83.2832,39.7899],[-83.2825,39.7841],[-83.2841,39.7764],[-83.2806,39.7746],[-83.2844,39.7707],[-83.2812,39.7679],[-83.2837,39.7656],[-83.2824,39.7644],[-83.284,39.7623],[-83.2872,39.7615],[-83.2864,39.7591],[-83.2899,39.7573],[-83.2937,39.7583],[-83.3008,39.7565],[-83.3022,39.7534],[-83.3063,39.7522],[-83.3158,39.7549],[-83.3126,39.7608],[-83.3264,39.7679],[-83.3254,39.7713],[-83.3305,39.7722],[-83.326,39.7809],[-83.3277,39.7865],[-83.3342,39.7883],[-83.3344,39.7999],[-83.3373,39.7993],[-83.3508,39.8031],[-83.3565,39.8031],[-83.3603,39.8065],[-83.3646,39.8067],[-83.3645,39.8098],[-83.3686,39.812],[-83.37,39.8201],[-83.3758,39.8177],[-83.3774,39.8239],[-83.3842,39.821],[-83.3889,39.8283],[-83.3933,39.8266],[-83.3969,39.8286],[-83.3963,39.8308],[-83.3995,39.8363],[-83.4089,39.8376],[-83.4132,39.8394],[-83.4157,39.8426],[-83.4188,39.8387],[-83.4276,39.8355],[-83.4369,39.837],[-83.4497,39.8342],[-83.4508,39.8369],[-83.4488,39.84],[-83.4502,39.8408],[-83.4572,39.8375],[-83.461,39.84],[-83.4634,39.838],[-83.4673,39.838],[-83.4749,39.8347],[-83.4822,39.8389],[-83.4868,39.8389],[-83.4877,39.8362],[-83.4852,39.8329],[-83.4885,39.8308],[-83.4863,39.828],[-83.4909,39.825],[-83.491,39.8209],[-83.4898,39.8173],[-83.4874,39.8167],[-83.4885,39.8145],[-83.4817,39.8106],[-83.4846,39.8052],[-83.4892,39.8031],[-83.49,39.8003],[-83.4955,39.799],[-83.4896,39.7967],[-83.4905,39.7915],[-83.4931,39.7903],[-83.4935,39.7862],[-83.4857,39.783],[-83.4852,39.78],[-83.4875,39.7772],[-83.4842,39.7754],[-83.4814,39.7768],[-83.4788,39.7759],[-83.4781,39.7711],[-83.4688,39.7712],[-83.4672,39.7639],[-83.4685,39.7604],[-83.4666,39.7601],[-83.4663,39.7577],[-83.463,39.7545],[-83.4506,39.7533],[-83.4461,39.7506],[-83.4374,39.7523],[-83.434,39.7499],[-83.4278,39.7508],[-83.4243,39.7489],[-83.4204,39.7508],[-83.4105,39.7477],[-83.4053,39.7492],[-83.3996,39.7479],[-83.3998,39.7463],[-83.3924,39.7426],[-83.3894,39.736],[-83.3841,39.7307],[-83.385,39.728],[-83.3834,39.7272],[-83.3834,39.7249],[-83.3859,39.7213],[-83.3763,39.7117],[-83.3674,39.7123],[-83.3614,39.7154],[-83.3623,39.7182],[-83.3577,39.7199],[-83.3366,39.7176],[-83.3355,39.7161],[-83.3271,39.7147],[-83.3279,39.7127],[-83.3302,39.7124],[-83.3276,39.7108],[-83.3276,39.709],[-83.3253,39.7086],[-83.3293,39.7056],[-83.3289,39.6983],[-83.3325,39.6933],[-83.3313,39.6913],[-83.3356,39.6841],[-83.3355,39.6786],[-83.3381,39.6736],[-83.334,39.6689],[-83.3271,39.6657],[-83.33,39.6607],[-83.3289,39.6594],[-83.3308,39.657],[-83.3299,39.6536],[-83.3233,39.652],[-83.3238,39.6491],[-83.3207,39.6481],[-83.3098,39.6506],[-83.3101,39.6453],[-83.3065,39.6446],[-83.307,39.6432],[-83.3032,39.6413],[-83.3059,39.6392],[-83.3048,39.6371],[-83.3055,39.633],[-83.3023,39.6266],[-83.2968,39.6233],[-83.2978,39.6206],[-83.2922,39.6129],[-83.2953,39.6113],[-83.2911,39.6053],[-83.2898,39.6008],[-83.2847,39.5952],[-83.2855,39.5892],[-83.2828,39.5857],[-83.2704,39.5799],[-83.2661,39.5748],[-83.257,39.5723],[-83.2499,39.5743],[-83.2479,39.5778],[-83.2346,39.5758],[-83.2304,39.5771],[-83.2263,39.5753],[-83.2224,39.5767],[-83.2177,39.5818],[-83.2104,39.5772],[-83.2053,39.5775],[-83.2018,39.5742],[-83.1961,39.573],[-83.1777,39.5795],[-83.1736,39.5881],[-83.1654,39.5907],[-83.1633,39.6013],[-83.1612,39.603],[-83.1584,39.6026],[-83.1563,39.5991],[-83.1499,39.5987],[-83.1462,39.6004],[-83.147,39.6031],[-83.1441,39.6087],[-83.1403,39.61],[-83.134,39.605],[-83.1283,39.6072],[-83.127,39.6106],[-83.1412,39.6164],[-83.1411,39.6186],[-83.1429,39.62],[-83.1391,39.6225],[-83.1466,39.6262],[-83.1557,39.6277],[-83.1631,39.6356],[-83.1629,39.6398],[-83.1651,39.643],[-83.1646,39.648],[-83.1677,39.6495],[-83.169,39.658],[-83.1734,39.6605],[-83.1744,39.666],[-83.1803,39.6742],[-83.1834,39.688],[-83.1906,39.6962],[-83.1886,39.7133],[-83.192,39.7184],[-83.1998,39.7232],[-83.1966,39.7264],[-83.1963,39.7294],[-83.2002,39.7354],[-83.1972,39.7396],[-83.1992,39.7412],[-83.198,39.7418],[-83.1995,39.746],[-83.1987,39.749],[-83.2081,39.7579],[-83.2084,39.7607],[-83.2237,39.7813],[-83.2219,39.7838],[-83.2223,39.7984],[-83.2205,39.8075],[-83.2284,39.8163],[-83.2246,39.821],[-83.2264,39.8227],[-83.2354,39.8236],[-83.2368,39.8276],[-83.2354,39.8295],[-83.2411,39.8421],[-83.2413,39.8463],[-83.2449,39.8487],[-83.2452,39.8516],[-83.2468,39.8526],[-83.271,39.854],[-83.2853,39.8507],[-83.2877,39.8526],[-83.2979,39.8538],[-83.3003,39.8574],[-83.3044,39.8572],[-83.306,39.8556],[-83.3122,39.8574]]]},"properties":{"objectid":5725,"tnmid":"{943BB845-51F8-41F7-AFF3-7390E3B2B199}","metasourceid":"{511D2AC8-11BA-45FC-AB98-F69D693D4C44}","sourcedatadesc":"Watershed Boundary Dataset (WBD)","sourceoriginator":"Natural Resources and Conservation Service and U.S. Geological Survey","sourcefeatureid":null,"loaddate":1723726881000,"referencegnis_ids":"1046793,1039647","areaacres":105509.18,"areasqkm":426.98,"states":"OH","huc10":"0506000202","name":"Sugar Run-Deer Creek","hutype":"S","humod":"NM","globalid":"{20C60A3C-E29C-11E2-8094-0021280458E6}","shape_Length":207869.2544430654,"shape_Area":722597960.7841407}},{"type":"Feature","id":5728,"geometry":{"type":"Polygon","coordinates":[[[-82.9693,39.9817],[-82.9716,39.9877],[-82.9741,39.9831],[-82.9794,39.9813],[-82.9989,39.9815],[-82.9995,39.9788],[-83.0058,39.974],[-83.0114,39.9736],[-83.0114,39.9679],[-83.0144,39.9662],[-83.0141,39.9636],[-83.0194,39.9619],[-83.0502,39.9626],[-83.0544,39.9597],[-83.0557,39.9567],[-83.0754,39.9554],[-83.0842,39.9514],[-83.0954,39.9492],[-83.1092,39.9431],[-83.117,39.9448],[-83.1197,39.9463],[-83.1209,39.9499],[-83.127,39.9523],[-83.1418,39.9523],[-83.1452,39.9547],[-83.1477,39.9597],[-83.1512,39.9597],[-83.1526,39.963],[-83.1588,39.9572],[-83.1581,39.9522],[-83.1631,39.9452],[-83.16,39.9414],[-83.1658,39.9355],[-83.1614,39.9332],[-83.1625,39.9247],[-83.1525,39.9201],[-83.1462,39.9232],[-83.144,39.9191],[-83.1459,39.909],[-83.138,39.9024],[-83.1399,39.8938],[-83.144,39.8882],[-83.1421,39.8832],[-83.1443,39.8811],[-83.1422,39.8797],[-83.1417,39.875],[-83.1366,39.8743],[-83.1342,39.8719],[-83.1354,39.8666],[-83.1396,39.8619],[-83.1383,39.855],[-83.1264,39.8436],[-83.1367,39.8303],[-83.1346,39.8281],[-83.1364,39.8263],[-83.1297,39.8156],[-83.1279,39.8082],[-83.1271,39.8031],[-83.1283,39.7983],[-83.1308,39.7959],[-83.1234,39.7903],[-83.1197,39.7904],[-83.1156,39.7848],[-83.1149,39.7821],[-83.1175,39.7764],[-83.1166,39.7676],[-83.1139,39.7634],[-83.1078,39.7616],[-83.1021,39.7577],[-83.1014,39.7512],[-83.1046,39.7458],[-83.1043,39.7402],[-83.0946,39.7364],[-83.0883,39.7358],[-83.0914,39.7349],[-83.0938,39.7311],[-83.0993,39.7277],[-83.0983,39.7198],[-83.1012,39.7085],[-83.0798,39.7002],[-83.0751,39.6962],[-83.0604,39.6935],[-83.0583,39.6879],[-83.0519,39.6865],[-83.0492,39.6823],[-83.0512,39.6729],[-83.0434,39.6652],[-83.0411,39.6658],[-83.0408,39.6613],[-83.0383,39.6604],[-83.0366,39.6567],[-83.0333,39.6545],[-83.0287,39.6543],[-83.0277,39.6511],[-83.0192,39.6498],[-83.0154,39.644],[-83.0114,39.6442],[-83.0108,39.6456],[-82.9972,39.6392],[-82.9962,39.6367],[-82.9858,39.6363],[-82.985,39.6333],[-82.9757,39.6322],[-82.972,39.6295],[-82.9652,39.6287],[-82.964,39.6254],[-82.9651,39.6193],[-82.9625,39.6132],[-82.9588,39.6138],[-82.9576,39.616],[-82.9507,39.6196],[-82.94,39.6184],[-82.9349,39.6139],[-82.9324,39.6209],[-82.9271,39.6211],[-82.9277,39.6252],[-82.9224,39.6284],[-82.9188,39.6337],[-82.9092,39.6341],[-82.9054,39.6296],[-82.8939,39.6277],[-82.8884,39.6321],[-82.8856,39.6316],[-82.8831,39.6389],[-82.8757,39.641],[-82.8719,39.6462],[-82.8723,39.6514],[-82.8601,39.6528],[-82.8528,39.6559],[-82.8451,39.6555],[-82.8438,39.6587],[-82.8445,39.6615],[-82.8489,39.6625],[-82.8499,39.6665],[-82.8549,39.6701],[-82.8579,39.6703],[-82.8612,39.6681],[-82.8778,39.6766],[-82.8781,39.6747],[-82.8838,39.6714],[-82.8958,39.6669],[-82.9055,39.6698],[-82.9151,39.6701],[-82.9226,39.6746],[-82.9274,39.6749],[-82.9296,39.6837],[-82.9268,39.6975],[-82.9353,39.6986],[-82.937,39.7015],[-82.9412,39.7023],[-82.9504,39.7011],[-82.9553,39.696],[-82.9562,39.6839],[-82.9698,39.6844],[-82.9705,39.6793],[-82.9764,39.6729],[-82.9797,39.6749],[-82.9794,39.6769],[-82.9862,39.681],[-82.9885,39.694],[-82.986,39.7028],[-82.9933,39.7106],[-82.9965,39.7171],[-82.9877,39.7219],[-82.9881,39.7257],[-82.9906,39.7282],[-82.9887,39.737],[-82.9908,39.739],[-82.9907,39.7446],[-82.9939,39.748],[-82.9958,39.7556],[-82.9903,39.7566],[-82.9829,39.7516],[-82.9723,39.7516],[-82.9683,39.7548],[-82.9695,39.7608],[-82.9682,39.7642],[-82.9624,39.7655],[-82.9574,39.7643],[-82.941,39.7649],[-82.9389,39.7654],[-82.9381,39.77],[-82.9423,39.7759],[-82.944,39.7822],[-82.9408,39.7959],[-82.9429,39.8002],[-82.9477,39.7974],[-82.9575,39.798],[-82.9636,39.8043],[-82.9725,39.8034],[-82.979,39.7987],[-82.9915,39.7992],[-83.0003,39.797],[-83.0098,39.799],[-83.0044,39.8033],[-83.0047,39.805],[-82.9992,39.805],[-82.9948,39.8077],[-83.0012,39.824],[-83.0002,39.8352],[-82.9978,39.836],[-82.9993,39.8403],[-82.9979,39.8427],[-83.0027,39.8538],[-82.9985,39.8549],[-82.9967,39.851],[-82.993,39.8507],[-82.9942,39.844],[-82.9887,39.8434],[-82.9807,39.853],[-82.9727,39.8597],[-82.9648,39.8627],[-82.9615,39.8624],[-82.9572,39.8651],[-82.9622,39.8831],[-82.949,39.892],[-82.9465,39.9254],[-82.9486,39.9287],[-82.9553,39.9311],[-82.9625,39.9416],[-82.9649,39.9426],[-82.9673,39.9626],[-82.9659,39.9643],[-82.9663,39.9723],[-82.9693,39.9817]]]},"properties":{"objectid":5728,"tnmid":"{1F75DD6E-69C2-4C35-920A-7D279C534362}","metasourceid":"{511D2AC8-11BA-45FC-AB98-F69D693D4C44}","sourcedatadesc":"Watershed Boundary Dataset (WBD)","sourceoriginator":"Natural Resources and Conservation Service and U.S. Geological Survey","sourcefeatureid":null,"loaddate":1723726881000,"referencegnis_ids":"1066947,1072258","areaacres":119929.76,"areasqkm":485.34,"states":"OH","huc10":"0506000123","name":"Scioto Big Run-Scioto River","hutype":"S","humod":"NM","globalid":"{20C5EC77-E29C-11E2-8094-0021280458E6}","shape_Length":219593.28377217613,"shape_Area":823484811.0985415}},{"type":"Feature","id":5730,"geometry":{"type":"Polygon","coordinates":[[[-83.0074,40.3029],[-83.0085,40.3039],[-83.0063,40.305],[-83.0066,40.3076],[-83.0105,40.309],[-83.0243,40.3027],[-83.0357,40.3058],[-83.0462,40.3002],[-83.0586,40.2996],[-83.065,40.2955],[-83.0759,40.2925],[-83.0885,40.293],[-83.094,40.2953],[-83.0964,40.2899],[-83.1155,40.286],[-83.115,40.2805],[-83.1131,40.2812],[-83.112,40.2797],[-83.1153,40.2756],[-83.1115,40.2712],[-83.1165,40.2686],[-83.1237,40.2689],[-83.1216,40.2623],[-83.1164,40.2601],[-83.1171,40.2528],[-83.1136,40.2445],[-83.1122,40.2352],[-83.1098,40.233],[-83.1103,40.2299],[-83.1055,40.2275],[-83.1008,40.2277],[-83.0992,40.2249],[-83.1018,40.2186],[-83.1091,40.2135],[-83.1102,40.2061],[-83.108,40.1981],[-83.1087,40.1954],[-83.103,40.1858],[-83.1025,40.1794],[-83.0999,40.1786],[-83.0995,40.1679],[-83.0939,40.1656],[-83.0898,40.1618],[-83.0899,40.1583],[-83.092,40.1573],[-83.0933,40.1536],[-83.0918,40.145],[-83.0883,40.1403],[-83.0811,40.1354],[-83.0798,40.1324],[-83.0807,40.1273],[-83.079,40.1231],[-83.0824,40.1155],[-83.086,40.1125],[-83.0937,40.11],[-83.0926,40.1005],[-83.094,40.0904],[-83.0871,40.0862],[-83.0864,40.0825],[-83.0786,40.0794],[-83.0757,40.0749],[-83.0764,40.0522],[-83.0731,40.0475],[-83.0701,40.0293],[-83.0632,40.0261],[-83.0621,40.0213],[-83.0551,40.0091],[-83.0554,40.0052],[-83.0586,40.0031],[-83.0555,39.9967],[-83.0558,39.9905],[-83.0477,39.9868],[-83.0414,39.9813],[-83.0299,39.9769],[-83.0294,39.9718],[-83.0256,39.9682],[-83.018,39.9646],[-83.014,39.9651],[-83.0141,39.9665],[-83.0114,39.9679],[-83.0114,39.9736],[-83.0058,39.974],[-82.9995,39.9788],[-82.9992,39.9814],[-82.9808,39.9811],[-82.9741,39.9831],[-82.9716,39.9877],[-82.9702,39.997],[-82.9785,40.0243],[-82.9789,40.0289],[-82.976,40.0382],[-82.9792,40.0644],[-82.9774,40.0673],[-82.9852,40.0744],[-82.9837,40.0771],[-82.9838,40.086],[-82.9852,40.0923],[-82.9867,40.0932],[-82.9849,40.099],[-82.9888,40.101],[-82.9953,40.11],[-82.9969,40.1172],[-83.0033,40.1262],[-83.0057,40.139],[-83.0064,40.1506],[-83.0047,40.1547],[-83.0069,40.1597],[-83.0076,40.1696],[-83.0061,40.1734],[-83.0077,40.1765],[-83.002,40.1809],[-83.0018,40.184],[-82.9977,40.1894],[-82.9988,40.1913],[-83.006,40.1934],[-82.9997,40.1991],[-83.0017,40.2045],[-83.002,40.2155],[-83.0052,40.2219],[-83.0104,40.2216],[-83.0117,40.2276],[-83.0134,40.2517],[-83.0056,40.2551],[-83.0054,40.2583],[-83.0033,40.2595],[-83.0121,40.2672],[-83.0129,40.2714],[-83.0076,40.2732],[-83.0058,40.2772],[-83.0098,40.2863],[-83.004,40.2946],[-83.0058,40.2982],[-83.0036,40.3009],[-83.0074,40.3029]]]},"properties":{"objectid":5730,"tnmid":"{FB6FD5FD-0D3B-4349-9016-E9D0CD325344}","metasourceid":"{511D2AC8-11BA-45FC-AB98-F69D693D4C44}","sourcedatadesc":"Watershed Boundary Dataset (WBD)","sourceoriginator":"Natural Resources and Conservation Service and U.S. Geological Survey","sourcefeatureid":null,"loaddate":1723726881000,"referencegnis_ids":"1045277,1066873","areaacres":71399.42,"areasqkm":288.94,"states":"OH","huc10":"0506000111","name":"Rush Run-Olentangy River","hutype":"S","humod":"NM","globalid":"{20C4B040-E29C-11E2-8094-0021280458E6}","shape_Length":133211.90465467953,"shape_Area":495036405.0965624}},{"type":"Feature","id":5731,"geometry":{"type":"Polygon","coordinates":[[[-83.1171,40.2531],[-83.1164,40.2601],[-83.1216,40.2623],[-83.1287,40.2576],[-83.1337,40.2567],[-83.1363,40.2532],[-83.1435,40.2516],[-83.1478,40.2438],[-83.1508,40.2414],[-83.1604,40.2428],[-83.1633,40.2404],[-83.1677,40.2405],[-83.1699,40.236],[-83.1675,40.2269],[-83.1715,40.2242],[-83.1748,40.2165],[-83.1784,40.2128],[-83.1879,40.2081],[-83.1885,40.2065],[-83.196,40.2056],[-83.2056,40.1998],[-83.2113,40.1994],[-83.2151,40.1963],[-83.2223,40.1962],[-83.2254,40.1888],[-83.2227,40.1813],[-83.2232,40.1768],[-83.2182,40.1703],[-83.2185,40.1602],[-83.2132,40.1616],[-83.2105,40.1605],[-83.2143,40.1483],[-83.2226,40.1405],[-83.2185,40.1343],[-83.2193,40.1258],[-83.2174,40.124],[-83.2229,40.1157],[-83.2105,40.1042],[-83.2129,40.1026],[-83.211,40.1004],[-83.2118,40.0899],[-83.2102,40.0865],[-83.2145,40.0831],[-83.214,40.077],[-83.2166,40.0761],[-83.2172,40.074],[-83.2153,40.0726],[-83.2162,40.0708],[-83.2142,40.0707],[-83.2161,40.0667],[-83.2124,40.0634],[-83.2145,40.062],[-83.214,40.0586],[-83.1967,40.0594],[-83.1931,40.057],[-83.187,40.0477],[-83.1722,40.0394],[-83.1703,40.033],[-83.1602,40.0239],[-83.166,40.0164],[-83.1667,40.0041],[-83.1623,40.0039],[-83.1629,40.002],[-83.1563,39.9943],[-83.1571,39.9853],[-83.1548,39.9835],[-83.1568,39.9825],[-83.1542,39.98],[-83.1564,39.9778],[-83.156,39.973],[-83.1515,39.9601],[-83.1477,39.9597],[-83.1452,39.9547],[-83.1411,39.952],[-83.127,39.9523],[-83.1209,39.9499],[-83.1197,39.9463],[-83.117,39.9448],[-83.1092,39.9431],[-83.0954,39.9492],[-83.0842,39.9514],[-83.0754,39.9554],[-83.0557,39.9567],[-83.0544,39.9597],[-83.0502,39.9626],[-83.0194,39.9619],[-83.0141,39.9636],[-83.014,39.9651],[-83.0197,39.9648],[-83.0256,39.9682],[-83.0297,39.9723],[-83.0299,39.9769],[-83.0414,39.9813],[-83.0477,39.9868],[-83.0558,39.9905],[-83.0555,39.9967],[-83.0586,40.0031],[-83.0554,40.0052],[-83.0551,40.0091],[-83.0621,40.0213],[-83.0632,40.0261],[-83.0701,40.0293],[-83.0731,40.0475],[-83.0764,40.0522],[-83.0757,40.0749],[-83.0786,40.0794],[-83.0864,40.0825],[-83.0871,40.0862],[-83.0938,40.0899],[-83.0926,40.1005],[-83.0937,40.11],[-83.086,40.1125],[-83.0824,40.1155],[-83.079,40.1231],[-83.0807,40.1273],[-83.0798,40.1324],[-83.0811,40.1354],[-83.0883,40.1403],[-83.0918,40.145],[-83.0933,40.1536],[-83.092,40.1573],[-83.0899,40.1583],[-83.0898,40.1618],[-83.0939,40.1656],[-83.0995,40.1679],[-83.0999,40.1786],[-83.1025,40.1794],[-83.103,40.1858],[-83.1086,40.1953],[-83.108,40.1981],[-83.1102,40.2061],[-83.1091,40.2135],[-83.1018,40.2186],[-83.0992,40.2249],[-83.1008,40.2277],[-83.1055,40.2275],[-83.1103,40.2299],[-83.1098,40.233],[-83.1122,40.2352],[-83.1136,40.2445],[-83.1171,40.2531]]]},"properties":{"objectid":5731,"tnmid":"{B61C1D36-4DBE-473A-84AF-464AFC09F61F}","metasourceid":"{511D2AC8-11BA-45FC-AB98-F69D693D4C44}","sourcedatadesc":"Watershed Boundary Dataset (WBD)","sourceoriginator":"Natural Resources and Conservation Service and U.S. Geological Survey","sourcefeatureid":null,"loaddate":1723726881000,"referencegnis_ids":"1041969,1072258","areaacres":77106.18,"areasqkm":312.04,"states":"OH","huc10":"0506000112","name":"Indian Run-Scioto River","hutype":"S","humod":"NM","globalid":"{20C4CE0F-E29C-11E2-8094-0021280458E6}","shape_Length":133651.0349317046,"shape_Area":533824752.75002766}},{"type":"Feature","id":5732,"geometry":{"type":"Polygon","coordinates":[[[-82.8046,40.5366],[-82.8101,40.5344],[-82.8091,40.5197],[-82.807,40.5187],[-82.8126,40.5138],[-82.813,40.5103],[-82.8098,40.5081],[-82.8137,40.5037],[-82.8128,40.5012],[-82.81,40.5],[-82.8112,40.4965],[-82.8105,40.4909],[-82.8082,40.487],[-82.8092,40.4845],[-82.8071,40.4791],[-82.8098,40.4718],[-82.8072,40.4697],[-82.8081,40.4637],[-82.8064,40.4546],[-82.808,40.4504],[-82.8063,40.4468],[-82.8064,40.4408],[-82.8043,40.4391],[-82.8083,40.4369],[-82.8099,40.4303],[-82.8081,40.424],[-82.8094,40.4222],[-82.8079,40.4212],[-82.8115,40.4172],[-82.8094,40.4077],[-82.8114,40.4047],[-82.8105,40.4012],[-82.8126,40.3982],[-82.813,40.3903],[-82.8166,40.3868],[-82.8159,40.3841],[-82.8189,40.3792],[-82.8191,40.3737],[-82.8221,40.3667],[-82.8207,40.3637],[-82.8244,40.3615],[-82.8222,40.3551],[-82.8225,40.3505],[-82.8259,40.3495],[-82.8379,40.3514],[-82.8412,40.3555],[-82.842,40.3593],[-82.8458,40.3624],[-82.8566,40.3576],[-82.8638,40.3577],[-82.8677,40.3544],[-82.8739,40.3554],[-82.8794,40.352],[-82.8874,40.3524],[-82.8947,40.3557],[-82.9058,40.3487],[-82.9068,40.3419],[-82.9046,40.3372],[-82.8995,40.3366],[-82.8931,40.3291],[-82.9154,40.3121],[-82.9221,40.3028],[-82.9245,40.2952],[-82.9279,40.2594],[-82.9248,40.2577],[-82.9222,40.2527],[-82.9228,40.2492],[-82.9211,40.2453],[-82.9166,40.2402],[-82.9188,40.2361],[-82.9178,40.2327],[-82.9204,40.2268],[-82.9173,40.2216],[-82.9137,40.2029],[-82.918,40.1972],[-82.9093,40.1906],[-82.9121,40.1803],[-82.9096,40.1698],[-82.8786,40.1628],[-82.8815,40.1579],[-82.882,40.1515],[-82.8849,40.1487],[-82.884,40.1461],[-82.887,40.135],[-82.8856,40.1304],[-82.8906,40.1255],[-82.8866,40.1183],[-82.8887,40.1143],[-82.8886,40.1088],[-82.8778,40.1078],[-82.872,40.1097],[-82.87,40.1135],[-82.8647,40.1135],[-82.8609,40.1156],[-82.8533,40.1124],[-82.852,40.1083],[-82.849,40.1076],[-82.8453,40.1106],[-82.8453,40.1152],[-82.8478,40.121],[-82.8543,40.1226],[-82.8506,40.1256],[-82.8521,40.1295],[-82.8489,40.1299],[-82.8429,40.1342],[-82.8341,40.1364],[-82.8269,40.1323],[-82.8222,40.1324],[-82.8203,40.1411],[-82.8029,40.1469],[-82.7977,40.1449],[-82.7917,40.1454],[-82.7818,40.1409],[-82.7756,40.1416],[-82.7645,40.1394],[-82.7625,40.1378],[-82.7633,40.1341],[-82.7606,40.1357],[-82.7562,40.1346],[-82.743,40.1199],[-82.7357,40.1164],[-82.735,40.1096],[-82.7218,40.1027],[-82.7175,40.103],[-82.7129,40.0986],[-82.7117,40.1033],[-82.7076,40.1073],[-82.7147,40.1099],[-82.7278,40.1285],[-82.7355,40.1327],[-82.7311,40.1353],[-82.7353,40.1367],[-82.7363,40.1424],[-82.731,40.1488],[-82.7268,40.1513],[-82.7284,40.1528],[-82.7263,40.1535],[-82.7272,40.1555],[-82.7259,40.1576],[-82.7365,40.1616],[-82.7373,40.1645],[-82.745,40.1692],[-82.7336,40.1834],[-82.7365,40.1851],[-82.7346,40.1885],[-82.7387,40.1934],[-82.737,40.1993],[-82.7399,40.2081],[-82.7406,40.2166],[-82.743,40.2196],[-82.7423,40.222],[-82.7369,40.2212],[-82.7328,40.2182],[-82.7152,40.2177],[-82.7137,40.2254],[-82.716,40.2299],[-82.7143,40.234],[-82.7163,40.2379],[-82.7135,40.2404],[-82.7157,40.2486],[-82.7135,40.2523],[-82.7181,40.2581],[-82.7193,40.2729],[-82.724,40.2751],[-82.7291,40.2825],[-82.7259,40.2847],[-82.7268,40.2869],[-82.7246,40.288],[-82.7243,40.2941],[-82.7272,40.2968],[-82.7265,40.2988],[-82.7334,40.3083],[-82.7334,40.3107],[-82.739,40.3142],[-82.7406,40.3202],[-82.7379,40.3238],[-82.7315,40.3223],[-82.7251,40.3235],[-82.7233,40.3293],[-82.7173,40.332],[-82.7222,40.3463],[-82.7186,40.3463],[-82.7177,40.3493],[-82.7191,40.352],[-82.7175,40.3528],[-82.7191,40.3548],[-82.7193,40.3604],[-82.7244,40.3622],[-82.7241,40.3697],[-82.7212,40.375],[-82.7103,40.3779],[-82.7101,40.3847],[-82.707,40.3851],[-82.7115,40.3938],[-82.7196,40.3923],[-82.7197,40.3984],[-82.7212,40.3996],[-82.7242,40.3983],[-82.7271,40.4002],[-82.731,40.4001],[-82.7327,40.3958],[-82.7355,40.3957],[-82.7472,40.3999],[-82.7452,40.4056],[-82.7519,40.4117],[-82.7525,40.4148],[-82.7482,40.4215],[-82.7515,40.4259],[-82.7473,40.4325],[-82.7497,40.4355],[-82.7489,40.4377],[-82.7518,40.4389],[-82.7554,40.4361],[-82.7598,40.4394],[-82.7604,40.4465],[-82.7632,40.4472],[-82.7668,40.4548],[-82.7723,40.4581],[-82.7712,40.4609],[-82.7637,40.4653],[-82.7646,40.4702],[-82.7684,40.4748],[-82.7682,40.4782],[-82.7662,40.4803],[-82.7697,40.4825],[-82.7685,40.489],[-82.7663,40.4912],[-82.7713,40.5014],[-82.7699,40.5041],[-82.7752,40.5124],[-82.7782,40.512],[-82.7804,40.5137],[-82.7821,40.5207],[-82.786,40.5206],[-82.7884,40.5245],[-82.7945,40.5266],[-82.7926,40.5299],[-82.7959,40.5351],[-82.798,40.5365],[-82.8046,40.5366]]]},"properties":{"objectid":5732,"tnmid":"{A012EBC2-DA83-4653-B6F2-E1966B02A73F}","metasourceid":"{511D2AC8-11BA-45FC-AB98-F69D693D4C44}","sourcedatadesc":"Watershed Boundary Dataset (WBD)","sourceoriginator":"Natural Resources and Conservation Service and U.S. Geological Survey","sourcefeatureid":null,"loaddate":1723726881000,"referencegnis_ids":"1066576","areaacres":120880.77,"areasqkm":489.19,"states":"OH","huc10":"0506000113","name":"Headwaters Big Walnut Creek","hutype":"S","humod":"NM","globalid":"{20C4E5CE-E29C-11E2-8094-0021280458E6}","shape_Length":214825.4350858483,"shape_Area":841457354.3518856}},{"type":"Feature","id":5733,"geometry":{"type":"Polygon","coordinates":[[[-82.8129,40.5373],[-82.824,40.5358],[-82.828,40.5319],[-82.831,40.5315],[-82.8329,40.5292],[-82.833,40.5258],[-82.8381,40.5259],[-82.8388,40.5245],[-82.8468,40.523],[-82.8469,40.5218],[-82.8437,40.5204],[-82.8464,40.5155],[-82.8447,40.5148],[-82.8436,40.511],[-82.8448,40.5079],[-82.8429,40.5052],[-82.845,40.4881],[-82.8466,40.4874],[-82.8508,40.4903],[-82.8566,40.487],[-82.8604,40.4904],[-82.8636,40.4883],[-82.8735,40.4873],[-82.8777,40.491],[-82.8856,40.4923],[-82.8937,40.4912],[-82.895,40.489],[-82.9028,40.4901],[-82.9081,40.4845],[-82.9059,40.4782],[-82.9072,40.4756],[-82.9064,40.469],[-82.9079,40.4674],[-82.904,40.4654],[-82.9068,40.4611],[-82.9038,40.4592],[-82.907,40.4542],[-82.9067,40.4509],[-82.9105,40.4501],[-82.913,40.4454],[-82.9201,40.4455],[-82.922,40.441],[-82.9281,40.4399],[-82.9344,40.4336],[-82.9391,40.4335],[-82.9407,40.437],[-82.943,40.4375],[-82.9532,40.4288],[-82.9566,40.4299],[-82.9587,40.4281],[-82.9549,40.4175],[-82.9567,40.4154],[-82.955,40.4132],[-82.957,40.4063],[-82.9563,40.4015],[-82.952,40.3972],[-82.9541,40.3935],[-82.9502,40.3907],[-82.9507,40.3833],[-82.9607,40.3793],[-82.9722,40.3861],[-82.9763,40.3847],[-82.9768,40.3794],[-82.9753,40.3787],[-82.9869,40.3606],[-82.9873,40.3564],[-82.9777,40.3559],[-82.9759,40.3546],[-82.9758,40.3503],[-82.9865,40.344],[-82.9995,40.3411],[-83.0158,40.3142],[-83.0104,40.3105],[-83.0099,40.3082],[-83.0067,40.3077],[-83.0063,40.305],[-83.0085,40.3037],[-83.0036,40.3009],[-83.0058,40.2982],[-83.004,40.2946],[-83.0098,40.2863],[-83.0058,40.2772],[-83.0076,40.2732],[-83.0129,40.2715],[-83.0121,40.2672],[-83.0033,40.2594],[-83.0054,40.2583],[-83.0056,40.2551],[-83.0134,40.2517],[-83.0104,40.2216],[-83.0055,40.222],[-83.0039,40.2206],[-83.0015,40.2121],[-83.0017,40.2045],[-82.9997,40.1991],[-83.0058,40.1939],[-83.0041,40.1921],[-82.9988,40.1913],[-82.9971,40.1893],[-82.9922,40.191],[-82.9861,40.1895],[-82.9811,40.1911],[-82.9807,40.1862],[-82.9788,40.1846],[-82.9705,40.184],[-82.9647,40.1871],[-82.9559,40.187],[-82.9408,40.1908],[-82.9384,40.1943],[-82.9366,40.194],[-82.9331,40.1973],[-82.9272,40.1987],[-82.9177,40.1983],[-82.914,40.2021],[-82.9173,40.2216],[-82.9204,40.2268],[-82.9178,40.2327],[-82.9188,40.2361],[-82.9166,40.2402],[-82.9211,40.2453],[-82.9228,40.2492],[-82.9222,40.2527],[-82.9248,40.2577],[-82.9279,40.2594],[-82.9245,40.2952],[-82.9221,40.3028],[-82.9154,40.3121],[-82.8931,40.3291],[-82.8995,40.3366],[-82.9046,40.3372],[-82.9068,40.3419],[-82.9058,40.3487],[-82.8947,40.3557],[-82.8874,40.3524],[-82.8794,40.352],[-82.8739,40.3554],[-82.8677,40.3544],[-82.8638,40.3577],[-82.8566,40.3576],[-82.8458,40.3624],[-82.842,40.3593],[-82.8412,40.3555],[-82.8379,40.3514],[-82.8259,40.3495],[-82.8225,40.3505],[-82.8222,40.3551],[-82.8244,40.3615],[-82.8207,40.3637],[-82.8221,40.3667],[-82.8191,40.3737],[-82.8189,40.3792],[-82.8159,40.3841],[-82.8166,40.3868],[-82.813,40.3903],[-82.8126,40.3982],[-82.8105,40.4012],[-82.8114,40.4047],[-82.8094,40.4077],[-82.8115,40.4172],[-82.8079,40.4212],[-82.8094,40.4222],[-82.8081,40.424],[-82.8099,40.4303],[-82.8083,40.4369],[-82.8043,40.4391],[-82.8064,40.4408],[-82.8063,40.4468],[-82.808,40.4504],[-82.8064,40.4546],[-82.8081,40.4637],[-82.8072,40.4697],[-82.8098,40.4718],[-82.8071,40.4791],[-82.8092,40.4845],[-82.8082,40.487],[-82.8105,40.4909],[-82.8112,40.4965],[-82.81,40.5],[-82.8128,40.5012],[-82.8137,40.5037],[-82.8098,40.5081],[-82.813,40.5103],[-82.8126,40.5138],[-82.807,40.5189],[-82.8091,40.5197],[-82.8107,40.53],[-82.8094,40.5357],[-82.8129,40.5373]]]},"properties":{"objectid":5733,"tnmid":"{B01A81A3-4824-4648-84F4-4B7C89EB07FB}","metasourceid":"{511D2AC8-11BA-45FC-AB98-F69D693D4C44}","sourcedatadesc":"Watershed Boundary Dataset (WBD)","sourceoriginator":"Natural Resources and Conservation Service and U.S. Geological Survey","sourcefeatureid":null,"loaddate":1723726881000,"referencegnis_ids":"1057290","areaacres":78360.03,"areasqkm":317.11,"states":"OH","huc10":"0506000114","name":"Headwaters Alum Creek","hutype":"S","humod":"NM","globalid":"{20C50396-E29C-11E2-8094-0021280458E6}","shape_Length":163516.983344921,"shape_Area":546716759.5561084}},{"type":"Feature","id":5734,"geometry":{"type":"Polygon","coordinates":[[[-82.8027,40.1468],[-82.8203,40.1411],[-82.8222,40.1324],[-82.8269,40.1323],[-82.8341,40.1364],[-82.8429,40.1342],[-82.8489,40.1299],[-82.8521,40.1295],[-82.8506,40.1256],[-82.8543,40.1226],[-82.8478,40.121],[-82.8453,40.1152],[-82.8453,40.1106],[-82.849,40.1076],[-82.852,40.1083],[-82.8533,40.1124],[-82.8609,40.1156],[-82.8647,40.1135],[-82.87,40.1135],[-82.872,40.1097],[-82.8778,40.1078],[-82.8886,40.1088],[-82.8898,40.0989],[-82.8939,40.0977],[-82.8966,40.0948],[-82.8969,40.0913],[-82.9005,40.0867],[-82.9081,40.0824],[-82.908,40.0785],[-82.9117,40.0749],[-82.9086,40.0613],[-82.914,40.0562],[-82.9138,40.0439],[-82.9157,40.0432],[-82.9147,40.0395],[-82.9175,40.0376],[-82.92,40.0329],[-82.9214,40.0257],[-82.9235,40.0255],[-82.9225,40.0113],[-82.9249,40.0043],[-82.927,40.004],[-82.9276,40.0012],[-82.9309,39.9995],[-82.9309,39.9932],[-82.929,39.9891],[-82.9305,39.9815],[-82.9126,39.9733],[-82.9101,39.9705],[-82.9102,39.9561],[-82.9083,39.9513],[-82.9131,39.9424],[-82.908,39.9258],[-82.9095,39.9183],[-82.9092,39.9172],[-82.9055,39.9168],[-82.9058,39.9154],[-82.9002,39.9102],[-82.8984,39.9063],[-82.9,39.9026],[-82.9039,39.9015],[-82.9053,39.8994],[-82.9079,39.8892],[-82.9073,39.8824],[-82.9063,39.881],[-82.9026,39.8811],[-82.9024,39.8737],[-82.8985,39.8674],[-82.8868,39.8675],[-82.881,39.8645],[-82.8741,39.8687],[-82.8661,39.8682],[-82.8506,39.8754],[-82.8354,39.8748],[-82.8329,39.8773],[-82.8338,39.8817],[-82.8365,39.884],[-82.8341,39.8965],[-82.8152,39.8964],[-82.8048,39.899],[-82.8003,39.9049],[-82.7809,39.9111],[-82.7796,39.9151],[-82.7807,39.9177],[-82.776,39.9182],[-82.7566,39.926],[-82.7557,39.9295],[-82.7519,39.932],[-82.7499,39.936],[-82.7387,39.9407],[-82.7364,39.9451],[-82.737,39.9529],[-82.734,39.9654],[-82.7381,39.9819],[-82.7355,39.9888],[-82.7375,39.9908],[-82.7335,39.9955],[-82.7483,40.006],[-82.7504,40.0089],[-82.7505,40.0128],[-82.7554,40.0139],[-82.7593,40.0182],[-82.7571,40.0262],[-82.7598,40.0302],[-82.7577,40.0325],[-82.762,40.0382],[-82.7623,40.041],[-82.7604,40.0449],[-82.7559,40.047],[-82.7538,40.0508],[-82.7478,40.052],[-82.7477,40.0547],[-82.7456,40.0546],[-82.7454,40.0562],[-82.7486,40.0587],[-82.7461,40.062],[-82.7431,40.0611],[-82.7441,40.0742],[-82.7422,40.0761],[-82.7428,40.0784],[-82.7379,40.0829],[-82.7352,40.0919],[-82.7287,40.0946],[-82.7152,40.0919],[-82.7112,40.097],[-82.7175,40.103],[-82.7218,40.1027],[-82.735,40.1096],[-82.7357,40.1164],[-82.743,40.1199],[-82.7562,40.1346],[-82.7606,40.1357],[-82.7633,40.1341],[-82.7625,40.1378],[-82.7645,40.1394],[-82.7756,40.1416],[-82.7818,40.1409],[-82.7911,40.1452],[-82.7977,40.1449],[-82.8027,40.1468]]]},"properties":{"objectid":5734,"tnmid":"{BFE9A2B5-D202-44CB-BBE6-C5DA2E009FF5}","metasourceid":"{511D2AC8-11BA-45FC-AB98-F69D693D4C44}","sourcedatadesc":"Watershed Boundary Dataset (WBD)","sourceoriginator":"Natural Resources and Conservation Service and U.S. Geological Survey","sourcefeatureid":null,"loaddate":1723726881000,"referencegnis_ids":"1066588,1066576","areaacres":93364.89,"areasqkm":377.83,"states":"OH","huc10":"0506000115","name":"Blacklick Creek-Big Walnut Creek","hutype":"S","humod":"NM","globalid":"{20C51A5F-E29C-11E2-8094-0021280458E6}","shape_Length":130408.9235843599,"shape_Area":644809940.8177086}},{"type":"Feature","id":5735,"geometry":{"type":"Polygon","coordinates":[[[-82.9179,40.1978],[-82.932,40.1978],[-82.9366,40.194],[-82.9384,40.1943],[-82.9408,40.1908],[-82.9559,40.187],[-82.9647,40.1871],[-82.9705,40.184],[-82.9788,40.1846],[-82.9807,40.1862],[-82.9811,40.1911],[-82.9861,40.1895],[-82.9932,40.1909],[-82.9985,40.1886],[-83.0018,40.184],[-83.0016,40.1814],[-83.0077,40.1765],[-83.0061,40.1734],[-83.0076,40.1696],[-83.0069,40.1597],[-83.0047,40.1547],[-83.0064,40.1506],[-83.0057,40.139],[-83.0033,40.1262],[-82.9969,40.1172],[-82.9949,40.1093],[-82.9888,40.101],[-82.9849,40.099],[-82.9867,40.0932],[-82.9852,40.0923],[-82.9838,40.086],[-82.9837,40.0771],[-82.9852,40.0744],[-82.9774,40.0673],[-82.9792,40.0644],[-82.976,40.0382],[-82.9789,40.0276],[-82.9757,40.0121],[-82.9702,39.997],[-82.9721,39.9903],[-82.9663,39.9723],[-82.9659,39.9643],[-82.9673,39.9626],[-82.9649,39.9426],[-82.9625,39.9416],[-82.9553,39.9311],[-82.9482,39.9284],[-82.9463,39.9237],[-82.9491,39.8917],[-82.9622,39.8831],[-82.957,39.8652],[-82.9615,39.8624],[-82.9648,39.8627],[-82.9727,39.8597],[-82.9807,39.853],[-82.9887,39.8434],[-82.9942,39.844],[-82.993,39.8507],[-82.9967,39.851],[-82.9985,39.8549],[-83.0027,39.8538],[-82.9979,39.8427],[-82.9993,39.8403],[-82.9978,39.836],[-83.0002,39.8352],[-83.0012,39.824],[-82.9948,39.8077],[-82.9992,39.805],[-83.0047,39.805],[-83.0044,39.8033],[-83.0098,39.799],[-83.0076,39.7979],[-83.0003,39.797],[-82.9915,39.7992],[-82.979,39.7987],[-82.9725,39.8034],[-82.9634,39.8043],[-82.9577,39.798],[-82.947,39.7976],[-82.9398,39.803],[-82.9381,39.8053],[-82.9389,39.8078],[-82.9362,39.8112],[-82.9362,39.8126],[-82.9434,39.8145],[-82.9457,39.8341],[-82.9421,39.8358],[-82.939,39.8344],[-82.9357,39.8379],[-82.932,39.8378],[-82.9229,39.8436],[-82.9186,39.8484],[-82.9225,39.852],[-82.9255,39.8598],[-82.9162,39.8614],[-82.9097,39.8595],[-82.9069,39.8483],[-82.9029,39.8457],[-82.8997,39.8522],[-82.8951,39.8515],[-82.8924,39.8493],[-82.8818,39.8539],[-82.8832,39.8605],[-82.8812,39.8649],[-82.8868,39.8675],[-82.8985,39.8674],[-82.9024,39.8737],[-82.9026,39.8811],[-82.9063,39.881],[-82.9073,39.8824],[-82.9079,39.8892],[-82.9053,39.8994],[-82.9039,39.9015],[-82.9,39.9026],[-82.8984,39.9063],[-82.9002,39.9102],[-82.9058,39.9154],[-82.9055,39.9168],[-82.9092,39.9172],[-82.9095,39.9183],[-82.908,39.9258],[-82.9131,39.9424],[-82.9083,39.9513],[-82.9102,39.9561],[-82.9101,39.9704],[-82.9126,39.9733],[-82.9231,39.9787],[-82.93,39.9805],[-82.9304,39.9857],[-82.929,39.9891],[-82.9309,39.9932],[-82.931,39.9991],[-82.9276,40.0012],[-82.927,40.004],[-82.9249,40.0043],[-82.9225,40.0113],[-82.9235,40.0255],[-82.9214,40.0257],[-82.92,40.0329],[-82.9175,40.0376],[-82.9147,40.0395],[-82.9157,40.0432],[-82.9138,40.0439],[-82.914,40.0562],[-82.9086,40.0613],[-82.9117,40.0749],[-82.908,40.0785],[-82.9081,40.0824],[-82.9005,40.0867],[-82.8969,40.0913],[-82.8966,40.0948],[-82.8939,40.0977],[-82.8898,40.0989],[-82.8887,40.1143],[-82.8866,40.1182],[-82.8906,40.1255],[-82.8856,40.1304],[-82.887,40.135],[-82.884,40.1461],[-82.8849,40.1487],[-82.882,40.1515],[-82.8815,40.1579],[-82.8785,40.1625],[-82.9096,40.1698],[-82.9121,40.1803],[-82.9093,40.1906],[-82.9179,40.1978]]]},"properties":{"objectid":5735,"tnmid":"{E8748FBD-9FCA-4A30-8F12-75EFA8649739}","metasourceid":"{511D2AC8-11BA-45FC-AB98-F69D693D4C44}","sourcedatadesc":"Watershed Boundary Dataset (WBD)","sourceoriginator":"Natural Resources and Conservation Service and U.S. Geological Survey","sourcefeatureid":null,"loaddate":1723726881000,"referencegnis_ids":"1066550,1066576","areaacres":64254.04,"areasqkm":260.03,"states":"OH","huc10":"0506000116","name":"Alum Creek-Big Walnut Creek","hutype":"S","humod":"NM","globalid":"{20C53826-E29C-11E2-8094-0021280458E6}","shape_Length":171524.4667132645,"shape_Area":443933401.40076655}},{"type":"Feature","id":5736,"geometry":{"type":"Polygon","coordinates":[[[-82.7254,39.983],[-82.7334,39.9951],[-82.7373,39.9914],[-82.7355,39.9888],[-82.7379,39.9842],[-82.7379,39.9795],[-82.734,39.9654],[-82.737,39.9532],[-82.7369,39.9446],[-82.7347,39.9428],[-82.7342,39.9387],[-82.724,39.9259],[-82.7256,39.9212],[-82.7309,39.9147],[-82.7409,39.9082],[-82.7511,39.9059],[-82.7558,39.9001],[-82.7619,39.8962],[-82.7645,39.898],[-82.7684,39.8978],[-82.7723,39.8928],[-82.771,39.8903],[-82.7722,39.8853],[-82.7679,39.884],[-82.7679,39.8805],[-82.7745,39.8765],[-82.7745,39.875],[-82.7709,39.8747],[-82.7699,39.8724],[-82.7663,39.8728],[-82.7635,39.8703],[-82.7653,39.8689],[-82.7683,39.8693],[-82.7675,39.8658],[-82.7656,39.8648],[-82.7668,39.8626],[-82.7622,39.8584],[-82.7621,39.8545],[-82.7577,39.848],[-82.7595,39.8451],[-82.7531,39.8409],[-82.7518,39.8383],[-82.7523,39.8303],[-82.7558,39.8261],[-82.7502,39.82],[-82.7454,39.8178],[-82.7426,39.8133],[-82.7493,39.8131],[-82.7511,39.8108],[-82.7587,39.8108],[-82.7585,39.8051],[-82.7681,39.7992],[-82.7673,39.7972],[-82.7704,39.7951],[-82.7686,39.7915],[-82.7732,39.7848],[-82.7696,39.7823],[-82.7687,39.7845],[-82.7637,39.7865],[-82.7506,39.7771],[-82.7473,39.7762],[-82.744,39.7777],[-82.74,39.7706],[-82.731,39.7646],[-82.7213,39.7612],[-82.7219,39.7601],[-82.7185,39.7569],[-82.7189,39.7545],[-82.7171,39.7526],[-82.7127,39.7568],[-82.706,39.7598],[-82.7045,39.7628],[-82.699,39.7631],[-82.6969,39.7691],[-82.6916,39.7723],[-82.6863,39.772],[-82.6833,39.7768],[-82.6832,39.7802],[-82.6714,39.7849],[-82.6705,39.7874],[-82.6628,39.7884],[-82.6557,39.7925],[-82.6483,39.7901],[-82.6424,39.7911],[-82.6413,39.7921],[-82.6421,39.795],[-82.6389,39.7961],[-82.6356,39.7945],[-82.6319,39.795],[-82.6288,39.8007],[-82.6161,39.8055],[-82.6129,39.8045],[-82.6094,39.801],[-82.6106,39.7987],[-82.6058,39.7962],[-82.608,39.7926],[-82.6109,39.7914],[-82.6077,39.7849],[-82.6053,39.7844],[-82.6006,39.7796],[-82.5819,39.7902],[-82.5746,39.7916],[-82.5563,39.7883],[-82.5519,39.7904],[-82.5286,39.7903],[-82.5263,39.7895],[-82.5238,39.7849],[-82.5197,39.7845],[-82.516,39.7817],[-82.5108,39.7842],[-82.5111,39.7858],[-82.5072,39.7895],[-82.5065,39.7964],[-82.501,39.7992],[-82.506,39.8058],[-82.5052,39.8079],[-82.5078,39.8125],[-82.506,39.8136],[-82.5057,39.8177],[-82.5068,39.8195],[-82.5058,39.8221],[-82.5088,39.8249],[-82.5076,39.8349],[-82.5001,39.8403],[-82.48,39.8476],[-82.4754,39.851],[-82.4704,39.8506],[-82.4571,39.8454],[-82.4519,39.8495],[-82.4477,39.8461],[-82.4405,39.8475],[-82.4375,39.8459],[-82.4337,39.8501],[-82.4305,39.851],[-82.4308,39.8553],[-82.4294,39.8567],[-82.4345,39.8627],[-82.4344,39.8679],[-82.4379,39.874],[-82.4545,39.8735],[-82.4579,39.8786],[-82.4602,39.8868],[-82.4675,39.8856],[-82.4707,39.8873],[-82.488,39.8885],[-82.4939,39.8852],[-82.4958,39.8816],[-82.504,39.8788],[-82.5163,39.8838],[-82.5229,39.8824],[-82.5315,39.8897],[-82.5317,39.8938],[-82.5447,39.9005],[-82.5474,39.8999],[-82.5512,39.902],[-82.5795,39.9012],[-82.6024,39.8979],[-82.6151,39.912],[-82.6267,39.9149],[-82.6361,39.9225],[-82.6419,39.9226],[-82.6429,39.9287],[-82.6407,39.9344],[-82.651,39.9346],[-82.6548,39.9404],[-82.6583,39.9415],[-82.6645,39.9399],[-82.6667,39.9413],[-82.6747,39.939],[-82.68,39.9464],[-82.6893,39.9467],[-82.6938,39.9494],[-82.6961,39.9545],[-82.707,39.9569],[-82.7081,39.9614],[-82.7051,39.9634],[-82.7055,39.9669],[-82.7084,39.9678],[-82.7098,39.966],[-82.7145,39.968],[-82.7153,39.9703],[-82.7127,39.9737],[-82.716,39.9785],[-82.7211,39.9828],[-82.7254,39.983]]]},"properties":{"objectid":5736,"tnmid":"{F3F92E22-C1F6-4C07-A083-320243917D71}","metasourceid":"{511D2AC8-11BA-45FC-AB98-F69D693D4C44}","sourcedatadesc":"Watershed Boundary Dataset (WBD)","sourceoriginator":"Natural Resources and Conservation Service and U.S. Geological Survey","sourcefeatureid":null,"loaddate":1723726881000,"referencegnis_ids":"1047526","areaacres":88391.88,"areasqkm":357.71,"states":"OH","huc10":"0506000117","name":"Headwaters Walnut Creek","hutype":"S","humod":"NM","globalid":"{20C54EF3-E29C-11E2-8094-0021280458E6}","shape_Length":160247.37478652527,"shape_Area":607735467.8874904}},{"type":"Feature","id":5737,"geometry":{"type":"Polygon","coordinates":[[[-82.7342,39.9387],[-82.7347,39.9428],[-82.7369,39.9446],[-82.7387,39.9407],[-82.7499,39.936],[-82.7519,39.932],[-82.7557,39.9295],[-82.7566,39.926],[-82.776,39.9182],[-82.7807,39.9177],[-82.7796,39.9151],[-82.7809,39.9111],[-82.8003,39.9049],[-82.8057,39.8986],[-82.8225,39.8958],[-82.834,39.8966],[-82.8365,39.884],[-82.8338,39.8817],[-82.8338,39.8759],[-82.8367,39.8745],[-82.8398,39.8759],[-82.8506,39.8754],[-82.8661,39.8682],[-82.8745,39.8684],[-82.881,39.8645],[-82.8832,39.8605],[-82.8818,39.8537],[-82.8842,39.8518],[-82.8926,39.8493],[-82.8951,39.8515],[-82.8996,39.8522],[-82.9029,39.8457],[-82.9069,39.8483],[-82.9097,39.8595],[-82.9162,39.8614],[-82.9255,39.8598],[-82.9225,39.852],[-82.9186,39.8484],[-82.9229,39.8436],[-82.932,39.8378],[-82.9357,39.8379],[-82.939,39.8344],[-82.9421,39.8358],[-82.9457,39.8341],[-82.9434,39.8145],[-82.9362,39.8122],[-82.939,39.8074],[-82.9381,39.8053],[-82.9429,39.8002],[-82.9408,39.7959],[-82.9441,39.785],[-82.9423,39.7759],[-82.9384,39.7712],[-82.9389,39.7654],[-82.9669,39.7648],[-82.9694,39.761],[-82.9683,39.7547],[-82.9723,39.7516],[-82.9829,39.7516],[-82.9903,39.7566],[-82.9959,39.7554],[-82.9939,39.748],[-82.9907,39.7446],[-82.9908,39.739],[-82.9887,39.737],[-82.9906,39.7282],[-82.9881,39.7257],[-82.9877,39.7219],[-82.9965,39.7171],[-82.9933,39.7106],[-82.986,39.7028],[-82.9885,39.694],[-82.9859,39.6806],[-82.9794,39.6769],[-82.9797,39.6749],[-82.9764,39.6729],[-82.9705,39.6793],[-82.9698,39.6844],[-82.9562,39.6839],[-82.9552,39.6961],[-82.9492,39.702],[-82.9373,39.7016],[-82.9353,39.6986],[-82.9268,39.6974],[-82.9296,39.6837],[-82.9274,39.6749],[-82.9226,39.6746],[-82.9151,39.6701],[-82.9055,39.6698],[-82.8958,39.6669],[-82.8838,39.6714],[-82.8781,39.6747],[-82.8778,39.6766],[-82.8612,39.6681],[-82.8579,39.6703],[-82.8549,39.6701],[-82.8499,39.6665],[-82.8489,39.6625],[-82.8445,39.6615],[-82.8444,39.6568],[-82.8416,39.6552],[-82.8396,39.6515],[-82.826,39.6488],[-82.8227,39.6528],[-82.8227,39.6576],[-82.8188,39.6602],[-82.8213,39.6643],[-82.8211,39.6684],[-82.818,39.6689],[-82.8182,39.671],[-82.8135,39.674],[-82.8068,39.6746],[-82.8057,39.6798],[-82.7929,39.6738],[-82.7875,39.6773],[-82.7816,39.6778],[-82.7861,39.6814],[-82.7841,39.6854],[-82.7864,39.6883],[-82.7825,39.6921],[-82.782,39.6966],[-82.7789,39.701],[-82.7802,39.7077],[-82.7815,39.71],[-82.7859,39.7109],[-82.7876,39.7146],[-82.792,39.7167],[-82.7895,39.7178],[-82.7873,39.7219],[-82.7868,39.7297],[-82.7836,39.731],[-82.7781,39.7365],[-82.7745,39.7346],[-82.7648,39.7349],[-82.761,39.7386],[-82.756,39.7382],[-82.7527,39.7406],[-82.7536,39.7432],[-82.7517,39.7455],[-82.7479,39.7468],[-82.7476,39.7499],[-82.7545,39.7534],[-82.7632,39.7551],[-82.7654,39.7585],[-82.7736,39.7619],[-82.7743,39.7685],[-82.7801,39.774],[-82.7861,39.7768],[-82.7696,39.7823],[-82.7732,39.7848],[-82.7686,39.7915],[-82.7704,39.7953],[-82.7673,39.7972],[-82.7681,39.7992],[-82.7585,39.8051],[-82.7587,39.8108],[-82.7511,39.8108],[-82.7493,39.8131],[-82.7426,39.8133],[-82.7454,39.8178],[-82.7502,39.82],[-82.7558,39.8261],[-82.7523,39.8303],[-82.7518,39.8383],[-82.7531,39.8409],[-82.7595,39.8451],[-82.7577,39.848],[-82.7621,39.8545],[-82.7622,39.8584],[-82.7668,39.8626],[-82.7656,39.8648],[-82.7675,39.8658],[-82.7683,39.8693],[-82.7653,39.8689],[-82.7635,39.8703],[-82.7663,39.8728],[-82.7699,39.8724],[-82.7709,39.8747],[-82.7745,39.875],[-82.7745,39.8765],[-82.7679,39.8805],[-82.7679,39.884],[-82.7722,39.8853],[-82.771,39.8903],[-82.7723,39.8928],[-82.7684,39.8978],[-82.7645,39.898],[-82.7617,39.8962],[-82.7558,39.9001],[-82.7511,39.9059],[-82.7409,39.9082],[-82.7279,39.918],[-82.724,39.9259],[-82.7342,39.9387]]]},"properties":{"objectid":5737,"tnmid":"{624386D8-E908-4ED4-8F9B-93384DE51C8C}","metasourceid":"{511D2AC8-11BA-45FC-AB98-F69D693D4C44}","sourcedatadesc":"Watershed Boundary Dataset (WBD)","sourceoriginator":"Natural Resources and Conservation Service and U.S. Geological Survey","sourcefeatureid":null,"loaddate":1723726881000,"referencegnis_ids":"1060556,1047526","areaacres":94191.13,"areasqkm":381.18,"states":"OH","huc10":"0506000118","name":"Little Walnut Creek-Walnut Creek","hutype":"S","humod":"NM","globalid":"{20C56CB1-E29C-11E2-8094-0021280458E6}","shape_Length":171889.39854848565,"shape_Area":646144849.4255633}},{"type":"Feature","id":5739,"geometry":{"type":"Polygon","coordinates":[[[-83.525,40.3342],[-83.5298,40.3384],[-83.5329,40.3388],[-83.5363,40.335],[-83.5446,40.3344],[-83.5491,40.327],[-83.5545,40.3226],[-83.5614,40.3227],[-83.5662,40.3196],[-83.5702,40.3243],[-83.5758,40.3272],[-83.5822,40.3241],[-83.5862,40.3251],[-83.5893,40.3235],[-83.5949,40.3256],[-83.5981,40.3208],[-83.6046,40.3184],[-83.6055,40.3154],[-83.612,40.3125],[-83.613,40.3106],[-83.6225,40.3093],[-83.623,40.3059],[-83.6254,40.3041],[-83.6321,40.3033],[-83.6268,40.2937],[-83.6272,40.2886],[-83.6241,40.2829],[-83.6243,40.2793],[-83.6263,40.277],[-83.6232,40.2728],[-83.6174,40.2705],[-83.616,40.2651],[-83.6191,40.2608],[-83.626,40.2592],[-83.6285,40.2536],[-83.6324,40.252],[-83.6324,40.2463],[-83.6386,40.2429],[-83.6354,40.2386],[-83.6349,40.229],[-83.6307,40.2234],[-83.6336,40.2213],[-83.6251,40.216],[-83.6312,40.2129],[-83.6287,40.2063],[-83.6245,40.203],[-83.6257,40.1997],[-83.6213,40.1968],[-83.62,40.1925],[-83.6218,40.1909],[-83.6168,40.1891],[-83.6147,40.1848],[-83.6159,40.1758],[-83.6051,40.1734],[-83.6,40.1773],[-83.5969,40.177],[-83.5947,40.1821],[-83.5918,40.1809],[-83.5796,40.1816],[-83.5778,40.179],[-83.5753,40.1787],[-83.5739,40.1751],[-83.5571,40.1753],[-83.5452,40.1732],[-83.5424,40.171],[-83.5281,40.1722],[-83.5228,40.1677],[-83.5114,40.1633],[-83.4909,40.1578],[-83.4793,40.1572],[-83.4726,40.1591],[-83.4665,40.1653],[-83.4507,40.1742],[-83.4418,40.1764],[-83.4336,40.174],[-83.4308,40.1716],[-83.4297,40.1536],[-83.436,40.1514],[-83.4347,40.1462],[-83.4412,40.1455],[-83.4419,40.1416],[-83.4469,40.1382],[-83.4379,40.1352],[-83.4334,40.1292],[-83.4236,40.1258],[-83.416,40.1207],[-83.3944,40.1236],[-83.3907,40.1124],[-83.3859,40.1146],[-83.3854,40.1075],[-83.3808,40.1027],[-83.3696,40.1037],[-83.3596,40.1022],[-83.3411,40.1037],[-83.3339,40.1009],[-83.33,40.0973],[-83.3273,40.0975],[-83.3255,40.1001],[-83.3165,40.0984],[-83.3164,40.0941],[-83.3147,40.0936],[-83.2873,40.0928],[-83.2821,40.0877],[-83.2707,40.0913],[-83.2592,40.091],[-83.2565,40.0883],[-83.2489,40.0897],[-83.2374,40.0883],[-83.2116,40.0934],[-83.211,40.1001],[-83.2129,40.1026],[-83.2105,40.1042],[-83.2229,40.1159],[-83.2198,40.1186],[-83.2174,40.124],[-83.2193,40.1258],[-83.2185,40.1343],[-83.2226,40.1405],[-83.2143,40.1483],[-83.2105,40.1605],[-83.2132,40.1616],[-83.2185,40.1602],[-83.2182,40.1703],[-83.2233,40.1773],[-83.2227,40.1813],[-83.2254,40.1888],[-83.2212,40.2029],[-83.2359,40.1972],[-83.2499,40.1969],[-83.254,40.2],[-83.2619,40.1988],[-83.2688,40.1963],[-83.2671,40.185],[-83.2788,40.1841],[-83.2836,40.1871],[-83.2881,40.1872],[-83.2932,40.1845],[-83.2976,40.1798],[-83.3054,40.1769],[-83.3145,40.1752],[-83.3241,40.1765],[-83.3274,40.1807],[-83.333,40.1819],[-83.3365,40.186],[-83.3481,40.1904],[-83.3465,40.2028],[-83.3529,40.2086],[-83.3531,40.2118],[-83.3569,40.2146],[-83.3593,40.2121],[-83.3674,40.2121],[-83.3759,40.2153],[-83.3789,40.2181],[-83.3857,40.2192],[-83.3899,40.2178],[-83.3924,40.2212],[-83.4006,40.226],[-83.401,40.2288],[-83.4093,40.2312],[-83.4189,40.2453],[-83.4275,40.2502],[-83.4318,40.2566],[-83.4375,40.2586],[-83.4457,40.258],[-83.4492,40.2559],[-83.4547,40.2578],[-83.4567,40.2696],[-83.4628,40.2698],[-83.4626,40.2753],[-83.4658,40.275],[-83.4674,40.2772],[-83.4708,40.2778],[-83.4711,40.2812],[-83.4775,40.2841],[-83.4801,40.2896],[-83.4887,40.2932],[-83.4847,40.2968],[-83.4853,40.3016],[-83.483,40.3064],[-83.5083,40.3132],[-83.5114,40.3281],[-83.525,40.3342]]]},"properties":{"objectid":5739,"tnmid":"{CFB15E77-0D19-455D-BF59-523E42EEF665}","metasourceid":"{511D2AC8-11BA-45FC-AB98-F69D693D4C44}","sourcedatadesc":"Watershed Boundary Dataset (WBD)","sourceoriginator":"Natural Resources and Conservation Service and U.S. Geological Survey","sourcefeatureid":null,"loaddate":1723726881000,"referencegnis_ids":"1066575","areaacres":113297.57,"areasqkm":458.5,"states":"OH","huc10":"0506000119","name":"Headwaters Big Darby Creek","hutype":"S","humod":"NM","globalid":"{20C58372-E29C-11E2-8094-0021280458E6}","shape_Length":179353.3199078781,"shape_Area":786859724.3813056}},{"type":"Feature","id":5740,"geometry":{"type":"Polygon","coordinates":[[[-83.5918,40.1809],[-83.5948,40.182],[-83.5968,40.1771],[-83.6,40.1773],[-83.6051,40.1734],[-83.6073,40.1694],[-83.6069,40.1667],[-83.6096,40.1641],[-83.6083,40.1579],[-83.6103,40.1515],[-83.6095,40.1478],[-83.6118,40.1476],[-83.6146,40.1506],[-83.6208,40.1529],[-83.6254,40.1519],[-83.6273,40.1464],[-83.6325,40.1474],[-83.6306,40.1449],[-83.6317,40.1429],[-83.6342,40.1427],[-83.6349,40.1404],[-83.6336,40.1387],[-83.6303,40.1402],[-83.6253,40.1391],[-83.6263,40.1279],[-83.6231,40.1249],[-83.6263,40.1237],[-83.6264,40.1215],[-83.6236,40.1185],[-83.6229,40.1128],[-83.6208,40.1084],[-83.6134,40.1037],[-83.6129,40.0991],[-83.6085,40.0969],[-83.6095,40.0925],[-83.6048,40.0897],[-83.6059,40.0842],[-83.61,40.0851],[-83.6134,40.081],[-83.6066,40.0671],[-83.6007,40.0613],[-83.6017,40.0569],[-83.6078,40.0534],[-83.6082,40.0478],[-83.6031,40.0465],[-83.5999,40.0484],[-83.5974,40.044],[-83.5868,40.0386],[-83.5863,40.0366],[-83.5882,40.0356],[-83.5861,40.0285],[-83.5919,40.0171],[-83.5868,40.0116],[-83.5861,40.0064],[-83.5819,40.0042],[-83.5708,40.0047],[-83.5636,40.0082],[-83.5602,40.013],[-83.5522,40.0192],[-83.5467,40.0188],[-83.5434,40.0158],[-83.5394,40.0193],[-83.5351,40.0188],[-83.5279,40.0133],[-83.5265,40.01],[-83.5213,40.01],[-83.5187,40.0079],[-83.5125,40.0094],[-83.5086,40.0077],[-83.5045,40.0085],[-83.494,40.0056],[-83.49,39.9985],[-83.4869,39.9985],[-83.4827,39.9957],[-83.4823,39.9911],[-83.4696,39.9903],[-83.4655,39.9862],[-83.462,39.9852],[-83.462,39.9817],[-83.4589,39.9805],[-83.4573,39.9715],[-83.4472,39.9711],[-83.4473,39.9739],[-83.4446,39.9762],[-83.4202,39.9736],[-83.4192,39.97],[-83.4125,39.968],[-83.4069,39.9636],[-83.4055,39.9596],[-83.4075,39.9588],[-83.4065,39.9564],[-83.4077,39.9538],[-83.4012,39.9488],[-83.3955,39.949],[-83.3924,39.9512],[-83.3965,39.9577],[-83.3959,39.9633],[-83.3743,39.9681],[-83.3726,39.9629],[-83.3741,39.9606],[-83.3702,39.9582],[-83.3694,39.9496],[-83.3641,39.9473],[-83.3602,39.9489],[-83.356,39.9455],[-83.3557,39.9411],[-83.3535,39.9393],[-83.3555,39.9368],[-83.3538,39.9353],[-83.3543,39.9329],[-83.351,39.9325],[-83.3501,39.9301],[-83.3468,39.9325],[-83.3395,39.9313],[-83.3328,39.9327],[-83.3274,39.9303],[-83.3252,39.9284],[-83.3253,39.9245],[-83.3233,39.9238],[-83.3225,39.9192],[-83.3266,39.9147],[-83.3262,39.9131],[-83.3234,39.9135],[-83.3192,39.9104],[-83.3123,39.91],[-83.3047,39.9015],[-83.3057,39.8998],[-83.3033,39.8996],[-83.3015,39.8972],[-83.3,39.8924],[-83.2893,39.895],[-83.2882,39.8972],[-83.28,39.8986],[-83.2812,39.8966],[-83.2783,39.8949],[-83.2792,39.8934],[-83.2737,39.8849],[-83.2648,39.8783],[-83.261,39.8816],[-83.2542,39.8828],[-83.2522,39.8873],[-83.2494,39.8862],[-83.2381,39.8932],[-83.2322,39.8937],[-83.2229,39.8913],[-83.2183,39.8923],[-83.2198,39.8963],[-83.2257,39.9012],[-83.2225,39.9076],[-83.2263,39.9109],[-83.2345,39.9136],[-83.2441,39.9269],[-83.2535,39.9359],[-83.2534,39.9391],[-83.248,39.9423],[-83.2454,39.9466],[-83.2443,39.9538],[-83.2552,39.9545],[-83.2604,39.9525],[-83.26,39.9544],[-83.2624,39.9557],[-83.269,39.9541],[-83.2757,39.9559],[-83.281,39.9553],[-83.2924,39.9635],[-83.2958,39.9633],[-83.2972,39.9658],[-83.2961,39.9668],[-83.2987,39.9677],[-83.2984,39.9699],[-83.3,39.9704],[-83.2991,39.9724],[-83.3063,39.975],[-83.305,39.9797],[-83.3101,39.9813],[-83.3124,39.9798],[-83.3152,39.9803],[-83.315,39.9831],[-83.3175,39.9867],[-83.311,39.9889],[-83.3152,39.9902],[-83.3247,39.9893],[-83.3269,39.9919],[-83.326,39.9947],[-83.3275,39.9975],[-83.3342,39.9965],[-83.3395,40.0007],[-83.345,40.0018],[-83.3484,40.0055],[-83.3638,40.0073],[-83.3616,40.0116],[-83.3699,40.0307],[-83.3611,40.0372],[-83.3679,40.0409],[-83.3561,40.0528],[-83.3563,40.0558],[-83.3637,40.0567],[-83.3623,40.0579],[-83.3624,40.0639],[-83.3679,40.074],[-83.3609,40.0759],[-83.3605,40.0779],[-83.3648,40.0839],[-83.3657,40.0894],[-83.3744,40.094],[-83.3772,40.1022],[-83.3811,40.1028],[-83.3844,40.1058],[-83.3859,40.1146],[-83.3907,40.1124],[-83.3944,40.1236],[-83.416,40.1207],[-83.4236,40.1258],[-83.4334,40.1292],[-83.4379,40.1352],[-83.4469,40.1382],[-83.4419,40.1416],[-83.4412,40.1455],[-83.4347,40.1462],[-83.436,40.1514],[-83.4297,40.1536],[-83.4308,40.1563],[-83.4299,40.1685],[-83.4319,40.173],[-83.4415,40.1763],[-83.4462,40.1763],[-83.4665,40.1653],[-83.4728,40.159],[-83.4793,40.1572],[-83.4888,40.1576],[-83.5114,40.1633],[-83.5228,40.1677],[-83.5281,40.1722],[-83.5424,40.171],[-83.5452,40.1732],[-83.5571,40.1753],[-83.5739,40.1751],[-83.5753,40.1787],[-83.5778,40.179],[-83.5794,40.1815],[-83.5918,40.1809]]]},"properties":{"objectid":5740,"tnmid":"{254AB1E2-1425-48FD-BBC7-211C3A66C5A6}","metasourceid":"{511D2AC8-11BA-45FC-AB98-F69D693D4C44}","sourcedatadesc":"Watershed Boundary Dataset (WBD)","sourceoriginator":"Natural Resources and Conservation Service and U.S. Geological Survey","sourcefeatureid":null,"loaddate":1723726881000,"referencegnis_ids":"1066803","areaacres":114109.77,"areasqkm":461.79,"states":"OH","huc10":"0506000120","name":"Little Darby Creek","hutype":"S","humod":"NM","globalid":"{20C5A138-E29C-11E2-8094-0021280458E6}","shape_Length":201585.74734008496,"shape_Area":789021705.3448156}},{"type":"Feature","id":5741,"geometry":{"type":"Polygon","coordinates":[[[-83.344,40.1039],[-83.3604,40.1022],[-83.3709,40.1037],[-83.3772,40.1022],[-83.3748,40.0945],[-83.3657,40.0894],[-83.3648,40.0839],[-83.3605,40.0779],[-83.3609,40.0759],[-83.3679,40.074],[-83.3624,40.0639],[-83.3623,40.0579],[-83.3637,40.0567],[-83.356,40.0547],[-83.3562,40.0524],[-83.3638,40.0464],[-83.3679,40.0409],[-83.3611,40.0372],[-83.3699,40.0307],[-83.3616,40.0116],[-83.3638,40.0073],[-83.3484,40.0055],[-83.345,40.0018],[-83.3395,40.0007],[-83.3342,39.9965],[-83.3275,39.9975],[-83.326,39.9947],[-83.3269,39.9919],[-83.3247,39.9893],[-83.3152,39.9902],[-83.311,39.9889],[-83.3175,39.9867],[-83.315,39.9831],[-83.3152,39.9803],[-83.3124,39.9798],[-83.3101,39.9813],[-83.305,39.9797],[-83.3063,39.975],[-83.2991,39.9724],[-83.3,39.9704],[-83.2984,39.9699],[-83.2987,39.9677],[-83.2961,39.9668],[-83.2972,39.9658],[-83.2958,39.9633],[-83.2924,39.9635],[-83.281,39.9553],[-83.2757,39.9559],[-83.269,39.9541],[-83.2624,39.9557],[-83.26,39.9544],[-83.2604,39.9525],[-83.2552,39.9545],[-83.2445,39.954],[-83.2454,39.9466],[-83.248,39.9423],[-83.2534,39.9391],[-83.2532,39.9355],[-83.2441,39.9269],[-83.2345,39.9136],[-83.2263,39.9109],[-83.2225,39.9076],[-83.2257,39.9012],[-83.2179,39.8933],[-83.2152,39.8921],[-83.2093,39.8939],[-83.2053,39.893],[-83.2011,39.8955],[-83.198,39.8994],[-83.1979,39.9056],[-83.2027,39.9138],[-83.206,39.9272],[-83.2195,39.935],[-83.2096,39.9402],[-83.2069,39.943],[-83.2065,39.9468],[-83.2202,39.9498],[-83.222,39.9528],[-83.2212,39.9543],[-83.227,39.9634],[-83.2256,39.9687],[-83.2131,39.9771],[-83.2108,39.9834],[-83.2008,39.9868],[-83.2021,39.9902],[-83.2005,39.9918],[-83.2043,39.9987],[-83.2027,40.0142],[-83.2072,40.0351],[-83.2055,40.0428],[-83.2075,40.0446],[-83.2137,40.0448],[-83.2181,40.047],[-83.2152,40.0482],[-83.2159,40.0502],[-83.2134,40.0525],[-83.2147,40.0608],[-83.2124,40.0634],[-83.2161,40.0667],[-83.2142,40.0707],[-83.2162,40.0708],[-83.2153,40.0726],[-83.2172,40.074],[-83.2166,40.0761],[-83.214,40.077],[-83.2145,40.0831],[-83.2102,40.0865],[-83.2116,40.0934],[-83.2374,40.0883],[-83.2489,40.0897],[-83.2565,40.0883],[-83.2592,40.091],[-83.2707,40.0913],[-83.2826,40.0877],[-83.2873,40.0928],[-83.3147,40.0936],[-83.3164,40.0941],[-83.3165,40.0984],[-83.3255,40.1001],[-83.3273,40.0975],[-83.33,40.0973],[-83.3352,40.1016],[-83.344,40.1039]]]},"properties":{"objectid":5741,"tnmid":"{01810150-E2D6-42ED-A31A-F6C212EBB376}","metasourceid":"{511D2AC8-11BA-45FC-AB98-F69D693D4C44}","sourcedatadesc":"Watershed Boundary Dataset (WBD)","sourceoriginator":"Natural Resources and Conservation Service and U.S. Geological Survey","sourcefeatureid":null,"loaddate":1723726881000,"referencegnis_ids":"1048146,1066575","areaacres":48608.56,"areasqkm":196.71,"states":"OH","huc10":"0506000121","name":"Worthington Ditch-Big Darby Creek","hutype":"S","humod":"NM","globalid":"{20C5B7F5-E29C-11E2-8094-0021280458E6}","shape_Length":112098.43752728833,"shape_Area":335828770.7221396}},{"type":"Feature","id":5742,"geometry":{"type":"Polygon","coordinates":[[[-83.1957,40.0588],[-83.214,40.0586],[-83.2135,40.0522],[-83.2159,40.0502],[-83.2152,40.0482],[-83.2181,40.047],[-83.2137,40.0448],[-83.2075,40.0446],[-83.2055,40.0428],[-83.2072,40.0351],[-83.2027,40.0142],[-83.2043,39.9987],[-83.2005,39.9918],[-83.2021,39.9902],[-83.2008,39.9868],[-83.2108,39.9834],[-83.2131,39.9771],[-83.2254,39.9689],[-83.227,39.9636],[-83.2212,39.9543],[-83.222,39.9528],[-83.2202,39.9498],[-83.218,39.9484],[-83.2069,39.9478],[-83.2073,39.9424],[-83.2195,39.935],[-83.206,39.9272],[-83.2027,39.9138],[-83.1979,39.9056],[-83.1988,39.898],[-83.2053,39.893],[-83.2093,39.8939],[-83.2152,39.8921],[-83.2179,39.8933],[-83.2229,39.8913],[-83.2322,39.8937],[-83.2381,39.8932],[-83.2494,39.8862],[-83.2522,39.8873],[-83.2542,39.8828],[-83.261,39.8816],[-83.2646,39.8783],[-83.2737,39.8849],[-83.2792,39.8934],[-83.2783,39.8949],[-83.2812,39.8966],[-83.28,39.8986],[-83.2882,39.8972],[-83.2893,39.895],[-83.3003,39.8925],[-83.3025,39.8895],[-83.2949,39.8852],[-83.2971,39.8843],[-83.3015,39.8762],[-83.2963,39.8708],[-83.2958,39.8665],[-83.2972,39.8637],[-83.295,39.8619],[-83.2994,39.8598],[-83.3053,39.8628],[-83.308,39.8611],[-83.3046,39.8572],[-83.2996,39.857],[-83.2979,39.8538],[-83.2877,39.8526],[-83.2853,39.8507],[-83.271,39.854],[-83.2456,39.852],[-83.2451,39.8489],[-83.2413,39.8462],[-83.2411,39.8421],[-83.2379,39.8369],[-83.2373,39.8315],[-83.2354,39.8295],[-83.2368,39.8276],[-83.2354,39.8236],[-83.2264,39.8227],[-83.2246,39.8209],[-83.2284,39.8163],[-83.2205,39.8075],[-83.2223,39.7984],[-83.2219,39.7838],[-83.2235,39.7808],[-83.2084,39.7607],[-83.2081,39.7579],[-83.1987,39.749],[-83.1989,39.744],[-83.1941,39.7419],[-83.1926,39.7389],[-83.1891,39.7371],[-83.1726,39.7365],[-83.1694,39.7336],[-83.165,39.7259],[-83.1648,39.7225],[-83.1565,39.7103],[-83.1379,39.7072],[-83.1335,39.6874],[-83.1299,39.6845],[-83.129,39.6804],[-83.1247,39.6773],[-83.1241,39.6689],[-83.1108,39.6645],[-83.1094,39.6594],[-83.1025,39.6559],[-83.1052,39.6488],[-83.1007,39.6437],[-83.086,39.6389],[-83.0788,39.6393],[-83.0772,39.6463],[-83.0704,39.6469],[-83.0692,39.6511],[-83.0671,39.6525],[-83.061,39.6494],[-83.0615,39.647],[-83.0534,39.6396],[-83.0505,39.6324],[-83.0419,39.6311],[-83.0278,39.6255],[-83.0152,39.6261],[-83.0125,39.6228],[-83.0084,39.6239],[-83.004,39.6217],[-82.9936,39.6228],[-82.9781,39.6118],[-82.9764,39.6078],[-82.9649,39.6065],[-82.9642,39.6126],[-82.9625,39.6132],[-82.9651,39.6193],[-82.964,39.6227],[-82.965,39.6286],[-82.972,39.6295],[-82.9757,39.6322],[-82.985,39.6333],[-82.9858,39.6363],[-82.9962,39.6367],[-82.9972,39.6392],[-83.0108,39.6456],[-83.0114,39.6442],[-83.0154,39.644],[-83.0192,39.6498],[-83.0277,39.6511],[-83.0287,39.6543],[-83.0333,39.6545],[-83.0366,39.6567],[-83.0383,39.6604],[-83.0408,39.6613],[-83.0411,39.6658],[-83.0434,39.6652],[-83.0512,39.6729],[-83.0492,39.6823],[-83.0519,39.6865],[-83.0583,39.6879],[-83.0604,39.6935],[-83.0751,39.6962],[-83.0798,39.7002],[-83.1015,39.709],[-83.0983,39.7198],[-83.0993,39.7277],[-83.0938,39.7311],[-83.0914,39.7349],[-83.0883,39.7358],[-83.0946,39.7364],[-83.1043,39.7402],[-83.1046,39.7458],[-83.1014,39.7512],[-83.1021,39.7577],[-83.1078,39.7616],[-83.1139,39.7634],[-83.1166,39.7676],[-83.1175,39.7764],[-83.1149,39.7821],[-83.1156,39.7848],[-83.1197,39.7904],[-83.1234,39.7903],[-83.1308,39.7959],[-83.1283,39.7983],[-83.1271,39.8031],[-83.1279,39.8082],[-83.1297,39.8156],[-83.1364,39.8263],[-83.1346,39.8281],[-83.1367,39.8303],[-83.1264,39.8436],[-83.1383,39.855],[-83.1396,39.8619],[-83.1354,39.8666],[-83.1342,39.8719],[-83.1366,39.8743],[-83.1417,39.875],[-83.1422,39.8797],[-83.1443,39.8811],[-83.1421,39.8832],[-83.144,39.8882],[-83.1399,39.8938],[-83.138,39.9024],[-83.1459,39.909],[-83.144,39.9191],[-83.1462,39.9232],[-83.1525,39.9201],[-83.1625,39.9247],[-83.1614,39.9332],[-83.1658,39.9355],[-83.16,39.9414],[-83.1631,39.9452],[-83.1581,39.9522],[-83.1588,39.9572],[-83.1526,39.963],[-83.156,39.973],[-83.1564,39.9778],[-83.1542,39.98],[-83.1568,39.9825],[-83.1548,39.9835],[-83.1571,39.9853],[-83.1563,39.9943],[-83.1629,40.002],[-83.1623,40.0039],[-83.1667,40.0041],[-83.166,40.0164],[-83.1602,40.0239],[-83.1703,40.033],[-83.1722,40.0394],[-83.187,40.0477],[-83.1957,40.0588]]]},"properties":{"objectid":5742,"tnmid":"{213356A3-1744-41BF-AB15-9D56F6EFA099}","metasourceid":"{511D2AC8-11BA-45FC-AB98-F69D693D4C44}","sourcedatadesc":"Watershed Boundary Dataset (WBD)","sourceoriginator":"Natural Resources and Conservation Service and U.S. Geological Survey","sourcefeatureid":null,"loaddate":1723726881000,"referencegnis_ids":"1066745,1066575","areaacres":79391.5,"areasqkm":321.29,"states":"OH","huc10":"0506000122","name":"Hellbranch Run-Big Darby Creek","hutype":"S","humod":"NM","globalid":"{20C5D5B3-E29C-11E2-8094-0021280458E6}","shape_Length":217934.15889089534,"shape_Area":545327080.7194144}}]}