{"type":"FeatureCollection","features":[{"type":"Feature","id":79,"geometry":{"type":"Polygon","coordinates":[[[-81.7619,41.1402],[-81.7683,41.1472],[-81.7689,41.1456],[-81.7798,41.1425],[-81.7828,41.1431],[-81.7842,41.1402],[-81.7826,41.1333],[-81.7839,41.1229],[-81.7833,41.1216],[-81.7781,41.1219],[-81.7802,41.1166],[-81.7728,41.1132],[-81.7728,41.1072],[-81.7668,41.0974],[-81.7688,41.0924],[-81.7657,41.0893],[-81.7675,41.0828],[-81.7718,41.0802],[-81.7771,41.0815],[-81.7795,41.0775],[-81.7916,41.08],[-81.7944,41.0821],[-81.7984,41.0816],[-81.8,41.0808],[-81.8001,41.0783],[-81.8076,41.078],[-81.8186,41.0742],[-81.8253,41.0759],[-81.8311,41.0726],[-81.8356,41.0731],[-81.8358,41.0749],[-81.8335,41.0764],[-81.8431,41.0772],[-81.843,41.0797],[-81.8404,41.0808],[-81.8423,41.0818],[-81.8426,41.0843],[-81.8558,41.0846],[-81.8583,41.0868],[-81.8584,41.0897],[-81.8646,41.099],[-81.8637,41.101],[-81.8605,41.1008],[-81.8552,41.1049],[-81.8626,41.1135],[-81.8842,41.1119],[-81.8895,41.1207],[-81.8917,41.1214],[-81.8881,41.1275],[-81.8927,41.1289],[-81.8942,41.1323],[-81.898,41.1316],[-81.9013,41.1353],[-81.9081,41.1367],[-81.9099,41.1403],[-81.9146,41.1374],[-81.9157,41.1324],[-81.9192,41.1291],[-81.9182,41.1278],[-81.9201,41.1271],[-81.9209,41.1244],[-81.9271,41.1206],[-81.9333,41.1225],[-81.9373,41.1212],[-81.9466,41.1218],[-81.9606,41.1258],[-81.966,41.1288],[-81.9732,41.1297],[-81.9748,41.1318],[-81.9855,41.1329],[-81.9902,41.1317],[-81.9914,41.1297],[-81.9831,41.119],[-81.9793,41.1165],[-81.9777,41.1108],[-81.9734,41.1089],[-81.9686,41.0976],[-81.9646,41.0935],[-81.9769,41.0876],[-81.9828,41.087],[-81.9809,41.084],[-81.982,41.0804],[-81.9861,41.0769],[-81.9873,41.0715],[-81.99,41.0693],[-81.9848,41.0627],[-81.9831,41.0573],[-81.9775,41.0565],[-81.9776,41.0544],[-81.981,41.0518],[-81.9841,41.0457],[-81.9811,41.0365],[-81.9775,41.0327],[-81.9821,41.0263],[-81.9892,41.0215],[-82.0053,41.0167],[-82.0065,41.0105],[-82.0192,41.0006],[-82.0239,41.0007],[-82.0262,41.0024],[-82.0255,41.0094],[-82.045,41.0074],[-82.0458,41.0092],[-82.0563,41.0066],[-82.0614,41.0085],[-82.064,41.0073],[-82.069,41.0079],[-82.078,41.004],[-82.0884,41.0024],[-82.0917,40.9969],[-82.0921,40.9926],[-82.0947,40.9918],[-82.1037,40.9926],[-82.111,40.996],[-82.1154,40.9956],[-82.1172,40.9975],[-82.1204,40.9956],[-82.1281,40.9973],[-82.1306,41.0006],[-82.1334,41.0004],[-82.1333,41.0047],[-82.1412,41.0013],[-82.1417,41.0058],[-82.1496,41.0102],[-82.1515,41.0082],[-82.1652,41.0084],[-82.1724,41.0114],[-82.1873,41.0133],[-82.1889,41.0151],[-82.2039,41.0161],[-82.2047,41.0136],[-82.2032,41.0102],[-82.2046,41.0098],[-82.2037,41.0081],[-82.2056,41.0068],[-82.2071,41.0014],[-82.2165,40.9948],[-82.2257,40.997],[-82.2263,41.0011],[-82.2193,41.0113],[-82.2208,41.0148],[-82.2249,41.0131],[-82.2263,41.0155],[-82.2379,41.0148],[-82.2405,41.0171],[-82.2398,41.0196],[-82.2497,41.0184],[-82.254,41.0161],[-82.2596,41.0197],[-82.2659,41.0182],[-82.2774,41.0195],[-82.2782,41.0112],[-82.276,41.0104],[-82.2761,41.0074],[-82.2806,40.9995],[-82.287,40.999],[-82.2915,40.995],[-82.2974,40.9944],[-82.2986,40.9972],[-82.3103,40.9978],[-82.3164,40.996],[-82.3162,40.9927],[-82.3186,40.9903],[-82.3227,40.9932],[-82.3262,40.9922],[-82.3269,40.9897],[-82.3316,40.9889],[-82.3278,40.9855],[-82.3306,40.9819],[-82.3315,40.9772],[-82.3298,40.9759],[-82.3288,40.9709],[-82.3311,40.9686],[-82.3299,40.9653],[-82.3338,40.9627],[-82.3354,40.9568],[-82.3297,40.9474],[-82.3323,40.9453],[-82.3325,40.9412],[-82.3428,40.9351],[-82.3422,40.9335],[-82.3397,40.9334],[-82.339,40.9298],[-82.3415,40.9272],[-82.3445,40.9282],[-82.3454,40.9302],[-82.3469,40.929],[-82.3514,40.9307],[-82.3547,40.9349],[-82.3625,40.9365],[-82.3689,40.9452],[-82.378,40.9435],[-82.3799,40.9447],[-82.3797,40.9463],[-82.3838,40.9477],[-82.3899,40.9459],[-82.3909,40.9486],[-82.3987,40.9476],[-82.3981,40.9459],[-82.3998,40.9442],[-82.408,40.9449],[-82.4155,40.9481],[-82.419,40.9456],[-82.4194,40.9414],[-82.4218,40.9409],[-82.4271,40.9342],[-82.4288,40.9372],[-82.4281,40.9441],[-82.426,40.9465],[-82.427,40.9479],[-82.438,40.9492],[-82.4438,40.9474],[-82.4513,40.9505],[-82.4594,40.9491],[-82.4665,40.9518],[-82.4726,40.9518],[-82.4765,40.9557],[-82.474,40.9597],[-82.477,40.9612],[-82.4754,40.9626],[-82.4787,40.9663],[-82.4848,40.9668],[-82.486,40.9648],[-82.4897,40.9649],[-82.4922,40.9676],[-82.4901,40.9717],[-82.4925,40.976],[-82.5,40.9792],[-82.4975,40.9815],[-82.5023,40.9819],[-82.5053,40.9808],[-82.5057,40.9773],[-82.5092,40.9757],[-82.5112,40.9726],[-82.5143,40.9737],[-82.5155,40.9706],[-82.5272,40.9681],[-82.5295,40.9693],[-82.5309,40.9663],[-82.5334,40.9694],[-82.5374,40.9678],[-82.5448,40.9684],[-82.5469,40.9653],[-82.5513,40.9662],[-82.5538,40.9638],[-82.5602,40.9682],[-82.5622,40.9679],[-82.5658,40.9738],[-82.5705,40.9723],[-82.58,40.9756],[-82.5834,40.974],[-82.5859,40.9762],[-82.5891,40.9766],[-82.5947,40.9717],[-82.5974,40.9719],[-82.6004,40.9681],[-82.6116,40.9681],[-82.6129,40.97],[-82.6149,40.9696],[-82.6182,40.9651],[-82.6178,40.9618],[-82.623,40.9556],[-82.6297,40.958],[-82.6318,40.9573],[-82.6313,40.9555],[-82.6339,40.9588],[-82.6357,40.9575],[-82.636,40.9588],[-82.6419,40.9604],[-82.6449,40.9564],[-82.6491,40.9548],[-82.6483,40.9506],[-82.6525,40.9484],[-82.6607,40.9484],[-82.6628,40.9471],[-82.6635,40.9496],[-82.6708,40.9507],[-82.6747,40.9531],[-82.6841,40.9488],[-82.7017,40.9453],[-82.7059,40.9413],[-82.705,40.939],[-82.7062,40.9368],[-82.7042,40.935],[-82.7056,40.9329],[-82.711,40.9329],[-82.7128,40.9299],[-82.7241,40.9275],[-82.7235,40.9263],[-82.7268,40.926],[-82.7328,40.9215],[-82.733,40.9161],[-82.7365,40.9131],[-82.7363,40.9047],[-82.7398,40.9035],[-82.7403,40.9011],[-82.7392,40.9005],[-82.7418,40.8997],[-82.7411,40.8979],[-82.7429,40.8954],[-82.7491,40.8913],[-82.7516,40.8914],[-82.7548,40.8864],[-82.761,40.8842],[-82.7628,40.8807],[-82.7677,40.8773],[-82.7726,40.8763],[-82.7739,40.8728],[-82.7625,40.8671],[-82.7621,40.8697],[-82.7586,40.87],[-82.7575,40.8676],[-82.7529,40.8656],[-82.7495,40.8691],[-82.7431,40.8617],[-82.7373,40.8626],[-82.7365,40.8569],[-82.7311,40.8544],[-82.7342,40.8495],[-82.7286,40.8463],[-82.7283,40.8432],[-82.7266,40.842],[-82.7141,40.8414],[-82.7066,40.8438],[-82.7005,40.8409],[-82.7,40.834],[-82.7038,40.8283],[-82.6997,40.8256],[-82.6963,40.8248],[-82.6951,40.8271],[-82.6927,40.8277],[-82.6888,40.8255],[-82.6815,40.8255],[-82.6765,40.8277],[-82.6721,40.8258],[-82.67,40.8217],[-82.6638,40.816],[-82.6654,40.8099],[-82.6646,40.8056],[-82.6603,40.8004],[-82.6606,40.7985],[-82.6573,40.7939],[-82.6578,40.7914],[-82.6527,40.7875],[-82.6506,40.781],[-82.6621,40.7768],[-82.6635,40.7749],[-82.6692,40.7739],[-82.6821,40.7627],[-82.694,40.7586],[-82.6973,40.7556],[-82.6963,40.7459],[-82.699,40.7383],[-82.7013,40.7374],[-82.6994,40.735],[-82.7006,40.7324],[-82.7023,40.7318],[-82.7017,40.7298],[-82.7056,40.7248],[-82.7038,40.7199],[-82.7133,40.714],[-82.711,40.7126],[-82.7117,40.7111],[-82.7198,40.7046],[-82.7201,40.7017],[-82.7279,40.692],[-82.7288,40.6888],[-82.735,40.6845],[-82.7331,40.6785],[-82.7278,40.6767],[-82.7281,40.6747],[-82.7312,40.6736],[-82.732,40.6703],[-82.7252,40.6621],[-82.7263,40.6595],[-82.7229,40.6569],[-82.7306,40.6458],[-82.7258,40.6409],[-82.7219,40.6421],[-82.7181,40.6391],[-82.7133,40.6396],[-82.7101,40.6373],[-82.7095,40.6356],[-82.7116,40.6339],[-82.7093,40.6258],[-82.7031,40.6252],[-82.7003,40.621],[-82.7075,40.6133],[-82.7159,40.615],[-82.719,40.6055],[-82.7237,40.6037],[-82.7195,40.6002],[-82.7195,40.5985],[-82.7149,40.5967],[-82.7152,40.592],[-82.7233,40.5929],[-82.7313,40.5969],[-82.7355,40.5943],[-82.7358,40.5924],[-82.7383,40.5919],[-82.7407,40.5935],[-82.7435,40.5907],[-82.7546,40.5893],[-82.7564,40.5867],[-82.7618,40.5884],[-82.7636,40.5841],[-82.7624,40.5819],[-82.763,40.5754],[-82.7714,40.5625],[-82.7684,40.5554],[-82.771,40.5551],[-82.7702,40.553],[-82.7728,40.5492],[-82.7696,40.5475],[-82.7686,40.5406],[-82.7671,40.5401],[-82.7655,40.5345],[-82.7716,40.5293],[-82.776,40.5284],[-82.7797,40.5243],[-82.7771,40.5207],[-82.7824,40.5199],[-82.7804,40.5137],[-82.7782,40.512],[-82.7752,40.5124],[-82.7721,40.5082],[-82.7726,40.5066],[-82.7699,40.5041],[-82.7709,40.5002],[-82.7663,40.4912],[-82.7685,40.489],[-82.7697,40.4825],[-82.7662,40.4803],[-82.7682,40.4782],[-82.7684,40.4748],[-82.7646,40.4702],[-82.7637,40.4653],[-82.7712,40.4609],[-82.7723,40.4581],[-82.7668,40.4548],[-82.7632,40.4472],[-82.7604,40.4465],[-82.7598,40.4394],[-82.7554,40.4361],[-82.7524,40.4387],[-82.7492,40.4379],[-82.7497,40.4355],[-82.7472,40.4329],[-82.7514,40.4269],[-82.7482,40.4215],[-82.7525,40.4148],[-82.7519,40.4117],[-82.7452,40.4056],[-82.7472,40.3999],[-82.7355,40.3957],[-82.7327,40.3958],[-82.731,40.4001],[-82.7271,40.4002],[-82.7242,40.3983],[-82.7212,40.3996],[-82.7197,40.3984],[-82.7196,40.3923],[-82.7115,40.3938],[-82.707,40.385],[-82.7101,40.3847],[-82.7103,40.3779],[-82.7212,40.375],[-82.7241,40.3697],[-82.7244,40.3622],[-82.7193,40.3604],[-82.7191,40.3548],[-82.7175,40.3528],[-82.7191,40.352],[-82.7177,40.3493],[-82.7186,40.3463],[-82.7222,40.3463],[-82.7173,40.332],[-82.7233,40.3293],[-82.7251,40.3235],[-82.7315,40.3223],[-82.7379,40.3238],[-82.7406,40.3202],[-82.739,40.3142],[-82.7334,40.3107],[-82.7334,40.3083],[-82.7265,40.2988],[-82.7272,40.2968],[-82.7243,40.2941],[-82.7246,40.288],[-82.7268,40.2869],[-82.7259,40.2847],[-82.7291,40.2825],[-82.724,40.2751],[-82.7193,40.2729],[-82.7181,40.2581],[-82.7135,40.2523],[-82.7157,40.2486],[-82.7135,40.2404],[-82.7163,40.2379],[-82.7143,40.234],[-82.716,40.2299],[-82.7137,40.2254],[-82.7152,40.2177],[-82.7328,40.2182],[-82.7369,40.2212],[-82.7423,40.222],[-82.743,40.2196],[-82.7406,40.2166],[-82.7399,40.2081],[-82.737,40.1993],[-82.7387,40.1934],[-82.7346,40.1885],[-82.7365,40.1851],[-82.7336,40.1834],[-82.745,40.1692],[-82.7373,40.1645],[-82.7365,40.1616],[-82.7268,40.1589],[-82.7258,40.1573],[-82.7272,40.1555],[-82.7263,40.1535],[-82.7284,40.1528],[-82.7268,40.1513],[-82.731,40.1488],[-82.7363,40.1424],[-82.7353,40.1367],[-82.7311,40.1353],[-82.7353,40.1325],[-82.7278,40.1285],[-82.7147,40.1099],[-82.7075,40.1072],[-82.7117,40.1033],[-82.7129,40.0986],[-82.7111,40.0966],[-82.7144,40.0921],[-82.7287,40.0946],[-82.7329,40.0939],[-82.7365,40.0902],[-82.7379,40.0829],[-82.7428,40.0784],[-82.7422,40.0761],[-82.7441,40.0742],[-82.7431,40.0611],[-82.7461,40.062],[-82.7486,40.0587],[-82.7454,40.0562],[-82.7456,40.0546],[-82.7477,40.0547],[-82.7478,40.052],[-82.7538,40.0508],[-82.7554,40.0474],[-82.7604,40.0449],[-82.7622,40.0387],[-82.7577,40.0325],[-82.7598,40.0302],[-82.7571,40.0262],[-82.7593,40.0182],[-82.7554,40.0139],[-82.7505,40.0128],[-82.7504,40.0089],[-82.7483,40.006],[-82.7337,39.9959],[-82.7277,39.9851],[-82.7254,39.983],[-82.7207,39.9825],[-82.716,39.9785],[-82.7127,39.9737],[-82.7153,39.9703],[-82.7145,39.968],[-82.7098,39.966],[-82.7084,39.9678],[-82.7057,39.9671],[-82.7051,39.9634],[-82.7081,39.9614],[-82.707,39.9569],[-82.6961,39.9545],[-82.6938,39.9494],[-82.6893,39.9467],[-82.68,39.9464],[-82.6747,39.939],[-82.6667,39.9413],[-82.6645,39.9399],[-82.6583,39.9415],[-82.6548,39.9404],[-82.651,39.9346],[-82.6407,39.9344],[-82.6429,39.9287],[-82.6419,39.9226],[-82.6361,39.9225],[-82.6267,39.9149],[-82.6151,39.912],[-82.6027,39.898],[-82.5795,39.9012],[-82.5512,39.902],[-82.5474,39.8999],[-82.5447,39.9005],[-82.5317,39.8938],[-82.5315,39.8897],[-82.5229,39.8824],[-82.5163,39.8838],[-82.504,39.8788],[-82.4958,39.8816],[-82.4939,39.8852],[-82.488,39.8885],[-82.4707,39.8873],[-82.4675,39.8856],[-82.4602,39.8868],[-82.4579,39.8786],[-82.4545,39.8735],[-82.4384,39.8745],[-82.4344,39.8679],[-82.4345,39.8627],[-82.4294,39.8567],[-82.4258,39.8577],[-82.4217,39.855],[-82.4163,39.8571],[-82.4138,39.8589],[-82.4141,39.8618],[-82.4116,39.8644],[-82.4008,39.8611],[-82.4004,39.8589],[-82.3956,39.8567],[-82.3935,39.8576],[-82.3899,39.8539],[-82.3775,39.8508],[-82.3768,39.8532],[-82.3712,39.8559],[-82.3694,39.8593],[-82.361,39.8603],[-82.3575,39.8578],[-82.3536,39.8579],[-82.3547,39.8515],[-82.3536,39.8491],[-82.3495,39.8491],[-82.3477,39.8449],[-82.344,39.8454],[-82.338,39.8413],[-82.3304,39.8419],[-82.3267,39.84],[-82.3253,39.8379],[-82.3267,39.8322],[-82.3308,39.8311],[-82.3243,39.8262],[-82.3223,39.8235],[-82.3232,39.8219],[-82.3192,39.8171],[-82.3142,39.8137],[-82.3106,39.8132],[-82.3097,39.8114],[-82.3048,39.8119],[-82.3036,39.8092],[-82.2982,39.807],[-82.2972,39.805],[-82.2884,39.8054],[-82.2869,39.807],[-82.2869,39.8034],[-82.2836,39.8003],[-82.2775,39.8026],[-82.2763,39.7996],[-82.2703,39.7976],[-82.2649,39.8036],[-82.255,39.8053],[-82.2473,39.8099],[-82.2459,39.8148],[-82.2408,39.8121],[-82.2388,39.8093],[-82.2404,39.8062],[-82.2385,39.8013],[-82.2368,39.8006],[-82.2371,39.796],[-82.2343,39.7942],[-82.2379,39.7913],[-82.2374,39.7854],[-82.2429,39.7821],[-82.2439,39.771],[-82.2362,39.771],[-82.2277,39.7673],[-82.2233,39.7673],[-82.2224,39.7715],[-82.2194,39.7718],[-82.2178,39.7698],[-82.208,39.7673],[-82.199,39.7606],[-82.1935,39.7621],[-82.1936,39.7599],[-82.1916,39.7585],[-82.1897,39.7591],[-82.1869,39.7573],[-82.1844,39.7587],[-82.1831,39.7558],[-82.1766,39.755],[-82.1728,39.7461],[-82.1672,39.7456],[-82.1614,39.7419],[-82.1605,39.7394],[-82.1502,39.7379],[-82.1479,39.7361],[-82.147,39.7316],[-82.1426,39.7263],[-82.145,39.7252],[-82.147,39.7209],[-82.1554,39.7206],[-82.155,39.7186],[-82.1585,39.7178],[-82.159,39.7142],[-82.1649,39.7092],[-82.1731,39.711],[-82.1779,39.7092],[-82.178,39.7038],[-82.175,39.701],[-82.1804,39.6931],[-82.1849,39.6919],[-82.1944,39.6935],[-82.2007,39.69],[-82.2034,39.6852],[-82.2069,39.6836],[-82.2063,39.6811],[-82.2085,39.6785],[-82.2192,39.6789],[-82.2189,39.6762],[-82.2227,39.6703],[-82.2217,39.6691],[-82.2264,39.6692],[-82.2321,39.6651],[-82.2303,39.6609],[-82.2321,39.6584],[-82.2304,39.6566],[-82.216,39.657],[-82.2142,39.6529],[-82.2109,39.6538],[-82.2078,39.6527],[-82.2095,39.6503],[-82.2042,39.6501],[-82.1958,39.647],[-82.1961,39.6449],[-82.1933,39.6433],[-82.1835,39.6443],[-82.1825,39.6419],[-82.1785,39.6405],[-82.1792,39.6383],[-82.1745,39.6389],[-82.1716,39.6367],[-82.1648,39.6387],[-82.1644,39.6428],[-82.1606,39.641],[-82.1576,39.6414],[-82.1574,39.6427],[-82.1478,39.642],[-82.1462,39.647],[-82.1403,39.6482],[-82.1393,39.6513],[-82.1211,39.6512],[-82.1223,39.6576],[-82.1164,39.6589],[-82.1127,39.6637],[-82.1112,39.663],[-82.1071,39.6674],[-82.1072,39.6703],[-82.1042,39.6717],[-82.1003,39.6709],[-82.098,39.6723],[-82.0984,39.6738],[-82.0934,39.6755],[-82.0908,39.6709],[-82.0858,39.6709],[-82.0848,39.6678],[-82.081,39.6671],[-82.0796,39.6647],[-82.076,39.666],[-82.0751,39.669],[-82.0713,39.6674],[-82.0684,39.6683],[-82.0674,39.6719],[-82.0594,39.6696],[-82.0499,39.6723],[-82.0441,39.6714],[-82.0399,39.6736],[-82.0402,39.6757],[-82.035,39.6777],[-82.0321,39.6763],[-82.031,39.6732],[-82.0277,39.6734],[-82.0257,39.6701],[-82.0139,39.6714],[-82.0056,39.6689],[-82.0061,39.6667],[-82.0082,39.6661],[-82.0086,39.6626],[-82.0045,39.6623],[-82.0026,39.6586],[-82.0008,39.6586],[-82.0001,39.6546],[-81.9955,39.6542],[-81.9952,39.6508],[-81.9967,39.6491],[-81.9939,39.647],[-81.9946,39.641],[-81.9968,39.6387],[-81.9924,39.6359],[-81.9928,39.6332],[-81.991,39.6307],[-81.9823,39.6276],[-81.9818,39.6215],[-81.9789,39.619],[-81.9795,39.617],[-81.9744,39.6134],[-81.9759,39.6084],[-81.9817,39.6064],[-81.9807,39.6026],[-81.9834,39.5988],[-81.988,39.598],[-81.9866,39.5948],[-81.9904,39.5921],[-81.9875,39.5868],[-81.9897,39.5844],[-81.9793,39.5804],[-81.9788,39.5781],[-81.9749,39.576],[-81.976,39.5727],[-81.9736,39.5692],[-81.9711,39.5693],[-81.9684,39.5647],[-81.9661,39.5645],[-81.9657,39.5606],[-81.9574,39.5579],[-81.9561,39.555],[-81.9572,39.5531],[-81.9524,39.5443],[-81.9541,39.543],[-81.9541,39.541],[-81.9521,39.5399],[-81.9529,39.5381],[-81.9493,39.534],[-81.9455,39.5335],[-81.9445,39.531],[-81.9419,39.5308],[-81.942,39.5291],[-81.9398,39.5285],[-81.9372,39.5247],[-81.9392,39.5208],[-81.9334,39.5179],[-81.9267,39.5173],[-81.9258,39.5152],[-81.9202,39.517],[-81.9162,39.5139],[-81.9121,39.5138],[-81.9117,39.5115],[-81.9095,39.511],[-81.9109,39.5093],[-81.91,39.5067],[-81.9027,39.5054],[-81.9006,39.5015],[-81.8974,39.5018],[-81.8945,39.4994],[-81.8953,39.4975],[-81.8915,39.4951],[-81.8896,39.4957],[-81.8868,39.4924],[-81.8891,39.487],[-81.8872,39.4806],[-81.8906,39.4784],[-81.8884,39.4771],[-81.8896,39.475],[-81.8863,39.4732],[-81.8888,39.467],[-81.8858,39.4664],[-81.8877,39.4633],[-81.8813,39.4578],[-81.881,39.4554],[-81.8827,39.4544],[-81.8795,39.4489],[-81.8819,39.446],[-81.8802,39.4433],[-81.8828,39.4428],[-81.8822,39.4406],[-81.8848,39.4401],[-81.8864,39.4377],[-81.8849,39.4352],[-81.8871,39.4336],[-81.8866,39.4319],[-81.8783,39.4318],[-81.8755,39.4293],[-81.8693,39.4303],[-81.8678,39.4277],[-81.8638,39.43],[-81.8625,39.4271],[-81.8575,39.4255],[-81.8577,39.4209],[-81.8546,39.4203],[-81.8527,39.4175],[-81.856,39.4124],[-81.8525,39.409],[-81.8537,39.4078],[-81.852,39.4043],[-81.8454,39.4027],[-81.8422,39.406],[-81.8398,39.4057],[-81.8411,39.4109],[-81.8382,39.4118],[-81.832,39.4086],[-81.8293,39.4046],[-81.8261,39.4061],[-81.821,39.4049],[-81.8183,39.4087],[-81.8135,39.4062],[-81.8116,39.4067],[-81.8111,39.4103],[-81.8087,39.4108],[-81.806,39.4145],[-81.7953,39.414],[-81.793,39.4116],[-81.7898,39.4127],[-81.7829,39.4115],[-81.7805,39.4082],[-81.7746,39.4054],[-81.776,39.4041],[-81.7717,39.398],[-81.7686,39.3989],[-81.7639,39.4043],[-81.7594,39.403],[-81.7545,39.4063],[-81.7495,39.4073],[-81.7496,39.4054],[-81.744,39.4009],[-81.7348,39.3984],[-81.7323,39.3958],[-81.7284,39.3979],[-81.7288,39.3995],[-81.7269,39.4015],[-81.7234,39.403],[-81.7235,39.401],[-81.7188,39.4006],[-81.7143,39.3967],[-81.6994,39.3924],[-81.6993,39.387],[-81.6963,39.3846],[-81.694,39.3873],[-81.6879,39.3855],[-81.6849,39.3863],[-81.6823,39.3904],[-81.6767,39.3903],[-81.6705,39.3943],[-81.6664,39.393],[-81.6631,39.396],[-81.6622,39.4016],[-81.6585,39.4029],[-81.6571,39.4016],[-81.6514,39.4057],[-81.6487,39.4042],[-81.6443,39.4048],[-81.6391,39.4087],[-81.6367,39.4081],[-81.6374,39.4057],[-81.6356,39.4033],[-81.6316,39.4019],[-81.629,39.3986],[-81.623,39.4021],[-81.6158,39.4],[-81.6157,39.3917],[-81.6122,39.3898],[-81.6164,39.3833],[-81.6024,39.3802],[-81.6027,39.3762],[-81.598,39.3773],[-81.5949,39.376],[-81.5909,39.3765],[-81.5893,39.3787],[-81.5779,39.3792],[-81.5713,39.3839],[-81.5686,39.3832],[-81.5667,39.3851],[-81.5634,39.3838],[-81.5582,39.3878],[-81.551,39.387],[-81.5491,39.3882],[-81.5426,39.3862],[-81.5309,39.3873],[-81.5295,39.3903],[-81.5377,39.3953],[-81.5305,39.4011],[-81.5305,39.4054],[-81.5261,39.41],[-81.5283,39.4129],[-81.5236,39.4251],[-81.5268,39.4307],[-81.521,39.4345],[-81.5205,39.4365],[-81.513,39.437],[-81.5109,39.4339],[-81.5059,39.4332],[-81.5012,39.4349],[-81.499,39.4306],[-81.4932,39.4296],[-81.4895,39.4257],[-81.4826,39.4257],[-81.4796,39.4237],[-81.4797,39.4207],[-81.4778,39.4186],[-81.4743,39.417],[-81.4716,39.4192],[-81.4681,39.418],[-81.4653,39.4138],[-81.4649,39.4089],[-81.4549,39.4101],[-81.4467,39.4133],[-81.4414,39.4176],[-81.4371,39.418],[-81.4374,39.4214],[-81.4354,39.4247],[-81.4313,39.4255],[-81.4281,39.4293],[-81.4319,39.4315],[-81.431,39.4352],[-81.4324,39.4368],[-81.4356,39.4371],[-81.435,39.4419],[-81.4321,39.4443],[-81.4285,39.4441],[-81.4293,39.4458],[-81.4276,39.45],[-81.4305,39.4531],[-81.4282,39.4621],[-81.432,39.4655],[-81.4279,39.4676],[-81.4285,39.4729],[-81.4334,39.4746],[-81.4354,39.478],[-81.4383,39.4778],[-81.4383,39.481],[-81.4429,39.4833],[-81.4435,39.4861],[-81.4414,39.4887],[-81.4433,39.4915],[-81.4486,39.4972],[-81.4532,39.4971],[-81.4553,39.504],[-81.457,39.5045],[-81.4557,39.5123],[-81.4583,39.5159],[-81.4532,39.5202],[-81.4481,39.5208],[-81.45,39.5228],[-81.4477,39.5237],[-81.4478,39.5275],[-81.4432,39.5278],[-81.4443,39.5308],[-81.4427,39.5347],[-81.4441,39.5363],[-81.4489,39.5353],[-81.4496,39.5384],[-81.4526,39.5413],[-81.449,39.5434],[-81.4486,39.549],[-81.4454,39.5524],[-81.4485,39.5563],[-81.4475,39.5595],[-81.4458,39.5601],[-81.4465,39.5617],[-81.4488,39.5619],[-81.4485,39.5653],[-81.4521,39.5664],[-81.4503,39.5717],[-81.4541,39.5734],[-81.4524,39.5785],[-81.4564,39.5814],[-81.4584,39.5876],[-81.4631,39.5883],[-81.4659,39.592],[-81.47,39.5929],[-81.4667,39.5964],[-81.4667,39.5983],[-81.461,39.599],[-81.4603,39.6034],[-81.4684,39.6083],[-81.4735,39.6067],[-81.4761,39.6074],[-81.4769,39.6098],[-81.4752,39.6156],[-81.4797,39.6179],[-81.4802,39.6198],[-81.4844,39.6192],[-81.4838,39.6228],[-81.4874,39.6251],[-81.4862,39.6295],[-81.4908,39.6308],[-81.5001,39.6389],[-81.501,39.6413],[-81.4979,39.6478],[-81.4992,39.6525],[-81.5014,39.6532],[-81.5017,39.6603],[-81.503,39.6615],[-81.5056,39.6608],[-81.5108,39.6689],[-81.5125,39.6692],[-81.5131,39.673],[-81.5152,39.6747],[-81.515,39.6778],[-81.517,39.6787],[-81.5171,39.6809],[-81.5217,39.6826],[-81.5224,39.6888],[-81.5242,39.6889],[-81.5258,39.6922],[-81.5282,39.6926],[-81.5327,39.6902],[-81.5351,39.6919],[-81.5341,39.6935],[-81.5361,39.6981],[-81.5344,39.6999],[-81.5416,39.7043],[-81.54,39.7054],[-81.5395,39.7091],[-81.5431,39.7115],[-81.5413,39.7171],[-81.5451,39.7185],[-81.5432,39.7214],[-81.5464,39.7243],[-81.5475,39.7284],[-81.5447,39.7323],[-81.5477,39.733],[-81.5511,39.7373],[-81.5537,39.7511],[-81.5582,39.7491],[-81.5606,39.7551],[-81.5628,39.7538],[-81.5711,39.7567],[-81.573,39.7552],[-81.5755,39.7561],[-81.5806,39.7523],[-81.5812,39.7471],[-81.5944,39.7476],[-81.5958,39.7494],[-81.5943,39.7515],[-81.596,39.7562],[-81.6004,39.7561],[-81.6026,39.7589],[-81.6054,39.7589],[-81.61,39.7622],[-81.6178,39.7628],[-81.6183,39.7645],[-81.6243,39.7664],[-81.6239,39.7682],[-81.6199,39.7666],[-81.6161,39.7679],[-81.6167,39.775],[-81.6214,39.7822],[-81.6258,39.7842],[-81.6259,39.787],[-81.6236,39.7889],[-81.6277,39.7906],[-81.6298,39.7957],[-81.635,39.8006],[-81.6381,39.7996],[-81.6419,39.8009],[-81.642,39.8068],[-81.6464,39.8069],[-81.651,39.8114],[-81.6519,39.8148],[-81.6461,39.8187],[-81.6426,39.8239],[-81.6428,39.826],[-81.6451,39.8274],[-81.6438,39.8293],[-81.6415,39.8305],[-81.6345,39.8295],[-81.6357,39.8328],[-81.6344,39.8346],[-81.6361,39.8361],[-81.6359,39.8402],[-81.6373,39.8418],[-81.6314,39.845],[-81.6284,39.8442],[-81.6285,39.8483],[-81.6246,39.8501],[-81.621,39.8559],[-81.6115,39.8571],[-81.611,39.8589],[-81.6081,39.8596],[-81.6083,39.8616],[-81.5977,39.8669],[-81.5906,39.8657],[-81.5886,39.8618],[-81.5808,39.8584],[-81.5769,39.8603],[-81.5693,39.8583],[-81.5672,39.8604],[-81.5676,39.8619],[-81.5642,39.8644],[-81.5642,39.8665],[-81.555,39.8641],[-81.5542,39.861],[-81.5471,39.8546],[-81.5394,39.8529],[-81.528,39.8451],[-81.526,39.8342],[-81.5235,39.8318],[-81.5166,39.8302],[-81.518,39.8247],[-81.5122,39.8247],[-81.5077,39.8188],[-81.4997,39.818],[-81.4971,39.8162],[-81.4969,39.8131],[-81.4932,39.8111],[-81.4958,39.809],[-81.4932,39.8056],[-81.4962,39.8003],[-81.4876,39.797],[-81.4824,39.7982],[-81.4825,39.7915],[-81.4734,39.7874],[-81.4742,39.7826],[-81.4715,39.7801],[-81.4718,39.7778],[-81.4703,39.7765],[-81.467,39.7782],[-81.464,39.7773],[-81.4658,39.7741],[-81.4644,39.7703],[-81.4598,39.7696],[-81.4601,39.7676],[-81.4521,39.7634],[-81.4518,39.7581],[-81.447,39.7584],[-81.4457,39.7571],[-81.4474,39.7546],[-81.4463,39.7509],[-81.4417,39.7509],[-81.4422,39.7488],[-81.4386,39.7469],[-81.4298,39.7481],[-81.4302,39.7498],[-81.4223,39.7577],[-81.4287,39.7577],[-81.4286,39.7613],[-81.4312,39.7617],[-81.4336,39.7655],[-81.4391,39.7653],[-81.4425,39.7709],[-81.4471,39.7729],[-81.4496,39.7769],[-81.4488,39.7781],[-81.4338,39.7909],[-81.4317,39.7953],[-81.4332,39.7969],[-81.4327,39.7996],[-81.427,39.7972],[-81.4227,39.7988],[-81.4135,39.8154],[-81.4083,39.8176],[-81.4069,39.8208],[-81.4003,39.8224],[-81.3984,39.8245],[-81.3942,39.8236],[-81.3915,39.8212],[-81.3842,39.8228],[-81.3784,39.8291],[-81.3766,39.8273],[-81.3722,39.8276],[-81.3736,39.8244],[-81.3673,39.8217],[-81.3664,39.8193],[-81.3632,39.8201],[-81.3617,39.819],[-81.3616,39.8174],[-81.3587,39.8163],[-81.3594,39.8135],[-81.3574,39.8114],[-81.3526,39.8099],[-81.3447,39.8112],[-81.3402,39.8033],[-81.3439,39.8003],[-81.3407,39.7989],[-81.3377,39.7942],[-81.3412,39.7893],[-81.3373,39.7863],[-81.3271,39.7845],[-81.3258,39.7824],[-81.3271,39.7801],[-81.3199,39.7803],[-81.3109,39.7865],[-81.295,39.7886],[-81.2941,39.7927],[-81.2918,39.7938],[-81.2895,39.792],[-81.2856,39.7944],[-81.2851,39.7919],[-81.2767,39.7902],[-81.277,39.7878],[-81.2747,39.7855],[-81.2693,39.7851],[-81.2697,39.7815],[-81.2625,39.7776],[-81.2639,39.7753],[-81.2589,39.7712],[-81.2621,39.7663],[-81.2554,39.7647],[-81.2541,39.7627],[-81.2495,39.7626],[-81.2476,39.7606],[-81.2481,39.7586],[-81.2412,39.7585],[-81.2397,39.7556],[-81.2355,39.7547],[-81.2326,39.7561],[-81.2315,39.7586],[-81.2288,39.7577],[-81.2223,39.7598],[-81.2228,39.764],[-81.2197,39.7639],[-81.2186,39.7654],[-81.2201,39.7695],[-81.2148,39.7677],[-81.2115,39.7723],[-81.2136,39.7749],[-81.2105,39.7752],[-81.2098,39.777],[-81.2216,39.7816],[-81.2206,39.7851],[-81.2219,39.787],[-81.2281,39.7904],[-81.227,39.7921],[-81.229,39.7942],[-81.2265,39.7967],[-81.217,39.7989],[-81.2161,39.8016],[-81.2235,39.8061],[-81.2241,39.8089],[-81.2186,39.8108],[-81.2125,39.8099],[-81.2121,39.8078],[-81.2057,39.8078],[-81.2042,39.8117],[-81.2112,39.8225],[-81.2089,39.8241],[-81.202,39.8207],[-81.2,39.8223],[-81.2046,39.8301],[-81.1975,39.833],[-81.1972,39.8355],[-81.1997,39.8376],[-81.1952,39.8394],[-81.1865,39.839],[-81.1849,39.8438],[-81.1832,39.8444],[-81.185,39.8464],[-81.1838,39.8479],[-81.1725,39.8454],[-81.1683,39.848],[-81.1704,39.852],[-81.1807,39.8547],[-81.1816,39.859],[-81.1771,39.861],[-81.1773,39.8665],[-81.1798,39.8697],[-81.1886,39.8708],[-81.1881,39.8739],[-81.1903,39.875],[-81.1903,39.8793],[-81.1982,39.8858],[-81.2009,39.891],[-81.2045,39.8922],[-81.2009,39.8939],[-81.2008,39.8966],[-81.203,39.8989],[-81.206,39.899],[-81.213,39.9055],[-81.2062,39.9068],[-81.2053,39.9177],[-81.2093,39.9211],[-81.2094,39.9231],[-81.2168,39.9263],[-81.2178,39.9311],[-81.2136,39.9299],[-81.2127,39.9337],[-81.2074,39.9332],[-81.2042,39.9367],[-81.1987,39.9346],[-81.1957,39.9353],[-81.1947,39.9392],[-81.1959,39.9423],[-81.1929,39.9435],[-81.1956,39.9466],[-81.1988,39.9474],[-81.1995,39.9503],[-81.1978,39.9516],[-81.1898,39.9511],[-81.1778,39.9541],[-81.1769,39.9585],[-81.1781,39.962],[-81.1831,39.9623],[-81.1891,39.9675],[-81.187,39.9696],[-81.1876,39.9743],[-81.1831,39.9757],[-81.1839,39.9784],[-81.1805,39.9835],[-81.1842,39.9851],[-81.1814,39.9897],[-81.1733,39.9861],[-81.1581,39.9909],[-81.1571,39.9928],[-81.1505,39.9913],[-81.1461,39.9953],[-81.1463,39.998],[-81.1425,40.0031],[-81.1297,40.0085],[-81.1273,40.0084],[-81.1248,40.0052],[-81.1131,40.0028],[-81.1113,40],[-81.1039,40.0019],[-81.0989,40.0054],[-81.0921,40.0167],[-81.0877,40.0193],[-81.0761,40.0215],[-81.076,40.0233],[-81.0691,40.0272],[-81.0689,40.0293],[-81.0721,40.0333],[-81.0775,40.0348],[-81.0774,40.0382],[-81.0734,40.0406],[-81.0697,40.0455],[-81.0721,40.0491],[-81.069,40.0539],[-81.0722,40.0599],[-81.074,40.0614],[-81.0767,40.061],[-81.0767,40.0628],[-81.0748,40.0649],[-81.0657,40.0661],[-81.0652,40.0675],[-81.0689,40.0699],[-81.0687,40.0723],[-81.0597,40.0761],[-81.0562,40.0803],[-81.0585,40.088],[-81.0625,40.0897],[-81.0619,40.0921],[-81.0638,40.095],[-81.0624,40.0961],[-81.0639,40.0982],[-81.0703,40.0997],[-81.0731,40.0988],[-81.0748,40.103],[-81.0734,40.1047],[-81.0751,40.1064],[-81.0838,40.1084],[-81.0832,40.1117],[-81.0781,40.118],[-81.0819,40.1215],[-81.0825,40.1244],[-81.0787,40.1268],[-81.0743,40.1266],[-81.0706,40.1308],[-81.0728,40.1359],[-81.0716,40.143],[-81.0674,40.147],[-81.0682,40.1487],[-81.0539,40.1505],[-81.0534,40.152],[-81.0575,40.1546],[-81.0558,40.1574],[-81.0569,40.16],[-81.055,40.1626],[-81.0578,40.1654],[-81.0559,40.1684],[-81.057,40.1704],[-81.0533,40.1716],[-81.049,40.1759],[-81.0458,40.1763],[-81.0445,40.1792],[-81.0369,40.1858],[-81.0368,40.1901],[-81.0393,40.1918],[-81.0322,40.1974],[-81.0322,40.1996],[-81.0159,40.2014],[-81.0146,40.2053],[-81.0162,40.2078],[-81.0142,40.2101],[-81.0182,40.2138],[-81.0204,40.2136],[-81.02,40.2185],[-81.0316,40.2232],[-81.0313,40.2258],[-81.0338,40.2268],[-81.0269,40.2368],[-81.0291,40.2394],[-81.0282,40.2418],[-81.0184,40.2481],[-81.0202,40.2501],[-81.0184,40.2539],[-81.0235,40.2575],[-81.0198,40.267],[-81.021,40.2686],[-81.0197,40.2755],[-81.014,40.2798],[-81.0037,40.281],[-81.0061,40.2864],[-81.0035,40.2899],[-80.9978,40.2921],[-80.9873,40.2927],[-80.9853,40.2978],[-80.9877,40.3008],[-80.9833,40.3063],[-80.9712,40.3068],[-80.971,40.3107],[-80.9642,40.3151],[-80.9652,40.3218],[-80.964,40.3269],[-80.9584,40.3284],[-80.9485,40.3271],[-80.9469,40.3303],[-80.943,40.3311],[-80.9433,40.334],[-80.9415,40.3349],[-80.9437,40.3377],[-80.9414,40.3411],[-80.9482,40.3464],[-80.9465,40.35],[-80.95,40.355],[-80.9481,40.3577],[-80.9513,40.3677],[-80.9503,40.3701],[-80.9473,40.3716],[-80.9475,40.3743],[-80.9501,40.3753],[-80.9504,40.3775],[-80.9471,40.3794],[-80.9504,40.3818],[-80.9479,40.3858],[-80.9479,40.3924],[-80.9428,40.3966],[-80.9453,40.3996],[-80.9453,40.4047],[-80.9476,40.4047],[-80.9467,40.4083],[-80.9513,40.4093],[-80.9563,40.4154],[-80.9523,40.4188],[-80.9563,40.4198],[-80.9586,40.423],[-80.9625,40.4242],[-80.964,40.4267],[-80.9632,40.429],[-80.97,40.4333],[-80.9709,40.4358],[-80.975,40.4368],[-80.9751,40.4411],[-80.9781,40.4426],[-80.977,40.4471],[-80.9856,40.4501],[-80.986,40.4523],[-80.992,40.4537],[-80.9923,40.4583],[-80.9989,40.4595],[-81.0018,40.4634],[-81.001,40.4706],[-81.0063,40.4727],[-81.0116,40.4726],[-81.012,40.4748],[-81.0151,40.474],[-81.0184,40.4785],[-81.0195,40.4824],[-81.0181,40.4847],[-81.0198,40.4889],[-81.0299,40.4928],[-81.0297,40.5004],[-81.0383,40.5058],[-81.0387,40.5115],[-81.0376,40.5153],[-81.0322,40.5156],[-81.0307,40.5184],[-81.0277,40.5192],[-81.0286,40.5251],[-81.0263,40.5257],[-81.0241,40.5293],[-81.0239,40.5331],[-81.0275,40.5344],[-81.0258,40.5378],[-81.0273,40.5416],[-81.0258,40.5434],[-81.0255,40.5513],[-81.0273,40.5538],[-81.0315,40.5552],[-81.0286,40.557],[-81.0295,40.5611],[-81.0273,40.5639],[-81.0288,40.5684],[-81.0237,40.5689],[-81.0263,40.5748],[-81.0207,40.575],[-81.0222,40.577],[-81.0194,40.5798],[-81.0062,40.5826],[-81.0029,40.5816],[-81.0022,40.5787],[-80.9972,40.5776],[-80.9873,40.5782],[-80.9836,40.5802],[-80.9824,40.5778],[-80.9777,40.5793],[-80.9776,40.5814],[-80.9752,40.5824],[-80.9767,40.5904],[-80.97,40.5972],[-80.9722,40.6025],[-80.9668,40.6035],[-80.9649,40.6092],[-80.9535,40.6119],[-80.9521,40.6187],[-80.9488,40.6205],[-80.9404,40.6167],[-80.9329,40.6171],[-80.9232,40.6214],[-80.9251,40.6306],[-80.9287,40.6328],[-80.9282,40.6351],[-80.9313,40.6362],[-80.9293,40.6408],[-80.9315,40.6416],[-80.9311,40.6443],[-80.9284,40.6458],[-80.929,40.6494],[-80.9264,40.6495],[-80.9252,40.6516],[-80.9253,40.6552],[-80.9278,40.6565],[-80.9261,40.6589],[-80.9274,40.6616],[-80.9329,40.6647],[-80.9371,40.6627],[-80.9406,40.6672],[-80.9396,40.6716],[-80.9426,40.6728],[-80.9417,40.6754],[-80.9447,40.6761],[-80.9445,40.6785],[-80.947,40.6804],[-80.9472,40.6853],[-80.9502,40.685],[-80.9526,40.6877],[-80.9504,40.689],[-80.9509,40.6919],[-80.9449,40.7005],[-80.9406,40.7018],[-80.9374,40.7054],[-80.9399,40.7075],[-80.9379,40.7137],[-80.9422,40.7143],[-80.9431,40.722],[-80.9406,40.7208],[-80.9333,40.723],[-80.9327,40.7256],[-80.9285,40.7284],[-80.9287,40.7315],[-80.926,40.7334],[-80.9267,40.737],[-80.9236,40.7375],[-80.9234,40.7414],[-80.92,40.7429],[-80.9168,40.7416],[-80.914,40.7427],[-80.9118,40.7448],[-80.9123,40.7481],[-80.9093,40.7487],[-80.9082,40.752],[-80.9039,40.7521],[-80.9038,40.7537],[-80.897,40.7569],[-80.8939,40.7635],[-80.8989,40.7676],[-80.8981,40.7702],[-80.9008,40.7719],[-80.9023,40.7767],[-80.9085,40.7752],[-80.9113,40.7784],[-80.9165,40.7777],[-80.9187,40.7809],[-80.9257,40.7792],[-80.9262,40.7815],[-80.9331,40.7846],[-80.9343,40.7863],[-80.9322,40.7885],[-80.9328,40.791],[-80.9312,40.793],[-80.935,40.8026],[-80.939,40.806],[-80.9331,40.8074],[-80.9436,40.8141],[-80.9526,40.8128],[-80.9541,40.8183],[-80.9573,40.8181],[-80.9614,40.8211],[-80.9645,40.821],[-80.9675,40.8174],[-80.9715,40.8171],[-80.9723,40.8195],[-80.9739,40.8195],[-80.9767,40.8176],[-80.982,40.8182],[-80.9858,40.8148],[-80.9888,40.8144],[-80.9895,40.8119],[-80.9872,40.8101],[-80.9899,40.8082],[-80.9873,40.8068],[-80.988,40.8034],[-80.9853,40.8016],[-80.9837,40.7968],[-80.9857,40.7904],[-80.983,40.7855],[-80.9841,40.7817],[-80.9871,40.7813],[-80.9891,40.785],[-80.9954,40.7874],[-80.9933,40.7907],[-80.9954,40.7938],[-80.9991,40.7943],[-81.0036,40.793],[-81.008,40.7939],[-81.0091,40.7929],[-81.0071,40.791],[-81.0075,40.7888],[-81.0111,40.788],[-81.0152,40.788],[-81.0168,40.7908],[-81.0215,40.792],[-81.0261,40.7876],[-81.0304,40.7867],[-81.0328,40.7832],[-81.0369,40.783],[-81.039,40.7869],[-81.0412,40.7856],[-81.0457,40.7865],[-81.046,40.789],[-81.0493,40.7898],[-81.0512,40.7923],[-81.0454,40.7921],[-81.0427,40.7951],[-81.0413,40.8031],[-81.0389,40.8006],[-81.0364,40.8031],[-81.0338,40.8092],[-81.0345,40.8121],[-81.0499,40.816],[-81.0512,40.8226],[-81.0494,40.8249],[-81.0501,40.8314],[-81.0473,40.8341],[-81.0496,40.8349],[-81.0505,40.8387],[-81.0574,40.8452],[-81.0617,40.845],[-81.0682,40.852],[-81.0723,40.8508],[-81.0739,40.8523],[-81.0773,40.8522],[-81.0857,40.8582],[-81.0869,40.8561],[-81.0964,40.8532],[-81.1094,40.8571],[-81.111,40.8559],[-81.1066,40.8518],[-81.1101,40.8495],[-81.1084,40.848],[-81.1176,40.8467],[-81.1197,40.8435],[-81.1215,40.8449],[-81.1253,40.8432],[-81.1248,40.845],[-81.1278,40.8486],[-81.1265,40.8497],[-81.1284,40.852],[-81.1416,40.8527],[-81.1404,40.8555],[-81.1436,40.8567],[-81.1491,40.8547],[-81.1529,40.8557],[-81.154,40.852],[-81.1688,40.8534],[-81.172,40.8511],[-81.1767,40.8515],[-81.1767,40.8543],[-81.1688,40.8584],[-81.1658,40.8617],[-81.1655,40.8663],[-81.1698,40.873],[-81.1853,40.8753],[-81.192,40.8792],[-81.195,40.8767],[-81.2002,40.8754],[-81.2041,40.8779],[-81.2111,40.8731],[-81.2182,40.8818],[-81.2171,40.8833],[-81.2206,40.8846],[-81.2193,40.8889],[-81.2223,40.8931],[-81.217,40.893],[-81.2135,40.8957],[-81.205,40.8975],[-81.2074,40.9081],[-81.2042,40.9117],[-81.2011,40.9127],[-81.2018,40.916],[-81.207,40.9187],[-81.2108,40.9165],[-81.2134,40.9177],[-81.2166,40.9158],[-81.2203,40.9168],[-81.2213,40.921],[-81.2254,40.9248],[-81.2247,40.9319],[-81.2216,40.9373],[-81.2269,40.9346],[-81.2338,40.9357],[-81.2471,40.9344],[-81.2437,40.9376],[-81.2432,40.9414],[-81.248,40.9438],[-81.2481,40.9457],[-81.2379,40.9458],[-81.2416,40.9485],[-81.242,40.9521],[-81.2466,40.9552],[-81.2472,40.961],[-81.2587,40.9655],[-81.2596,40.9675],[-81.2671,40.9675],[-81.2731,40.9748],[-81.2747,40.9729],[-81.2877,40.9728],[-81.2905,40.9697],[-81.2959,40.9718],[-81.3006,40.9712],[-81.304,40.9675],[-81.3089,40.967],[-81.3127,40.9634],[-81.3111,40.96],[-81.3119,40.9583],[-81.3218,40.9599],[-81.3262,40.9653],[-81.33,40.9634],[-81.3444,40.9635],[-81.3446,40.9687],[-81.3424,40.9704],[-81.3477,40.9736],[-81.3483,40.9756],[-81.3523,40.9766],[-81.3482,40.9827],[-81.3497,40.986],[-81.3466,40.9888],[-81.3507,40.9912],[-81.3519,40.9955],[-81.3541,40.9952],[-81.355,40.9977],[-81.3575,40.9935],[-81.3606,40.9926],[-81.3649,40.9947],[-81.3688,40.9931],[-81.3724,40.9963],[-81.3755,40.9967],[-81.3765,40.9981],[-81.3753,41.0043],[-81.3793,41.0065],[-81.3798,41.0088],[-81.3809,41.0084],[-81.3837,41.012],[-81.3887,41.0133],[-81.389,41.0153],[-81.3875,41.016],[-81.392,41.0188],[-81.3948,41.019],[-81.3953,41.0145],[-81.3995,41.0137],[-81.4041,41.0074],[-81.4088,41.0094],[-81.4113,41.0067],[-81.4203,41.0099],[-81.4231,41.0083],[-81.4251,41.0111],[-81.4278,41.0099],[-81.4373,41.0124],[-81.4386,41.0204],[-81.4406,41.0204],[-81.442,41.0184],[-81.448,41.0226],[-81.4523,41.0236],[-81.4569,41.0222],[-81.4615,41.0124],[-81.4632,41.0126],[-81.4685,41.0167],[-81.4689,41.0199],[-81.4662,41.024],[-81.4681,41.0254],[-81.4772,41.0251],[-81.4887,41.0292],[-81.482,41.0376],[-81.4804,41.0435],[-81.4918,41.0439],[-81.502,41.0516],[-81.5016,41.0549],[-81.5092,41.0556],[-81.5103,41.0578],[-81.5184,41.0613],[-81.5232,41.0602],[-81.5269,41.0554],[-81.5302,41.0574],[-81.5346,41.0573],[-81.5358,41.0598],[-81.5327,41.0607],[-81.5326,41.0627],[-81.5271,41.0659],[-81.5273,41.0717],[-81.5293,41.0735],[-81.5309,41.0737],[-81.5375,41.0668],[-81.5404,41.0666],[-81.5412,41.0685],[-81.5415,41.0655],[-81.5448,41.0652],[-81.5535,41.068],[-81.5535,41.0695],[-81.561,41.0737],[-81.5543,41.079],[-81.5462,41.0804],[-81.5435,41.0906],[-81.5482,41.0941],[-81.5473,41.0967],[-81.5434,41.099],[-81.5478,41.1041],[-81.547,41.1099],[-81.5511,41.1183],[-81.5528,41.116],[-81.5603,41.1177],[-81.5667,41.1166],[-81.5685,41.1198],[-81.5787,41.1236],[-81.5816,41.1217],[-81.5823,41.1176],[-81.5883,41.1154],[-81.5896,41.112],[-81.5931,41.1143],[-81.6023,41.1124],[-81.6062,41.1165],[-81.6064,41.1204],[-81.609,41.1248],[-81.6139,41.1253],[-81.6196,41.1283],[-81.6379,41.1428],[-81.6478,41.141],[-81.6517,41.1318],[-81.6555,41.1296],[-81.6543,41.1232],[-81.6649,41.1187],[-81.6717,41.1287],[-81.6738,41.1287],[-81.6764,41.1254],[-81.685,41.1237],[-81.6886,41.1199],[-81.6875,41.118],[-81.6848,41.1175],[-81.6858,41.1163],[-81.684,41.111],[-81.6903,41.114],[-81.6973,41.115],[-81.6998,41.112],[-81.7133,41.1181],[-81.7191,41.1167],[-81.7226,41.1193],[-81.721,41.1225],[-81.7165,41.1241],[-81.7175,41.1253],[-81.716,41.1273],[-81.717,41.1299],[-81.7159,41.1344],[-81.7179,41.1357],[-81.7225,41.1348],[-81.7234,41.1331],[-81.7263,41.1347],[-81.7316,41.1321],[-81.7325,41.1373],[-81.7379,41.1406],[-81.7432,41.1411],[-81.7489,41.1449],[-81.7521,41.1447],[-81.7532,41.1422],[-81.7619,41.1402]]]},"properties":{"OBJECTID":79,"tnmid":"{77520659-B301-4ADB-A9F6-24D55ED63114}","loaddate":1723806686000,"areaacres":5152000.93,"areasqkm":20849.43,"states":"OH","huc6":"050400","name":"Muskingum","MaxSimpTol":100,"MinSimpTol":100,"shape_Length":1349832.225254798,"shape_Area":35941461966.84924,"metasourceid":"{511D2AC8-11BA-45FC-AB98-F69D693D4C44}","sourcedatadesc":"Watershed Boundary Dataset (WBD)","sourceoriginator":"Natural Resources and Conservation Service and U.S. Geological Survey","sourcefeatureid":null,"InPoly_FID":79,"SimPgnFlag":0,"referencegnis_ids":"1084024"}},{"type":"Feature","id":205,"geometry":{"type":"Polygon","coordinates":[[[-82.951,40.7987],[-82.9576,40.8014],[-82.968,40.7979],[-82.9749,40.801],[-82.9802,40.7956],[-82.9843,40.7957],[-82.9869,40.7925],[-82.9931,40.7924],[-82.9936,40.7893],[-83.0042,40.787],[-83.0072,40.7884],[-83.0107,40.7866],[-83.014,40.7757],[-83.0226,40.774],[-83.0245,40.7674],[-83.0274,40.7657],[-83.0288,40.7617],[-83.0317,40.7631],[-83.0342,40.7625],[-83.0336,40.7604],[-83.0454,40.7524],[-83.0457,40.7491],[-83.049,40.7475],[-83.0477,40.744],[-83.0534,40.7404],[-83.0529,40.7391],[-83.0571,40.7343],[-83.0597,40.7337],[-83.0585,40.7315],[-83.0609,40.7286],[-83.0592,40.7253],[-83.0602,40.7231],[-83.0634,40.7232],[-83.0702,40.7199],[-83.0701,40.7168],[-83.0741,40.7161],[-83.0783,40.7187],[-83.0807,40.7165],[-83.088,40.7178],[-83.0905,40.7169],[-83.0914,40.7191],[-83.0932,40.7191],[-83.1078,40.715],[-83.1103,40.7174],[-83.1161,40.7187],[-83.1152,40.7211],[-83.1191,40.7213],[-83.1212,40.7254],[-83.12,40.7305],[-83.1226,40.7281],[-83.1294,40.7287],[-83.1351,40.7197],[-83.1289,40.7195],[-83.1263,40.7166],[-83.1288,40.7148],[-83.1349,40.7141],[-83.1356,40.7082],[-83.1429,40.7024],[-83.1503,40.6998],[-83.1508,40.6948],[-83.1559,40.693],[-83.1546,40.6876],[-83.1638,40.6823],[-83.1633,40.674],[-83.1656,40.6731],[-83.1674,40.6656],[-83.1704,40.6641],[-83.1706,40.6607],[-83.1744,40.6564],[-83.1723,40.6499],[-83.1757,40.6469],[-83.1768,40.6412],[-83.1802,40.6427],[-83.1855,40.6362],[-83.1879,40.6367],[-83.1903,40.6321],[-83.1932,40.6339],[-83.2024,40.6307],[-83.2063,40.6246],[-83.2158,40.6191],[-83.2178,40.6127],[-83.2168,40.6085],[-83.2202,40.603],[-83.2245,40.6006],[-83.2347,40.6014],[-83.241,40.6043],[-83.2506,40.606],[-83.2571,40.6019],[-83.2617,40.603],[-83.274,40.6004],[-83.2853,40.6051],[-83.288,40.6036],[-83.3013,40.6036],[-83.3066,40.5967],[-83.3178,40.5965],[-83.3224,40.5908],[-83.3289,40.5911],[-83.3301,40.5925],[-83.3345,40.5918],[-83.3359,40.5939],[-83.3427,40.5963],[-83.3494,40.5964],[-83.3545,40.6014],[-83.3605,40.6011],[-83.3606,40.6037],[-83.3737,40.6012],[-83.3787,40.604],[-83.3883,40.6045],[-83.4002,40.6102],[-83.4034,40.6098],[-83.4113,40.6175],[-83.4158,40.6197],[-83.4218,40.6196],[-83.4232,40.6231],[-83.4383,40.628],[-83.4495,40.6287],[-83.46,40.6326],[-83.4768,40.6309],[-83.4818,40.6279],[-83.4909,40.6329],[-83.4963,40.6403],[-83.4995,40.6419],[-83.5031,40.6401],[-83.5071,40.634],[-83.5175,40.6303],[-83.5244,40.6322],[-83.5291,40.6303],[-83.5368,40.6332],[-83.5367,40.6379],[-83.5463,40.6443],[-83.5509,40.6421],[-83.5597,40.641],[-83.5645,40.642],[-83.5664,40.6406],[-83.5682,40.6434],[-83.576,40.6444],[-83.5779,40.6511],[-83.5819,40.6564],[-83.5862,40.6579],[-83.5984,40.651],[-83.6011,40.6526],[-83.608,40.6523],[-83.6118,40.6562],[-83.6186,40.655],[-83.6234,40.6571],[-83.6339,40.6578],[-83.636,40.6594],[-83.6357,40.6569],[-83.6396,40.6568],[-83.6403,40.6587],[-83.6447,40.6599],[-83.6472,40.6628],[-83.6512,40.6622],[-83.6552,40.6642],[-83.6599,40.6685],[-83.658,40.6711],[-83.6622,40.6742],[-83.666,40.6736],[-83.6666,40.6765],[-83.6743,40.676],[-83.6763,40.6793],[-83.6851,40.6793],[-83.6857,40.6827],[-83.6909,40.6843],[-83.6893,40.6881],[-83.6943,40.6919],[-83.6946,40.6953],[-83.6984,40.6964],[-83.6978,40.6988],[-83.6998,40.7006],[-83.7019,40.7021],[-83.7069,40.7018],[-83.7115,40.7076],[-83.7214,40.7116],[-83.7262,40.7107],[-83.7284,40.7129],[-83.733,40.7123],[-83.7352,40.7093],[-83.7381,40.7111],[-83.7475,40.7087],[-83.752,40.7111],[-83.757,40.7089],[-83.7617,40.7118],[-83.7699,40.7088],[-83.7708,40.7102],[-83.7812,40.7078],[-83.7875,40.7075],[-83.7921,40.7092],[-83.7986,40.7084],[-83.8063,40.711],[-83.8111,40.7108],[-83.8179,40.7151],[-83.8267,40.7153],[-83.8343,40.7209],[-83.8459,40.7205],[-83.86,40.7229],[-83.8691,40.7202],[-83.8728,40.722],[-83.8846,40.7199],[-83.8902,40.7219],[-83.8924,40.7211],[-83.8926,40.7188],[-83.8972,40.7189],[-83.8986,40.7154],[-83.8974,40.7116],[-83.8919,40.7075],[-83.8871,40.7072],[-83.8862,40.7038],[-83.886,40.7013],[-83.8894,40.6986],[-83.8865,40.6909],[-83.8896,40.6907],[-83.8927,40.686],[-83.8885,40.6867],[-83.8862,40.6845],[-83.8801,40.6832],[-83.8848,40.6774],[-83.8893,40.675],[-83.8895,40.6661],[-83.8982,40.6652],[-83.8976,40.6629],[-83.9012,40.6621],[-83.9025,40.6583],[-83.9055,40.6582],[-83.9032,40.6552],[-83.9059,40.6525],[-83.9023,40.6487],[-83.9033,40.6425],[-83.8996,40.6413],[-83.9011,40.6395],[-83.9011,40.6349],[-83.9056,40.6337],[-83.9032,40.6321],[-83.9041,40.627],[-83.902,40.6225],[-83.908,40.6212],[-83.9085,40.6233],[-83.9158,40.6255],[-83.9186,40.6303],[-83.9227,40.631],[-83.9247,40.6289],[-83.9301,40.6279],[-83.9358,40.6225],[-83.9326,40.6204],[-83.9361,40.613],[-83.9344,40.6123],[-83.9355,40.6102],[-83.9331,40.6044],[-83.9343,40.6013],[-83.9302,40.6001],[-83.9306,40.5911],[-83.9282,40.5836],[-83.9298,40.5807],[-83.9285,40.5716],[-83.934,40.5707],[-83.9327,40.5678],[-83.9365,40.5642],[-83.9345,40.5627],[-83.9363,40.5579],[-83.9343,40.5568],[-83.9357,40.5544],[-83.9341,40.5505],[-83.9323,40.5497],[-83.9251,40.5539],[-83.9207,40.5494],[-83.9136,40.5483],[-83.9063,40.554],[-83.8859,40.5541],[-83.8829,40.5507],[-83.8736,40.55],[-83.8694,40.5369],[-83.8637,40.5351],[-83.8642,40.5299],[-83.8612,40.5286],[-83.8566,40.5284],[-83.8499,40.5345],[-83.8501,40.5363],[-83.8455,40.5419],[-83.8426,40.54],[-83.8372,40.5411],[-83.8363,40.5395],[-83.8375,40.5377],[-83.8349,40.5385],[-83.833,40.5369],[-83.8297,40.542],[-83.8232,40.5425],[-83.8119,40.5467],[-83.8125,40.5488],[-83.8029,40.5482],[-83.8,40.5576],[-83.7949,40.5573],[-83.794,40.5546],[-83.791,40.5558],[-83.7889,40.5612],[-83.7859,40.5614],[-83.7828,40.5686],[-83.776,40.5732],[-83.774,40.5833],[-83.7686,40.5854],[-83.7676,40.5885],[-83.7636,40.5909],[-83.742,40.5901],[-83.7409,40.5951],[-83.7354,40.6008],[-83.7338,40.5985],[-83.7304,40.5997],[-83.7262,40.5978],[-83.7228,40.5992],[-83.7183,40.5974],[-83.7133,40.5983],[-83.7096,40.5968],[-83.7042,40.5972],[-83.7016,40.5929],[-83.6962,40.5881],[-83.6936,40.5877],[-83.6939,40.5792],[-83.6965,40.5775],[-83.6996,40.5781],[-83.705,40.5741],[-83.7065,40.5696],[-83.7151,40.564],[-83.7167,40.5589],[-83.7132,40.5594],[-83.7109,40.5583],[-83.7119,40.5571],[-83.7069,40.5556],[-83.7097,40.5501],[-83.7018,40.5483],[-83.7019,40.5468],[-83.6965,40.5448],[-83.6949,40.542],[-83.6896,40.5427],[-83.6892,40.5446],[-83.6875,40.5448],[-83.6821,40.5433],[-83.6826,40.5399],[-83.6808,40.5396],[-83.6782,40.5356],[-83.6773,40.5285],[-83.6689,40.5234],[-83.6665,40.5193],[-83.6601,40.5184],[-83.6566,40.5148],[-83.6505,40.5135],[-83.6486,40.5101],[-83.644,40.5078],[-83.6485,40.5032],[-83.6525,40.5021],[-83.6513,40.4964],[-83.6493,40.4951],[-83.65,40.4896],[-83.6478,40.4869],[-83.6491,40.4832],[-83.6513,40.4816],[-83.6649,40.4802],[-83.6763,40.4819],[-83.6771,40.4719],[-83.6756,40.4702],[-83.6773,40.4679],[-83.6738,40.4617],[-83.6749,40.4599],[-83.6788,40.4597],[-83.6786,40.4528],[-83.6944,40.4431],[-83.7,40.4409],[-83.7125,40.4397],[-83.725,40.4334],[-83.7212,40.4281],[-83.7214,40.4231],[-83.7132,40.4197],[-83.7126,40.4161],[-83.7099,40.4135],[-83.7142,40.4113],[-83.7148,40.4079],[-83.7197,40.4056],[-83.7221,40.4016],[-83.7221,40.398],[-83.7195,40.3969],[-83.719,40.3926],[-83.7207,40.3902],[-83.7197,40.3871],[-83.7177,40.3874],[-83.716,40.3906],[-83.7107,40.3906],[-83.7059,40.3934],[-83.6943,40.3894],[-83.6839,40.389],[-83.6806,40.3865],[-83.6739,40.3885],[-83.6722,40.3862],[-83.6674,40.3859],[-83.6656,40.384],[-83.6573,40.3831],[-83.6529,40.3805],[-83.6511,40.3765],[-83.6473,40.3764],[-83.643,40.3718],[-83.6418,40.3665],[-83.6319,40.3647],[-83.6249,40.3592],[-83.6184,40.3582],[-83.6109,40.3506],[-83.6222,40.3468],[-83.6226,40.3435],[-83.6317,40.3418],[-83.6338,40.3394],[-83.6382,40.3414],[-83.6407,40.3382],[-83.6344,40.3338],[-83.635,40.3304],[-83.633,40.3265],[-83.6294,40.3266],[-83.6266,40.3238],[-83.6266,40.319],[-83.6213,40.3144],[-83.6231,40.3058],[-83.6256,40.304],[-83.6321,40.3033],[-83.6268,40.2937],[-83.6272,40.2886],[-83.6241,40.2829],[-83.6243,40.2793],[-83.6263,40.277],[-83.6232,40.2728],[-83.6174,40.2705],[-83.616,40.2652],[-83.6191,40.2608],[-83.626,40.2592],[-83.6285,40.2536],[-83.6324,40.252],[-83.6324,40.2463],[-83.6386,40.2429],[-83.6354,40.2386],[-83.6349,40.229],[-83.6307,40.2234],[-83.6336,40.2213],[-83.6251,40.216],[-83.6312,40.2129],[-83.6287,40.2063],[-83.6245,40.203],[-83.6257,40.1997],[-83.6213,40.1968],[-83.62,40.1925],[-83.6218,40.1909],[-83.6168,40.1891],[-83.6147,40.1848],[-83.616,40.1759],[-83.6051,40.1731],[-83.6074,40.169],[-83.6069,40.1667],[-83.6096,40.1641],[-83.6083,40.1579],[-83.6103,40.1515],[-83.6095,40.1478],[-83.6118,40.1476],[-83.6146,40.1506],[-83.6208,40.1529],[-83.6254,40.1519],[-83.6273,40.1464],[-83.6325,40.1474],[-83.6306,40.1449],[-83.6317,40.1429],[-83.6342,40.1427],[-83.6349,40.1404],[-83.6336,40.1387],[-83.6303,40.1402],[-83.6253,40.1391],[-83.6263,40.1279],[-83.6231,40.1249],[-83.6263,40.1237],[-83.6264,40.1215],[-83.6236,40.1185],[-83.6229,40.1128],[-83.6208,40.1084],[-83.6134,40.1037],[-83.6129,40.0991],[-83.6085,40.0969],[-83.6095,40.0925],[-83.6048,40.0895],[-83.6059,40.0842],[-83.61,40.0851],[-83.6134,40.081],[-83.6066,40.0671],[-83.6007,40.0613],[-83.6017,40.0569],[-83.6078,40.0534],[-83.6082,40.0478],[-83.6031,40.0465],[-83.5999,40.0484],[-83.5974,40.044],[-83.5869,40.0388],[-83.5863,40.0366],[-83.5882,40.0356],[-83.5861,40.0285],[-83.5919,40.0171],[-83.5868,40.0116],[-83.5861,40.0064],[-83.5819,40.0042],[-83.5768,40.0047],[-83.5795,40.0004],[-83.5791,39.9953],[-83.5775,39.9957],[-83.5756,39.9937],[-83.5727,39.9943],[-83.5694,39.9889],[-83.5681,39.9889],[-83.5678,39.9809],[-83.5745,39.9764],[-83.574,39.9736],[-83.5721,39.9734],[-83.5727,39.9648],[-83.5706,39.9639],[-83.5719,39.9625],[-83.5684,39.9584],[-83.5624,39.9561],[-83.5568,39.9469],[-83.558,39.9457],[-83.5566,39.9423],[-83.5616,39.9398],[-83.5598,39.936],[-83.5579,39.9364],[-83.5571,39.9349],[-83.5607,39.9334],[-83.5586,39.9307],[-83.5592,39.9278],[-83.5606,39.9273],[-83.561,39.9237],[-83.5645,39.9229],[-83.5618,39.9171],[-83.5594,39.9158],[-83.5571,39.9166],[-83.5507,39.9119],[-83.5497,39.9051],[-83.5524,39.9054],[-83.5549,39.9019],[-83.5572,39.8964],[-83.5554,39.894],[-83.5589,39.8926],[-83.5583,39.89],[-83.5641,39.8829],[-83.5654,39.8732],[-83.5677,39.8684],[-83.5698,39.8672],[-83.5678,39.8648],[-83.5717,39.8624],[-83.5697,39.8589],[-83.5745,39.854],[-83.5706,39.8516],[-83.5724,39.8466],[-83.5751,39.8449],[-83.5722,39.8372],[-83.5747,39.8321],[-83.5717,39.82],[-83.5872,39.8167],[-83.5888,39.8135],[-83.5877,39.809],[-83.5928,39.8079],[-83.5955,39.8041],[-83.5986,39.8045],[-83.5998,39.799],[-83.6044,39.7971],[-83.6062,39.792],[-83.6022,39.7894],[-83.601,39.7862],[-83.6063,39.776],[-83.6094,39.7749],[-83.6106,39.7715],[-83.6166,39.7714],[-83.6225,39.7679],[-83.6229,39.7645],[-83.6293,39.7557],[-83.6334,39.7516],[-83.6392,39.75],[-83.6328,39.7407],[-83.6362,39.7349],[-83.6288,39.7318],[-83.6283,39.7285],[-83.6354,39.7254],[-83.6337,39.719],[-83.6411,39.7172],[-83.6408,39.7126],[-83.6461,39.7119],[-83.6486,39.7144],[-83.6495,39.7129],[-83.6551,39.7116],[-83.6539,39.7083],[-83.6595,39.7078],[-83.6582,39.7042],[-83.6612,39.7009],[-83.6619,39.6931],[-83.6636,39.692],[-83.6677,39.693],[-83.6734,39.6845],[-83.6723,39.6828],[-83.6781,39.6787],[-83.6722,39.6755],[-83.6706,39.6621],[-83.6682,39.6612],[-83.6684,39.658],[-83.6709,39.6571],[-83.6717,39.6528],[-83.6744,39.6522],[-83.6704,39.6488],[-83.6704,39.6462],[-83.6817,39.6392],[-83.6959,39.642],[-83.697,39.6391],[-83.7006,39.6366],[-83.7046,39.6365],[-83.7076,39.6289],[-83.7162,39.6301],[-83.7175,39.6258],[-83.7237,39.6227],[-83.7239,39.6213],[-83.7211,39.6202],[-83.7221,39.6178],[-83.7201,39.6148],[-83.7227,39.6118],[-83.7226,39.6091],[-83.7207,39.6075],[-83.7222,39.6051],[-83.72,39.6022],[-83.72,39.5984],[-83.7213,39.5935],[-83.7232,39.5932],[-83.7223,39.5901],[-83.7242,39.5852],[-83.7197,39.5807],[-83.7202,39.5776],[-83.7241,39.5757],[-83.7246,39.5737],[-83.7196,39.5743],[-83.7193,39.5696],[-83.7163,39.568],[-83.7161,39.5653],[-83.7126,39.5635],[-83.7095,39.564],[-83.7041,39.5593],[-83.7082,39.5553],[-83.7026,39.5478],[-83.705,39.5442],[-83.702,39.5397],[-83.7041,39.5352],[-83.7027,39.5315],[-83.6965,39.5278],[-83.6955,39.5237],[-83.6993,39.5201],[-83.6976,39.5149],[-83.6997,39.5125],[-83.6969,39.5039],[-83.6989,39.5002],[-83.6932,39.498],[-83.6941,39.4915],[-83.6914,39.4902],[-83.6887,39.4859],[-83.6835,39.4861],[-83.6815,39.4846],[-83.6816,39.4823],[-83.679,39.4826],[-83.6796,39.4814],[-83.6763,39.4788],[-83.6768,39.4771],[-83.6837,39.4764],[-83.6841,39.4745],[-83.6811,39.4704],[-83.6683,39.4674],[-83.6657,39.4646],[-83.6577,39.4607],[-83.6564,39.4573],[-83.6533,39.457],[-83.6522,39.4545],[-83.6531,39.4494],[-83.6572,39.4473],[-83.6498,39.4424],[-83.6398,39.4409],[-83.6369,39.4388],[-83.6378,39.4361],[-83.6337,39.436],[-83.6292,39.4326],[-83.6371,39.4307],[-83.6359,39.4286],[-83.6425,39.4257],[-83.6398,39.4217],[-83.6437,39.4168],[-83.6469,39.4172],[-83.6516,39.4113],[-83.6588,39.409],[-83.6609,39.405],[-83.6701,39.399],[-83.6736,39.3931],[-83.6715,39.3907],[-83.672,39.387],[-83.676,39.3822],[-83.6755,39.3806],[-83.6773,39.3791],[-83.6766,39.3765],[-83.689,39.3677],[-83.6817,39.3577],[-83.6861,39.3566],[-83.6863,39.3539],[-83.6908,39.3489],[-83.6921,39.3441],[-83.6951,39.3429],[-83.6849,39.3403],[-83.674,39.3319],[-83.6658,39.3292],[-83.6606,39.3229],[-83.6567,39.3226],[-83.6584,39.3184],[-83.653,39.3102],[-83.6576,39.3054],[-83.6622,39.3067],[-83.673,39.3054],[-83.678,39.3019],[-83.6751,39.2952],[-83.6708,39.2913],[-83.6704,39.2891],[-83.6729,39.287],[-83.6702,39.2839],[-83.6716,39.28],[-83.6681,39.2763],[-83.6707,39.2683],[-83.6761,39.2652],[-83.6756,39.2618],[-83.6772,39.2598],[-83.6736,39.2538],[-83.6779,39.248],[-83.6783,39.2421],[-83.6769,39.2367],[-83.6717,39.2315],[-83.6729,39.2258],[-83.6781,39.2209],[-83.6778,39.2155],[-83.6805,39.2134],[-83.6856,39.2144],[-83.6901,39.2072],[-83.6888,39.2018],[-83.6925,39.2007],[-83.696,39.1934],[-83.6888,39.1895],[-83.6889,39.1834],[-83.6913,39.181],[-83.6912,39.1783],[-83.6959,39.1773],[-83.7002,39.1736],[-83.6999,39.1706],[-83.6947,39.1634],[-83.6838,39.1627],[-83.6755,39.1594],[-83.677,39.1548],[-83.6739,39.1518],[-83.6658,39.1487],[-83.6623,39.1409],[-83.6549,39.1387],[-83.6547,39.1359],[-83.6511,39.1345],[-83.6516,39.1324],[-83.6537,39.1321],[-83.6534,39.1305],[-83.6489,39.1257],[-83.6442,39.1277],[-83.628,39.1268],[-83.6219,39.1306],[-83.6177,39.1272],[-83.608,39.1293],[-83.6034,39.1258],[-83.5971,39.1275],[-83.597,39.1315],[-83.5897,39.1394],[-83.5711,39.1451],[-83.5689,39.1422],[-83.5692,39.1374],[-83.5635,39.13],[-83.5596,39.1311],[-83.5544,39.1398],[-83.5391,39.1375],[-83.5326,39.14],[-83.5243,39.1391],[-83.5191,39.142],[-83.4982,39.1355],[-83.4852,39.1349],[-83.4808,39.1367],[-83.475,39.1317],[-83.4711,39.1355],[-83.4679,39.1362],[-83.4563,39.1334],[-83.4425,39.1362],[-83.4393,39.1345],[-83.4304,39.1391],[-83.4228,39.1367],[-83.4186,39.1418],[-83.4166,39.1512],[-83.413,39.1514],[-83.4076,39.1577],[-83.4009,39.1567],[-83.3989,39.1544],[-83.3882,39.156],[-83.3811,39.1612],[-83.372,39.1601],[-83.3612,39.1558],[-83.3528,39.1581],[-83.3492,39.1623],[-83.3526,39.1642],[-83.3551,39.1692],[-83.3534,39.1766],[-83.3484,39.1791],[-83.3478,39.1851],[-83.3487,39.1873],[-83.3556,39.1881],[-83.3597,39.1915],[-83.3572,39.1946],[-83.3582,39.2023],[-83.3565,39.2062],[-83.3633,39.2085],[-83.3611,39.2142],[-83.3444,39.2128],[-83.3394,39.209],[-83.3385,39.2059],[-83.3347,39.2044],[-83.3302,39.2038],[-83.3233,39.2055],[-83.3222,39.2002],[-83.3175,39.1969],[-83.3169,39.194],[-83.3125,39.1902],[-83.3128,39.1876],[-83.3109,39.187],[-83.3102,39.1825],[-83.3083,39.1806],[-83.3034,39.1822],[-83.3009,39.1856],[-83.2954,39.1821],[-83.2875,39.1812],[-83.2772,39.1833],[-83.27,39.1877],[-83.2675,39.1865],[-83.2657,39.1821],[-83.2692,39.1793],[-83.2685,39.1759],[-83.2724,39.1754],[-83.2709,39.1689],[-83.2815,39.167],[-83.2838,39.163],[-83.2878,39.165],[-83.2937,39.1654],[-83.2946,39.161],[-83.3061,39.1545],[-83.3075,39.152],[-83.3195,39.1461],[-83.3238,39.1455],[-83.3271,39.1402],[-83.3334,39.14],[-83.3385,39.1328],[-83.3457,39.1337],[-83.352,39.1321],[-83.3558,39.1252],[-83.3655,39.1245],[-83.3688,39.1213],[-83.3835,39.1198],[-83.388,39.1211],[-83.3919,39.1171],[-83.3967,39.1149],[-83.3958,39.1118],[-83.392,39.1096],[-83.3924,39.1053],[-83.3908,39.1045],[-83.3924,39.1015],[-83.3876,39.0936],[-83.3816,39.0943],[-83.3772,39.0926],[-83.379,39.0894],[-83.3732,39.0866],[-83.3729,39.0847],[-83.3604,39.0804],[-83.3568,39.0766],[-83.3589,39.0714],[-83.3567,39.0696],[-83.3479,39.0652],[-83.3422,39.0667],[-83.3268,39.0579],[-83.3286,39.0463],[-83.3318,39.047],[-83.3406,39.0447],[-83.3456,39.0411],[-83.3435,39.0401],[-83.3424,39.0353],[-83.3452,39.0262],[-83.3419,39.025],[-83.3392,39.0201],[-83.3437,39.0166],[-83.3431,39.0139],[-83.3528,39.0099],[-83.3485,39.004],[-83.3536,39.0032],[-83.3588,38.9988],[-83.3582,38.9967],[-83.3651,38.9952],[-83.3636,38.9914],[-83.3724,38.9898],[-83.3716,38.9822],[-83.3744,38.9772],[-83.3823,38.9729],[-83.3811,38.9666],[-83.3892,38.9617],[-83.3919,38.9558],[-83.3982,38.9529],[-83.4015,38.9472],[-83.3998,38.9433],[-83.4017,38.9353],[-83.4003,38.9267],[-83.3952,38.9258],[-83.3909,38.9197],[-83.3947,38.9145],[-83.3895,38.9121],[-83.3846,38.9131],[-83.3826,38.9111],[-83.3844,38.9082],[-83.3876,38.9085],[-83.3972,38.9043],[-83.3972,38.9011],[-83.3948,38.8988],[-83.3967,38.8969],[-83.3928,38.8924],[-83.3898,38.8922],[-83.384,38.8831],[-83.3937,38.8761],[-83.3935,38.8744],[-83.39,38.8734],[-83.3901,38.8657],[-83.3815,38.861],[-83.3735,38.8636],[-83.3636,38.8621],[-83.3587,38.854],[-83.3511,38.8545],[-83.3493,38.852],[-83.3534,38.8473],[-83.3478,38.8347],[-83.3545,38.8288],[-83.3531,38.8243],[-83.3543,38.8231],[-83.3512,38.8181],[-83.3446,38.8149],[-83.3472,38.8126],[-83.3476,38.807],[-83.3499,38.805],[-83.3566,38.806],[-83.366,38.8031],[-83.3756,38.8085],[-83.3833,38.8067],[-83.3839,38.8006],[-83.3918,38.7967],[-83.3999,38.7958],[-83.4008,38.7934],[-83.4105,38.7878],[-83.4079,38.7822],[-83.4164,38.7763],[-83.4177,38.7729],[-83.4205,38.7729],[-83.4204,38.7676],[-83.4281,38.7686],[-83.432,38.7665],[-83.4335,38.768],[-83.4382,38.7643],[-83.4403,38.7659],[-83.4412,38.7637],[-83.4397,38.7585],[-83.4427,38.7556],[-83.4395,38.7539],[-83.4386,38.7498],[-83.4331,38.7484],[-83.4336,38.7459],[-83.4279,38.7394],[-83.4308,38.734],[-83.4275,38.7328],[-83.4269,38.729],[-83.4206,38.7278],[-83.4189,38.7256],[-83.4156,38.7254],[-83.4129,38.728],[-83.4065,38.7266],[-83.3992,38.7306],[-83.3944,38.7264],[-83.3887,38.7274],[-83.3823,38.7235],[-83.3762,38.727],[-83.3767,38.7301],[-83.3752,38.7303],[-83.3705,38.7297],[-83.3658,38.7261],[-83.3616,38.7261],[-83.3616,38.7248],[-83.3586,38.7252],[-83.3568,38.7204],[-83.3532,38.7191],[-83.3545,38.7146],[-83.3451,38.7143],[-83.345,38.7119],[-83.3407,38.7141],[-83.3372,38.7129],[-83.3358,38.715],[-83.333,38.714],[-83.3301,38.717],[-83.3241,38.7128],[-83.3189,38.7124],[-83.3154,38.714],[-83.316,38.7167],[-83.3135,38.7191],[-83.311,38.7181],[-83.3087,38.7199],[-83.3078,38.7165],[-83.3047,38.7161],[-83.3022,38.7179],[-83.2977,38.7127],[-83.2956,38.7124],[-83.2936,38.7156],[-83.2899,38.7163],[-83.2898,38.7136],[-83.2851,38.7113],[-83.2848,38.7077],[-83.2818,38.7062],[-83.2798,38.7081],[-83.2771,38.7064],[-83.2748,38.7093],[-83.2737,38.7079],[-83.2704,38.7083],[-83.2678,38.7115],[-83.2627,38.7115],[-83.2599,38.7135],[-83.253,38.7127],[-83.2513,38.7142],[-83.2532,38.7179],[-83.249,38.7244],[-83.2505,38.726],[-83.2468,38.7301],[-83.2508,38.7328],[-83.2503,38.7347],[-83.2523,38.736],[-83.2523,38.7379],[-83.2478,38.7405],[-83.2495,38.7459],[-83.2464,38.7476],[-83.2473,38.7496],[-83.2447,38.7527],[-83.2463,38.7546],[-83.2402,38.7588],[-83.2346,38.759],[-83.2343,38.761],[-83.2315,38.7613],[-83.2282,38.7698],[-83.2255,38.7685],[-83.2241,38.7698],[-83.2215,38.7692],[-83.2181,38.7721],[-83.21,38.7716],[-83.2075,38.7744],[-83.2045,38.7732],[-83.2036,38.771],[-83.199,38.7702],[-83.1986,38.7679],[-83.1932,38.7669],[-83.1933,38.7649],[-83.1895,38.7627],[-83.1869,38.7639],[-83.1864,38.7668],[-83.18,38.7666],[-83.1786,38.7699],[-83.1802,38.7715],[-83.1764,38.7721],[-83.1745,38.7743],[-83.1712,38.7727],[-83.1672,38.7734],[-83.1642,38.7706],[-83.1561,38.7742],[-83.1502,38.7719],[-83.1509,38.7692],[-83.1432,38.7646],[-83.1378,38.7655],[-83.1359,38.7637],[-83.1313,38.764],[-83.1306,38.7621],[-83.1245,38.7623],[-83.1218,38.7589],[-83.1174,38.7595],[-83.117,38.7631],[-83.1137,38.7647],[-83.1097,38.7629],[-83.1067,38.7667],[-83.1019,38.7631],[-83.0966,38.7641],[-83.0884,38.7603],[-83.0856,38.7604],[-83.084,38.7641],[-83.0763,38.7653],[-83.0757,38.7632],[-83.0704,38.7607],[-83.0709,38.7588],[-83.0685,38.7585],[-83.0663,38.761],[-83.0615,38.7617],[-83.0618,38.7644],[-83.0593,38.7641],[-83.0578,38.7663],[-83.0547,38.7663],[-83.0513,38.7631],[-83.0462,38.7634],[-83.043,38.7657],[-83.033,38.7634],[-83.0297,38.7566],[-83.0314,38.7508],[-83.0277,38.7487],[-83.0216,38.737],[-83.0175,38.7362],[-83.0185,38.732],[-83.0147,38.7302],[-82.9934,38.7363],[-82.985,38.7427],[-82.9818,38.7434],[-82.9854,38.7499],[-82.9817,38.7579],[-82.9832,38.7635],[-82.977,38.7682],[-82.9736,38.7675],[-82.9713,38.7699],[-82.9682,38.7704],[-82.9699,38.7736],[-82.9634,38.7767],[-82.9655,38.7781],[-82.9602,38.7877],[-82.972,38.793],[-82.9671,38.7946],[-82.9676,38.7983],[-82.9637,38.7997],[-82.9613,38.8034],[-82.9643,38.8101],[-82.9622,38.8168],[-82.9645,38.821],[-82.9608,38.8234],[-82.9612,38.8264],[-82.9553,38.8291],[-82.9544,38.8311],[-82.9557,38.8343],[-82.9522,38.835],[-82.9484,38.8387],[-82.9504,38.8403],[-82.9503,38.8424],[-82.9457,38.8436],[-82.9401,38.848],[-82.9375,38.8529],[-82.9353,38.8519],[-82.9315,38.8558],[-82.9283,38.8534],[-82.9272,38.8547],[-82.9195,38.8543],[-82.9168,38.8556],[-82.9171,38.8608],[-82.9127,38.8628],[-82.9173,38.8649],[-82.9194,38.8694],[-82.9288,38.872],[-82.9314,38.8712],[-82.9314,38.8745],[-82.9328,38.8752],[-82.9375,38.8738],[-82.9403,38.8751],[-82.9427,38.8786],[-82.9391,38.8841],[-82.9402,38.8866],[-82.9441,38.888],[-82.9475,38.8867],[-82.9504,38.8895],[-82.9489,38.8915],[-82.9499,38.8935],[-82.9537,38.8952],[-82.9501,38.901],[-82.9507,38.905],[-82.948,38.9063],[-82.9494,38.9088],[-82.9428,38.9094],[-82.9432,38.9125],[-82.941,38.9147],[-82.9437,38.9186],[-82.9376,38.9247],[-82.9369,38.9302],[-82.9398,38.9333],[-82.9383,38.9357],[-82.9449,38.9362],[-82.945,38.9382],[-82.9422,38.9397],[-82.9447,38.9456],[-82.9515,38.9481],[-82.954,38.9464],[-82.9581,38.9477],[-82.9567,38.953],[-82.9504,38.9545],[-82.9506,38.9576],[-82.9472,38.9593],[-82.9537,38.9648],[-82.9584,38.9653],[-82.9581,38.9705],[-82.9603,38.9724],[-82.9564,38.9769],[-82.9535,38.9768],[-82.9511,38.9815],[-82.9433,38.9834],[-82.9445,38.9861],[-82.9415,38.9875],[-82.9385,38.9858],[-82.9366,38.9869],[-82.9325,38.9858],[-82.9299,38.9873],[-82.9258,38.9824],[-82.9098,38.983],[-82.9102,38.977],[-82.9079,38.9733],[-82.9033,38.9719],[-82.8954,38.974],[-82.8867,38.9811],[-82.8795,38.9823],[-82.8783,38.9845],[-82.8759,38.9834],[-82.8738,38.9905],[-82.8687,38.9915],[-82.8688,38.9939],[-82.8598,38.9927],[-82.8558,38.9943],[-82.8458,38.9913],[-82.8445,38.9972],[-82.8415,39],[-82.8369,38.9988],[-82.8345,39.0011],[-82.8297,39.0013],[-82.8243,39.0004],[-82.8184,38.9944],[-82.8151,38.9952],[-82.8118,38.9976],[-82.8101,39.0015],[-82.8133,39.0026],[-82.8109,39.0057],[-82.8126,39.0065],[-82.8135,39.0101],[-82.8091,39.0139],[-82.7984,39.0186],[-82.7951,39.0235],[-82.7945,39.0291],[-82.8005,39.0316],[-82.8025,39.0346],[-82.8021,39.0376],[-82.8056,39.0406],[-82.8034,39.0436],[-82.806,39.0443],[-82.8019,39.0495],[-82.8046,39.0514],[-82.8009,39.0697],[-82.8021,39.0719],[-82.7991,39.0736],[-82.7947,39.0733],[-82.7927,39.0713],[-82.7851,39.0746],[-82.7838,39.0709],[-82.7776,39.0663],[-82.7784,39.0628],[-82.7769,39.0607],[-82.7779,39.0587],[-82.7768,39.0533],[-82.7738,39.0521],[-82.7734,39.0497],[-82.766,39.0487],[-82.7612,39.0434],[-82.759,39.0442],[-82.7535,39.0388],[-82.7527,39.0271],[-82.7407,39.0286],[-82.7354,39.0333],[-82.73,39.0289],[-82.7304,39.0267],[-82.7277,39.0264],[-82.73,39.0221],[-82.726,39.0187],[-82.7248,39.0101],[-82.7217,39.0059],[-82.7187,39.0052],[-82.7175,38.9992],[-82.7125,38.9943],[-82.7127,38.9916],[-82.7081,38.9894],[-82.7047,38.9896],[-82.6968,38.9939],[-82.6946,38.9902],[-82.6899,38.9905],[-82.6898,38.9879],[-82.6858,38.9877],[-82.6847,38.9859],[-82.6867,38.9844],[-82.685,38.9805],[-82.687,38.9802],[-82.6871,38.9773],[-82.6887,38.9767],[-82.6862,38.9754],[-82.6839,38.9687],[-82.6876,38.9674],[-82.6808,38.9611],[-82.6797,38.9584],[-82.6807,38.9557],[-82.6774,38.9544],[-82.6772,38.9518],[-82.6687,38.9513],[-82.6673,38.9535],[-82.6586,38.9537],[-82.6558,38.9556],[-82.6525,38.9625],[-82.6501,38.9608],[-82.6459,38.9649],[-82.6344,38.9663],[-82.6298,38.9703],[-82.627,38.9679],[-82.6218,38.9676],[-82.6186,38.9647],[-82.6135,38.9681],[-82.6097,38.9681],[-82.6016,38.9613],[-82.597,38.962],[-82.5931,38.9564],[-82.5884,38.956],[-82.5866,38.9599],[-82.5883,38.9622],[-82.5861,38.965],[-82.5901,38.9664],[-82.592,38.9688],[-82.5917,38.9712],[-82.5894,38.9738],[-82.5817,38.9762],[-82.5794,38.979],[-82.5818,38.9825],[-82.5803,38.9885],[-82.5817,38.9895],[-82.5824,38.9946],[-82.581,38.9964],[-82.5825,38.9983],[-82.5786,39.0068],[-82.5815,39.0116],[-82.5757,39.0107],[-82.5682,39.0132],[-82.5708,39.0179],[-82.5672,39.0201],[-82.5671,39.0222],[-82.5693,39.0218],[-82.5716,39.024],[-82.5704,39.0258],[-82.5713,39.027],[-82.5685,39.0305],[-82.5697,39.0333],[-82.5726,39.0335],[-82.5734,39.0374],[-82.5685,39.04],[-82.5648,39.0391],[-82.5609,39.0417],[-82.5612,39.044],[-82.5648,39.0431],[-82.5663,39.0462],[-82.5696,39.048],[-82.5698,39.0508],[-82.5776,39.0507],[-82.5777,39.0543],[-82.5809,39.0556],[-82.5804,39.0577],[-82.5776,39.0579],[-82.5748,39.0611],[-82.5756,39.0643],[-82.5685,39.0671],[-82.574,39.0689],[-82.579,39.0753],[-82.5731,39.0754],[-82.5659,39.0803],[-82.5646,39.082],[-82.5678,39.0834],[-82.5657,39.0855],[-82.5667,39.0867],[-82.5706,39.0859],[-82.5753,39.0907],[-82.5783,39.0925],[-82.5803,39.0916],[-82.5886,39.0987],[-82.5853,39.1028],[-82.5763,39.1019],[-82.5695,39.1081],[-82.5631,39.1106],[-82.5699,39.1128],[-82.5729,39.1167],[-82.5684,39.1222],[-82.5828,39.1245],[-82.584,39.126],[-82.5816,39.1313],[-82.5921,39.1345],[-82.5932,39.142],[-82.5961,39.1414],[-82.6012,39.1444],[-82.5976,39.1511],[-82.5985,39.1537],[-82.5893,39.1535],[-82.5847,39.1503],[-82.5799,39.151],[-82.5792,39.1487],[-82.5749,39.1476],[-82.5722,39.1486],[-82.572,39.1507],[-82.5735,39.1611],[-82.5775,39.1643],[-82.5758,39.1659],[-82.5796,39.1718],[-82.5786,39.174],[-82.5828,39.1762],[-82.5776,39.1828],[-82.5752,39.1827],[-82.5728,39.1852],[-82.5752,39.1874],[-82.579,39.1878],[-82.5788,39.1942],[-82.5742,39.198],[-82.5742,39.2007],[-82.5775,39.2025],[-82.5771,39.2047],[-82.5822,39.2063],[-82.5819,39.2088],[-82.5866,39.211],[-82.5892,39.2142],[-82.5888,39.2158],[-82.5923,39.2171],[-82.5907,39.2191],[-82.5942,39.2197],[-82.5956,39.2243],[-82.5995,39.2239],[-82.5979,39.2264],[-82.599,39.2293],[-82.5949,39.2328],[-82.5948,39.236],[-82.5927,39.2376],[-82.594,39.2403],[-82.5918,39.2407],[-82.5867,39.2456],[-82.5831,39.2466],[-82.5791,39.2454],[-82.5808,39.2421],[-82.5758,39.2376],[-82.5623,39.2415],[-82.5613,39.2442],[-82.5635,39.2483],[-82.5613,39.2501],[-82.5652,39.2562],[-82.5646,39.2575],[-82.5608,39.2589],[-82.5592,39.2631],[-82.556,39.2619],[-82.5529,39.2696],[-82.5501,39.2701],[-82.5506,39.2736],[-82.5427,39.2756],[-82.5451,39.2786],[-82.5404,39.2814],[-82.5432,39.2838],[-82.5401,39.2863],[-82.5387,39.2906],[-82.5433,39.2914],[-82.5443,39.2981],[-82.5483,39.2984],[-82.5494,39.3002],[-82.5493,39.3026],[-82.5473,39.3034],[-82.5482,39.3052],[-82.5438,39.309],[-82.5445,39.3117],[-82.5486,39.315],[-82.5421,39.3198],[-82.5444,39.3215],[-82.544,39.3231],[-82.5411,39.3249],[-82.5423,39.3263],[-82.5402,39.3319],[-82.5376,39.3328],[-82.5405,39.3366],[-82.5444,39.3385],[-82.546,39.3424],[-82.5445,39.3451],[-82.5506,39.3466],[-82.5506,39.3486],[-82.5528,39.3499],[-82.5456,39.3535],[-82.544,39.3568],[-82.539,39.3597],[-82.5386,39.3654],[-82.534,39.3699],[-82.5348,39.3722],[-82.5311,39.3745],[-82.5316,39.3782],[-82.5281,39.3799],[-82.522,39.3786],[-82.5191,39.3806],[-82.5192,39.3822],[-82.5158,39.382],[-82.5141,39.3842],[-82.5075,39.3843],[-82.5033,39.3874],[-82.5033,39.3897],[-82.5058,39.3892],[-82.5075,39.3912],[-82.5083,39.393],[-82.5064,39.3952],[-82.5103,39.3998],[-82.5109,39.4046],[-82.5083,39.4045],[-82.5052,39.4074],[-82.5024,39.4074],[-82.5002,39.4051],[-82.4956,39.4063],[-82.493,39.41],[-82.4905,39.4103],[-82.4923,39.4125],[-82.4905,39.4151],[-82.4857,39.418],[-82.4902,39.4239],[-82.4895,39.4265],[-82.4913,39.4293],[-82.489,39.4306],[-82.4903,39.4369],[-82.4979,39.4426],[-82.4955,39.444],[-82.4951,39.4465],[-82.4889,39.4496],[-82.4886,39.4544],[-82.4797,39.4569],[-82.4788,39.4606],[-82.4754,39.4598],[-82.4762,39.4637],[-82.4747,39.4675],[-82.4777,39.4693],[-82.4784,39.473],[-82.4759,39.4745],[-82.4762,39.4767],[-82.4793,39.479],[-82.4831,39.4779],[-82.4857,39.4803],[-82.4881,39.4803],[-82.4925,39.4851],[-82.4922,39.4887],[-82.4965,39.4949],[-82.5074,39.4937],[-82.511,39.4986],[-82.5131,39.4987],[-82.5166,39.502],[-82.5249,39.5021],[-82.5238,39.5028],[-82.5254,39.5069],[-82.5218,39.5105],[-82.5234,39.513],[-82.5317,39.5101],[-82.5334,39.5118],[-82.5378,39.5113],[-82.5417,39.5146],[-82.5401,39.5173],[-82.544,39.52],[-82.5441,39.5219],[-82.5462,39.5222],[-82.5459,39.5239],[-82.5506,39.5268],[-82.5544,39.5265],[-82.5591,39.5301],[-82.5587,39.532],[-82.5603,39.5336],[-82.5672,39.5337],[-82.5673,39.5352],[-82.5695,39.5348],[-82.5728,39.5381],[-82.5763,39.5388],[-82.5772,39.5367],[-82.585,39.5381],[-82.5866,39.5413],[-82.5853,39.543],[-82.5902,39.5454],[-82.5906,39.5471],[-82.5886,39.5492],[-82.5922,39.5512],[-82.5934,39.5545],[-82.5923,39.5564],[-82.5982,39.5573],[-82.5986,39.5601],[-82.6025,39.5616],[-82.6026,39.565],[-82.6052,39.5631],[-82.6089,39.5631],[-82.6102,39.561],[-82.6143,39.5612],[-82.622,39.5557],[-82.625,39.5565],[-82.6282,39.5504],[-82.6311,39.5488],[-82.6347,39.552],[-82.639,39.5511],[-82.6372,39.5537],[-82.6443,39.5566],[-82.6432,39.562],[-82.6481,39.5625],[-82.6513,39.5688],[-82.6591,39.5658],[-82.6611,39.5695],[-82.6655,39.5707],[-82.6693,39.5694],[-82.6718,39.5664],[-82.6741,39.5672],[-82.6743,39.5699],[-82.6759,39.5705],[-82.6848,39.568],[-82.6867,39.5654],[-82.6936,39.5644],[-82.6982,39.5671],[-82.7042,39.566],[-82.706,39.568],[-82.7095,39.5651],[-82.7119,39.565],[-82.7192,39.5697],[-82.7269,39.5694],[-82.7297,39.5718],[-82.7309,39.5754],[-82.7345,39.5752],[-82.7363,39.5831],[-82.7461,39.5824],[-82.748,39.5838],[-82.7524,39.5808],[-82.7543,39.5814],[-82.7563,39.5886],[-82.7516,39.5944],[-82.7559,39.5988],[-82.7614,39.5999],[-82.7665,39.6046],[-82.771,39.605],[-82.7771,39.6132],[-82.7763,39.6153],[-82.7876,39.621],[-82.7913,39.6288],[-82.7946,39.6305],[-82.7975,39.6294],[-82.8012,39.6308],[-82.8011,39.6342],[-82.8076,39.6353],[-82.8069,39.6398],[-82.8141,39.6463],[-82.8204,39.6492],[-82.8248,39.6492],[-82.8227,39.6528],[-82.8229,39.6574],[-82.8188,39.6602],[-82.8213,39.6643],[-82.8214,39.668],[-82.818,39.6689],[-82.8182,39.671],[-82.8135,39.674],[-82.8067,39.6747],[-82.8057,39.6798],[-82.7929,39.6738],[-82.7875,39.6773],[-82.7816,39.6778],[-82.7861,39.6814],[-82.7841,39.6854],[-82.7864,39.6883],[-82.7825,39.6921],[-82.782,39.6966],[-82.7789,39.701],[-82.7802,39.7077],[-82.7815,39.71],[-82.7859,39.7109],[-82.7876,39.7146],[-82.792,39.7167],[-82.7895,39.7178],[-82.7873,39.7219],[-82.7868,39.7298],[-82.7836,39.731],[-82.7781,39.7365],[-82.7745,39.7346],[-82.7648,39.7349],[-82.761,39.7386],[-82.756,39.7382],[-82.7527,39.7406],[-82.7536,39.7432],[-82.7517,39.7455],[-82.7479,39.7468],[-82.7481,39.7505],[-82.7632,39.7551],[-82.7654,39.7585],[-82.7736,39.7619],[-82.7743,39.7685],[-82.7858,39.7771],[-82.7693,39.7824],[-82.7687,39.7845],[-82.7634,39.7864],[-82.7506,39.7771],[-82.7473,39.7762],[-82.744,39.7777],[-82.74,39.7706],[-82.731,39.7646],[-82.7215,39.7614],[-82.7169,39.7525],[-82.7127,39.7568],[-82.706,39.7598],[-82.7045,39.7628],[-82.699,39.7631],[-82.6969,39.7691],[-82.6916,39.7723],[-82.6863,39.772],[-82.6833,39.7768],[-82.6832,39.7802],[-82.6714,39.7849],[-82.6705,39.7874],[-82.6628,39.7884],[-82.6557,39.7925],[-82.6483,39.7901],[-82.6424,39.7911],[-82.6413,39.7921],[-82.6421,39.795],[-82.6389,39.7961],[-82.6356,39.7945],[-82.6319,39.795],[-82.6288,39.8007],[-82.6161,39.8055],[-82.6129,39.8045],[-82.6094,39.801],[-82.6106,39.7987],[-82.6058,39.7962],[-82.608,39.7926],[-82.6109,39.7914],[-82.6077,39.7849],[-82.6053,39.7844],[-82.6006,39.7796],[-82.5819,39.7902],[-82.5746,39.7916],[-82.5563,39.7883],[-82.5519,39.7904],[-82.5286,39.7903],[-82.5263,39.7895],[-82.5238,39.7849],[-82.5197,39.7845],[-82.516,39.7817],[-82.5108,39.7842],[-82.5111,39.7858],[-82.5072,39.7895],[-82.5065,39.7964],[-82.501,39.7992],[-82.506,39.8058],[-82.5052,39.8079],[-82.5078,39.8125],[-82.506,39.8136],[-82.5057,39.8177],[-82.5068,39.8195],[-82.5058,39.8221],[-82.5088,39.8249],[-82.5076,39.8349],[-82.5001,39.8403],[-82.48,39.8476],[-82.4754,39.851],[-82.4704,39.8506],[-82.4572,39.8454],[-82.4519,39.8495],[-82.4477,39.8461],[-82.4441,39.8476],[-82.4368,39.8461],[-82.4337,39.8501],[-82.4307,39.8507],[-82.4308,39.8553],[-82.4294,39.8567],[-82.4345,39.8627],[-82.4344,39.8679],[-82.4384,39.8745],[-82.4545,39.8735],[-82.4579,39.8786],[-82.4602,39.8868],[-82.4675,39.8856],[-82.4707,39.8873],[-82.488,39.8885],[-82.4939,39.8852],[-82.4958,39.8816],[-82.504,39.8788],[-82.5163,39.8838],[-82.5229,39.8824],[-82.5315,39.8897],[-82.5317,39.8938],[-82.5447,39.9005],[-82.5474,39.8999],[-82.5512,39.902],[-82.5795,39.9012],[-82.6027,39.898],[-82.6151,39.912],[-82.6267,39.9149],[-82.6361,39.9225],[-82.6419,39.9226],[-82.6429,39.9287],[-82.6407,39.9344],[-82.651,39.9346],[-82.6548,39.9404],[-82.6583,39.9415],[-82.6645,39.9399],[-82.6667,39.9413],[-82.6747,39.939],[-82.68,39.9464],[-82.6893,39.9467],[-82.6938,39.9494],[-82.6961,39.9545],[-82.707,39.9569],[-82.7081,39.9614],[-82.7051,39.9634],[-82.7057,39.9671],[-82.7084,39.9678],[-82.7098,39.966],[-82.7145,39.968],[-82.7153,39.9703],[-82.7127,39.9737],[-82.716,39.9785],[-82.7207,39.9825],[-82.7254,39.983],[-82.7277,39.9851],[-82.7337,39.9959],[-82.7483,40.006],[-82.7504,40.0089],[-82.7505,40.0128],[-82.7554,40.0139],[-82.7593,40.0182],[-82.7571,40.0262],[-82.7598,40.0302],[-82.7577,40.0325],[-82.7622,40.0387],[-82.7621,40.0418],[-82.7604,40.0449],[-82.7554,40.0474],[-82.7538,40.0508],[-82.7478,40.052],[-82.7477,40.0547],[-82.7456,40.0546],[-82.7454,40.0562],[-82.7486,40.0587],[-82.7461,40.062],[-82.7431,40.0611],[-82.7441,40.0742],[-82.7422,40.0761],[-82.7428,40.0784],[-82.7379,40.0829],[-82.7365,40.0902],[-82.7329,40.0939],[-82.7287,40.0946],[-82.7144,40.0921],[-82.7111,40.0966],[-82.7129,40.0986],[-82.7117,40.1033],[-82.7075,40.1072],[-82.7147,40.1099],[-82.7278,40.1285],[-82.7353,40.1325],[-82.7311,40.1353],[-82.7353,40.1367],[-82.7363,40.1424],[-82.731,40.1488],[-82.7268,40.1513],[-82.7284,40.1528],[-82.7263,40.1535],[-82.7272,40.1555],[-82.7258,40.1573],[-82.7268,40.1589],[-82.7365,40.1616],[-82.7373,40.1645],[-82.745,40.1692],[-82.7336,40.1834],[-82.7365,40.1851],[-82.7346,40.1885],[-82.7387,40.1934],[-82.737,40.1993],[-82.7399,40.2081],[-82.7406,40.2166],[-82.743,40.2196],[-82.7423,40.222],[-82.7369,40.2212],[-82.7328,40.2182],[-82.7152,40.2177],[-82.7137,40.2254],[-82.716,40.2299],[-82.7143,40.234],[-82.7163,40.2379],[-82.7135,40.2404],[-82.7157,40.2486],[-82.7135,40.2523],[-82.7181,40.2581],[-82.7193,40.2729],[-82.724,40.2751],[-82.7291,40.2825],[-82.7259,40.2847],[-82.7268,40.2869],[-82.7246,40.288],[-82.7243,40.2941],[-82.7272,40.2968],[-82.7265,40.2988],[-82.7334,40.3083],[-82.7334,40.3107],[-82.739,40.3142],[-82.7406,40.3202],[-82.7379,40.3238],[-82.7315,40.3223],[-82.7251,40.3235],[-82.7233,40.3293],[-82.7173,40.332],[-82.7222,40.3463],[-82.7186,40.3463],[-82.7177,40.3493],[-82.7191,40.352],[-82.7175,40.3528],[-82.7191,40.3548],[-82.7193,40.3604],[-82.7244,40.3622],[-82.7241,40.3697],[-82.7212,40.375],[-82.7103,40.3779],[-82.7101,40.3847],[-82.707,40.385],[-82.7115,40.3938],[-82.7196,40.3923],[-82.7197,40.3984],[-82.7212,40.3996],[-82.7242,40.3983],[-82.7271,40.4002],[-82.731,40.4001],[-82.7327,40.3958],[-82.7355,40.3957],[-82.7472,40.3999],[-82.7452,40.4056],[-82.7519,40.4117],[-82.7525,40.4148],[-82.7482,40.4215],[-82.7514,40.4269],[-82.7472,40.4329],[-82.7497,40.4355],[-82.7492,40.4379],[-82.7524,40.4387],[-82.7554,40.4361],[-82.7598,40.4394],[-82.7604,40.4465],[-82.7632,40.4472],[-82.7668,40.4548],[-82.7723,40.4581],[-82.7712,40.4609],[-82.7637,40.4653],[-82.7646,40.4702],[-82.7684,40.4748],[-82.7682,40.4782],[-82.7662,40.4803],[-82.7697,40.4825],[-82.7685,40.489],[-82.7663,40.4912],[-82.7709,40.5002],[-82.7699,40.5041],[-82.7726,40.5066],[-82.7721,40.5082],[-82.7752,40.5124],[-82.7782,40.512],[-82.7804,40.5137],[-82.7824,40.5199],[-82.7771,40.5207],[-82.7797,40.5243],[-82.776,40.5284],[-82.7716,40.5293],[-82.7655,40.5345],[-82.7671,40.5401],[-82.7686,40.5406],[-82.7696,40.5475],[-82.7728,40.5492],[-82.7702,40.553],[-82.771,40.5551],[-82.7684,40.5554],[-82.7714,40.5625],[-82.763,40.5754],[-82.7624,40.5819],[-82.7636,40.5841],[-82.7618,40.5884],[-82.7564,40.5867],[-82.7546,40.5893],[-82.7435,40.5907],[-82.7407,40.5935],[-82.7383,40.5919],[-82.7358,40.5924],[-82.7355,40.5943],[-82.7313,40.5969],[-82.7233,40.5929],[-82.7152,40.592],[-82.7149,40.5967],[-82.7195,40.5985],[-82.7195,40.6002],[-82.7237,40.6037],[-82.719,40.6055],[-82.7159,40.615],[-82.7075,40.6133],[-82.7003,40.621],[-82.7031,40.6252],[-82.7093,40.6258],[-82.7116,40.6339],[-82.7095,40.6356],[-82.7101,40.6373],[-82.7133,40.6396],[-82.7181,40.6391],[-82.7219,40.6421],[-82.7258,40.6409],[-82.7306,40.6458],[-82.7229,40.6569],[-82.7263,40.6595],[-82.7252,40.6621],[-82.732,40.6703],[-82.7312,40.6736],[-82.7281,40.6747],[-82.7278,40.6767],[-82.7331,40.6785],[-82.735,40.6845],[-82.7288,40.6888],[-82.7279,40.692],[-82.7201,40.7017],[-82.7198,40.7046],[-82.7117,40.7111],[-82.711,40.7126],[-82.7133,40.714],[-82.7038,40.7199],[-82.7056,40.7248],[-82.7017,40.7298],[-82.7023,40.7318],[-82.7006,40.7324],[-82.6994,40.735],[-82.7013,40.7374],[-82.699,40.7383],[-82.6963,40.7459],[-82.6978,40.7521],[-82.7068,40.7495],[-82.7087,40.7473],[-82.7121,40.7499],[-82.7215,40.7474],[-82.7229,40.7481],[-82.7229,40.7507],[-82.7319,40.7532],[-82.7333,40.7517],[-82.7405,40.7511],[-82.7449,40.7483],[-82.7523,40.7506],[-82.7578,40.7471],[-82.7578,40.7486],[-82.7642,40.7521],[-82.777,40.7516],[-82.7814,40.7535],[-82.7917,40.7517],[-82.7978,40.7568],[-82.7962,40.761],[-82.7982,40.7629],[-82.7962,40.7674],[-82.8001,40.7737],[-82.7989,40.7805],[-82.8008,40.7825],[-82.8067,40.7832],[-82.8047,40.7873],[-82.8067,40.7884],[-82.8113,40.7852],[-82.8417,40.7903],[-82.8458,40.7831],[-82.8513,40.787],[-82.8682,40.7862],[-82.872,40.7842],[-82.8762,40.7859],[-82.8815,40.785],[-82.8838,40.7861],[-82.8935,40.781],[-82.8997,40.7838],[-82.9053,40.7838],[-82.9097,40.7927],[-82.9168,40.7966],[-82.9194,40.7956],[-82.9222,40.798],[-82.9288,40.7957],[-82.9278,40.7922],[-82.9334,40.7943],[-82.9357,40.7916],[-82.9401,40.7935],[-82.9445,40.792],[-82.9501,40.7963],[-82.951,40.7987]]]},"properties":{"OBJECTID":205,"tnmid":"{8F14C383-0627-4406-AA91-C6C5A0D0084D}","loaddate":1723806686000,"areaacres":4167853.82,"areasqkm":16866.72,"states":"OH","huc6":"050600","name":"Scioto","MaxSimpTol":100,"MinSimpTol":100,"shape_Length":1472115.0718572817,"shape_Area":28601676829.071655,"metasourceid":"{511D2AC8-11BA-45FC-AB98-F69D693D4C44}","sourcedatadesc":"Watershed Boundary Dataset (WBD)","sourceoriginator":"Natural Resources and Conservation Service and U.S. Geological Survey","sourcefeatureid":null,"InPoly_FID":206,"SimPgnFlag":0,"referencegnis_ids":"1063003"}}]}