{"type":"FeatureCollection","features":[{"type":"Feature","properties":{"huc8":"05040006","name":"Licking"},"geometry":{"type":"Polygon","coordinates":[[[-82.715,40.3769],[-82.7222,40.3741],[-82.7243,40.3665],[-82.7244,40.3622],[-82.7193,40.3604],[-82.7175,40.3528],[-82.7186,40.3463],[-82.7222,40.3463],[-82.7173,40.332],[-82.7233,40.3293],[-82.7251,40.3235],[-82.7379,40.3238],[-82.7406,40.3201],[-82.739,40.3142],[-82.7334,40.3107],[-82.7243,40.2941],[-82.7259,40.2847],[-82.7291,40.2825],[-82.724,40.2751],[-82.7193,40.2729],[-82.7181,40.2581],[-82.7135,40.2523],[-82.7157,40.2486],[-82.7135,40.2404],[-82.7163,40.2379],[-82.7139,40.2225],[-82.7152,40.2177],[-82.7328,40.2182],[-82.7423,40.222],[-82.737,40.1993],[-82.7387,40.1934],[-82.7346,40.1885],[-82.7365,40.1851],[-82.7336,40.1834],[-82.745,40.1692],[-82.7373,40.1645],[-82.7365,40.1616],[-82.7258,40.1573],[-82.7284,40.1528],[-82.7268,40.1513],[-82.7363,40.1424],[-82.7353,40.1367],[-82.7311,40.1353],[-82.7353,40.1325],[-82.7278,40.1285],[-82.7147,40.1099],[-82.7075,40.1072],[-82.7117,40.1033],[-82.7129,40.0986],[-82.7111,40.0966],[-82.7144,40.0921],[-82.7287,40.0946],[-82.7352,40.0919],[-82.7379,40.0829],[-82.7441,40.0742],[-82.7431,40.0611],[-82.7461,40.062],[-82.7486,40.0587],[-82.7456,40.0546],[-82.7538,40.0508],[-82.7604,40.0449],[-82.7624,40.0397],[-82.7577,40.0325],[-82.7598,40.0302],[-82.7571,40.0262],[-82.7593,40.0182],[-82.7554,40.0139],[-82.7505,40.0128],[-82.7483,40.006],[-82.7337,39.9959],[-82.7277,39.9851],[-82.716,39.9785],[-82.7127,39.9737],[-82.7145,39.968],[-82.7057,39.9671],[-82.7051,39.9634],[-82.7081,39.9614],[-82.707,39.9569],[-82.6961,39.9545],[-82.6938,39.9494],[-82.6893,39.9467],[-82.68,39.9464],[-82.6747,39.939],[-82.6583,39.9415],[-82.6548,39.9404],[-82.651,39.9346],[-82.6407,39.9344],[-82.6429,39.9287],[-82.6419,39.9226],[-82.6361,39.9225],[-82.6267,39.9149],[-82.6151,39.912],[-82.6024,39.8979],[-82.5512,39.902],[-82.5317,39.8938],[-82.5315,39.8897],[-82.5229,39.8824],[-82.5163,39.8838],[-82.504,39.8788],[-82.4958,39.8816],[-82.488,39.8885],[-82.4675,39.8856],[-82.4602,39.8868],[-82.4545,39.8735],[-82.4384,39.8745],[-82.4344,39.8679],[-82.4332,39.8603],[-82.4294,39.8567],[-82.4258,39.8577],[-82.4221,39.855],[-82.4138,39.8589],[-82.4106,39.8686],[-82.4113,39.8777],[-82.4144,39.8789],[-82.4187,39.8864],[-82.4186,39.8946],[-82.4062,39.9045],[-82.3966,39.9081],[-82.4017,39.9108],[-82.3993,39.9171],[-82.4038,39.923],[-82.4001,39.9308],[-82.407,39.9391],[-82.4039,39.9429],[-82.3998,39.9426],[-82.3991,39.9471],[-82.3937,39.9507],[-82.3864,39.9504],[-82.3863,39.9605],[-82.3813,39.9563],[-82.3718,39.9621],[-82.3632,39.9599],[-82.349,39.9653],[-82.3412,39.9629],[-82.3263,39.977],[-82.3168,39.9711],[-82.3109,39.9721],[-82.3042,39.9742],[-82.3003,39.978],[-82.3016,39.9808],[-82.2967,39.9846],[-82.2892,39.9847],[-82.2879,39.987],[-82.2698,39.9866],[-82.2598,39.9923],[-82.2476,39.985],[-82.236,39.9898],[-82.2358,39.9872],[-82.2291,39.9839],[-82.2171,39.985],[-82.2121,39.9824],[-82.2062,39.9886],[-82.2016,39.9883],[-82.2006,39.9904],[-82.1831,39.9917],[-82.1818,39.9861],[-82.1643,39.9805],[-82.1552,39.9636],[-82.1499,39.9625],[-82.1496,39.9594],[-82.1453,39.958],[-82.1448,39.9509],[-82.1327,39.9426],[-82.1135,39.9424],[-82.1015,39.939],[-82.0981,39.9408],[-82.0965,39.9375],[-82.09,39.9369],[-82.0814,39.9415],[-82.0761,39.9339],[-82.0668,39.9339],[-82.069,39.9273],[-82.0615,39.9201],[-82.0567,39.921],[-82.0483,39.9172],[-82.0427,39.9183],[-82.0394,39.9141],[-82.0303,39.9164],[-82.0266,39.9216],[-82.0158,39.9248],[-82.0118,39.9353],[-82.015,39.9379],[-82.0147,39.9417],[-82.0218,39.9457],[-82.0192,39.9488],[-82.0204,39.95],[-82.0151,39.9551],[-82.0155,39.9586],[-82.005,39.9643],[-82.0042,39.9806],[-82.001,39.9835],[-81.9944,39.9826],[-81.9922,39.9859],[-81.9959,39.991],[-82.007,39.9972],[-82.0045,40.0074],[-82.01,40.0106],[-82.0129,40.0156],[-82.0109,40.0202],[-82.0156,40.0218],[-82.0136,40.0249],[-82.0154,40.0336],[-82.0198,40.0373],[-82.0177,40.0398],[-82.0237,40.0423],[-82.0243,40.0468],[-82.0275,40.0483],[-82.0216,40.0529],[-82.0179,40.0519],[-82.0137,40.0625],[-82.0217,40.063],[-82.031,40.0722],[-82.031,40.0787],[-82.0277,40.0816],[-82.038,40.0926],[-82.0341,40.1015],[-82.0418,40.1087],[-82.0392,40.1101],[-82.0406,40.1171],[-82.034,40.1194],[-82.0354,40.123],[-82.0328,40.1239],[-82.0352,40.132],[-82.0402,40.1305],[-82.0456,40.1334],[-82.054,40.132],[-82.0586,40.1262],[-82.0634,40.127],[-82.0677,40.1223],[-82.0788,40.1179],[-82.0818,40.1135],[-82.0847,40.1133],[-82.0836,40.11],[-82.0854,40.1086],[-82.0913,40.1082],[-82.0966,40.1039],[-82.1054,40.1015],[-82.1127,40.1057],[-82.1131,40.1022],[-82.1194,40.1014],[-82.1204,40.0952],[-82.1245,40.0947],[-82.1293,40.0987],[-82.1318,40.0958],[-82.1289,40.0914],[-82.1355,40.0856],[-82.1402,40.0872],[-82.1507,40.076],[-82.1596,40.0745],[-82.1647,40.0781],[-82.1798,40.0793],[-82.2048,40.0789],[-82.2106,40.076],[-82.2237,40.0773],[-82.2283,40.0805],[-82.2269,40.0898],[-82.2227,40.0914],[-82.2217,40.0954],[-82.2148,40.1011],[-82.2201,40.1074],[-82.2259,40.1074],[-82.2376,40.1023],[-82.2383,40.0949],[-82.2447,40.0942],[-82.2519,40.0891],[-82.256,40.0967],[-82.2595,40.0966],[-82.2684,40.1048],[-82.2664,40.1066],[-82.2713,40.1123],[-82.2704,40.1165],[-82.2787,40.1245],[-82.2792,40.1278],[-82.2854,40.13],[-82.2837,40.1359],[-82.2878,40.1463],[-82.2762,40.1518],[-82.2709,40.156],[-82.2701,40.1598],[-82.2616,40.1627],[-82.2559,40.1689],[-82.2605,40.177],[-82.2557,40.181],[-82.2587,40.1897],[-82.2478,40.1957],[-82.2445,40.202],[-82.2501,40.212],[-82.2584,40.2152],[-82.2586,40.2232],[-82.2658,40.2256],[-82.2677,40.2308],[-82.2768,40.2355],[-82.2855,40.2321],[-82.2943,40.238],[-82.3006,40.2477],[-82.3125,40.2576],[-82.3266,40.2643],[-82.3438,40.268],[-82.348,40.2641],[-82.36,40.2712],[-82.3652,40.2703],[-82.3688,40.2751],[-82.3725,40.2759],[-82.3697,40.2788],[-82.371,40.2807],[-82.3801,40.2826],[-82.3825,40.2858],[-82.3929,40.2848],[-82.4023,40.2802],[-82.4096,40.2836],[-82.4256,40.2856],[-82.4305,40.2888],[-82.4311,40.2949],[-82.4344,40.2981],[-82.4332,40.3032],[-82.4366,40.309],[-82.4412,40.3083],[-82.4432,40.3153],[-82.4482,40.3212],[-82.4606,40.3257],[-82.4741,40.328],[-82.479,40.3252],[-82.4807,40.3204],[-82.4877,40.3187],[-82.4923,40.3205],[-82.4923,40.3175],[-82.5049,40.3169],[-82.5163,40.3199],[-82.5195,40.3276],[-82.5315,40.3285],[-82.5406,40.3346],[-82.5499,40.3347],[-82.5571,40.3295],[-82.5661,40.3333],[-82.5797,40.3316],[-82.5798,40.3348],[-82.5831,40.3333],[-82.5898,40.3351],[-82.6013,40.3275],[-82.617,40.3304],[-82.6138,40.3327],[-82.6149,40.3348],[-82.622,40.3388],[-82.6295,40.3386],[-82.6387,40.3339],[-82.6445,40.3244],[-82.648,40.3255],[-82.6543,40.3233],[-82.6589,40.328],[-82.6633,40.3268],[-82.673,40.3332],[-82.6789,40.3329],[-82.6899,40.3379],[-82.6966,40.3376],[-82.6959,40.3425],[-82.6997,40.3485],[-82.6945,40.3521],[-82.6965,40.3573],[-82.7031,40.3597],[-82.7,40.3633],[-82.7067,40.366],[-82.7065,40.3697],[-82.7153,40.3705],[-82.7129,40.3732],[-82.715,40.3769]]]}},{"type":"Feature","properties":{"huc8":"05060001","name":"Upper Scioto"},"geometry":{"type":"Polygon","coordinates":[[[-82.9571,40.8011],[-82.968,40.7979],[-82.9749,40.801],[-82.9802,40.7956],[-82.9931,40.7924],[-82.994,40.7891],[-83.01,40.7871],[-83.014,40.7757],[-83.0226,40.774],[-83.0288,40.7617],[-83.0342,40.7625],[-83.0336,40.7604],[-83.0454,40.7524],[-83.0457,40.7491],[-83.049,40.7475],[-83.0477,40.744],[-83.0597,40.7337],[-83.0602,40.7231],[-83.0702,40.7199],[-83.0701,40.7168],[-83.0741,40.7161],[-83.0783,40.7187],[-83.0807,40.7165],[-83.0905,40.7169],[-83.0932,40.7191],[-83.1078,40.715],[-83.1161,40.7187],[-83.1152,40.7211],[-83.1191,40.7213],[-83.1212,40.7254],[-83.12,40.7305],[-83.1226,40.7281],[-83.1294,40.7287],[-83.1351,40.7197],[-83.1289,40.7195],[-83.1263,40.7166],[-83.1349,40.7141],[-83.1356,40.7082],[-83.1503,40.6998],[-83.1508,40.6948],[-83.1559,40.693],[-83.1546,40.6876],[-83.1638,40.6823],[-83.1633,40.674],[-83.1744,40.6564],[-83.1723,40.6499],[-83.1757,40.6469],[-83.1768,40.6412],[-83.1802,40.6427],[-83.1906,40.632],[-83.1932,40.6339],[-83.2013,40.6316],[-83.2063,40.6246],[-83.2155,40.6195],[-83.2168,40.6085],[-83.224,40.6007],[-83.2506,40.606],[-83.2571,40.6019],[-83.2617,40.603],[-83.274,40.6004],[-83.2853,40.6051],[-83.3013,40.6036],[-83.3066,40.5967],[-83.3178,40.5965],[-83.3224,40.5908],[-83.3345,40.5918],[-83.3427,40.5963],[-83.3494,40.5964],[-83.3545,40.6014],[-83.3605,40.6011],[-83.3606,40.6037],[-83.3737,40.6012],[-83.3787,40.604],[-83.3883,40.6045],[-83.4034,40.6098],[-83.4158,40.6197],[-83.4218,40.6196],[-83.4232,40.6231],[-83.4383,40.628],[-83.4495,40.6287],[-83.46,40.6326],[-83.4768,40.6309],[-83.4818,40.6279],[-83.4909,40.6329],[-83.4995,40.6419],[-83.5071,40.634],[-83.5175,40.6303],[-83.5244,40.6322],[-83.5291,40.6303],[-83.5368,40.6332],[-83.5367,40.6379],[-83.5463,40.6443],[-83.5664,40.6406],[-83.5682,40.6434],[-83.576,40.6444],[-83.5819,40.6564],[-83.5862,40.6579],[-83.5984,40.651],[-83.608,40.6523],[-83.6118,40.6562],[-83.6186,40.655],[-83.636,40.6594],[-83.6357,40.6569],[-83.6396,40.6568],[-83.6472,40.6628],[-83.6552,40.6642],[-83.6599,40.6685],[-83.658,40.6711],[-83.6622,40.6742],[-83.666,40.6736],[-83.6666,40.6765],[-83.6743,40.676],[-83.6763,40.6793],[-83.6851,40.6793],[-83.6857,40.6827],[-83.6909,40.6843],[-83.6893,40.6881],[-83.6943,40.6919],[-83.6946,40.6953],[-83.6984,40.6964],[-83.6998,40.7006],[-83.7069,40.7018],[-83.7115,40.7076],[-83.7214,40.7116],[-83.7262,40.7107],[-83.7284,40.7129],[-83.733,40.7123],[-83.7352,40.7093],[-83.7381,40.7111],[-83.7475,40.7087],[-83.752,40.7111],[-83.757,40.7089],[-83.7617,40.7118],[-83.7699,40.7088],[-83.7986,40.7084],[-83.8111,40.7108],[-83.8179,40.7151],[-83.8267,40.7153],[-83.8343,40.7209],[-83.86,40.7229],[-83.8691,40.7202],[-83.8728,40.722],[-83.8846,40.7199],[-83.8902,40.7219],[-83.8926,40.7188],[-83.8972,40.7189],[-83.8974,40.7116],[-83.8919,40.7075],[-83.8871,40.7072],[-83.8862,40.7038],[-83.886,40.7013],[-83.8894,40.6986],[-83.8865,40.6909],[-83.8896,40.6907],[-83.8927,40.686],[-83.8885,40.6867],[-83.8801,40.6832],[-83.8893,40.675],[-83.8895,40.6661],[-83.8982,40.6652],[-83.8976,40.6629],[-83.9055,40.6582],[-83.9032,40.6552],[-83.9059,40.6525],[-83.9023,40.6487],[-83.9033,40.6425],[-83.8996,40.6413],[-83.9011,40.6349],[-83.9056,40.6337],[-83.9032,40.6321],[-83.9041,40.627],[-83.902,40.6225],[-83.9079,40.6212],[-83.9085,40.6233],[-83.9158,40.6255],[-83.9185,40.6303],[-83.9235,40.6308],[-83.9352,40.6244],[-83.9358,40.6224],[-83.9326,40.6204],[-83.9361,40.6134],[-83.9331,40.6044],[-83.9343,40.6013],[-83.9302,40.6001],[-83.9282,40.5836],[-83.9298,40.5807],[-83.9285,40.5716],[-83.934,40.5707],[-83.9327,40.5678],[-83.9365,40.5642],[-83.9345,40.5627],[-83.9363,40.5579],[-83.9343,40.5568],[-83.9341,40.5505],[-83.932,40.5497],[-83.9251,40.5539],[-83.9207,40.5494],[-83.9136,40.5483],[-83.9063,40.554],[-83.8859,40.5541],[-83.8829,40.5507],[-83.8736,40.55],[-83.8694,40.5369],[-83.864,40.5354],[-83.8642,40.53],[-83.861,40.5286],[-83.853,40.5309],[-83.8455,40.5419],[-83.8426,40.54],[-83.8372,40.5411],[-83.8375,40.5377],[-83.833,40.5369],[-83.8297,40.542],[-83.8119,40.5467],[-83.8125,40.5488],[-83.8024,40.5484],[-83.8002,40.5574],[-83.7949,40.5573],[-83.794,40.5546],[-83.7908,40.556],[-83.7828,40.5686],[-83.776,40.5732],[-83.774,40.5833],[-83.7636,40.5909],[-83.742,40.5901],[-83.7409,40.5951],[-83.7354,40.6008],[-83.7338,40.5985],[-83.7039,40.5971],[-83.7016,40.5929],[-83.6936,40.5877],[-83.6939,40.5792],[-83.705,40.5741],[-83.7065,40.5696],[-83.7151,40.564],[-83.7167,40.5589],[-83.7132,40.5594],[-83.7069,40.5556],[-83.7097,40.5501],[-83.7018,40.5483],[-83.6949,40.542],[-83.6875,40.5448],[-83.6821,40.5433],[-83.6826,40.5399],[-83.6782,40.5356],[-83.6773,40.5285],[-83.6689,40.5234],[-83.6665,40.5193],[-83.6595,40.5181],[-83.6442,40.508],[-83.6525,40.5021],[-83.6478,40.4869],[-83.6491,40.4832],[-83.6649,40.4802],[-83.6763,40.4819],[-83.6756,40.4702],[-83.6773,40.4679],[-83.6738,40.4617],[-83.6788,40.4597],[-83.6786,40.4528],[-83.6944,40.4431],[-83.7125,40.4397],[-83.725,40.4334],[-83.7212,40.4281],[-83.7214,40.4231],[-83.7132,40.4197],[-83.7099,40.4135],[-83.7197,40.4056],[-83.7221,40.398],[-83.7195,40.3969],[-83.7197,40.3871],[-83.716,40.3906],[-83.7059,40.3934],[-83.6806,40.3865],[-83.6739,40.3885],[-83.6656,40.384],[-83.6573,40.3831],[-83.6511,40.3765],[-83.6473,40.3764],[-83.643,40.3718],[-83.6418,40.3665],[-83.6319,40.3647],[-83.6249,40.3592],[-83.6184,40.3582],[-83.6109,40.3506],[-83.6222,40.3468],[-83.6226,40.3435],[-83.6317,40.3418],[-83.6338,40.3394],[-83.6382,40.3414],[-83.6407,40.3382],[-83.6344,40.3338],[-83.633,40.3265],[-83.6266,40.3238],[-83.6266,40.319],[-83.6213,40.3144],[-83.6231,40.3058],[-83.6321,40.3033],[-83.6241,40.2829],[-83.6263,40.277],[-83.6232,40.2728],[-83.6174,40.2705],[-83.616,40.2652],[-83.6191,40.2608],[-83.626,40.2592],[-83.6285,40.2536],[-83.6324,40.252],[-83.6324,40.2463],[-83.6386,40.2429],[-83.6354,40.2386],[-83.6349,40.229],[-83.6307,40.2234],[-83.6336,40.2213],[-83.6251,40.216],[-83.6312,40.2129],[-83.6287,40.2063],[-83.6245,40.203],[-83.6257,40.1997],[-83.6213,40.1968],[-83.62,40.1925],[-83.6218,40.1909],[-83.6168,40.1891],[-83.6147,40.1848],[-83.616,40.1759],[-83.6051,40.1731],[-83.6096,40.1641],[-83.6095,40.1478],[-83.6208,40.1529],[-83.6254,40.1519],[-83.6273,40.1464],[-83.6325,40.1474],[-83.6306,40.1449],[-83.6349,40.1404],[-83.6253,40.1391],[-83.6263,40.1279],[-83.6231,40.1249],[-83.6264,40.1215],[-83.6236,40.1185],[-83.6229,40.1128],[-83.6208,40.1084],[-83.6134,40.1037],[-83.6129,40.0991],[-83.6085,40.0969],[-83.6095,40.0925],[-83.6048,40.0897],[-83.6059,40.0842],[-83.61,40.0851],[-83.6134,40.081],[-83.6066,40.0671],[-83.6007,40.0613],[-83.6017,40.0569],[-83.6078,40.0534],[-83.6082,40.0478],[-83.6031,40.0465],[-83.5999,40.0484],[-83.5974,40.044],[-83.5868,40.0386],[-83.5882,40.0356],[-83.5861,40.0285],[-83.5919,40.0171],[-83.5868,40.0116],[-83.5863,40.0066],[-83.5819,40.0042],[-83.5708,40.0047],[-83.5636,40.0082],[-83.5522,40.0192],[-83.5467,40.0188],[-83.5434,40.0158],[-83.5394,40.0193],[-83.5351,40.0188],[-83.5265,40.01],[-83.494,40.0056],[-83.49,39.9985],[-83.4827,39.9957],[-83.4823,39.9911],[-83.4696,39.9903],[-83.462,39.9852],[-83.4573,39.9715],[-83.4472,39.9711],[-83.4446,39.9762],[-83.4202,39.9736],[-83.4192,39.97],[-83.4069,39.9636],[-83.4055,39.9596],[-83.4075,39.9588],[-83.4077,39.9538],[-83.4012,39.9488],[-83.3924,39.9512],[-83.3965,39.9577],[-83.3959,39.9633],[-83.3738,39.9679],[-83.3741,39.9607],[-83.3702,39.9582],[-83.3694,39.9496],[-83.3641,39.9473],[-83.3602,39.9489],[-83.356,39.9455],[-83.3535,39.9393],[-83.3555,39.9368],[-83.3543,39.9329],[-83.351,39.9325],[-83.3501,39.9301],[-83.3468,39.9325],[-83.3328,39.9327],[-83.3274,39.9303],[-83.3225,39.9192],[-83.3263,39.9132],[-83.3123,39.91],[-83.3047,39.9015],[-83.3057,39.8998],[-83.3015,39.8972],[-83.3002,39.8928],[-83.3024,39.8892],[-83.2949,39.8852],[-83.3015,39.8762],[-83.2963,39.8708],[-83.2972,39.8637],[-83.295,39.862],[-83.2995,39.8598],[-83.3056,39.8627],[-83.308,39.8611],[-83.3048,39.8574],[-83.2853,39.8507],[-83.271,39.854],[-83.2452,39.8516],[-83.2379,39.8369],[-83.2354,39.8236],[-83.2246,39.8209],[-83.2284,39.8163],[-83.2205,39.8075],[-83.2235,39.7808],[-83.2081,39.7579],[-83.1987,39.749],[-83.1989,39.744],[-83.1891,39.7371],[-83.1726,39.7365],[-83.1565,39.7103],[-83.1379,39.7072],[-83.1335,39.6874],[-83.1247,39.6773],[-83.1241,39.6689],[-83.1108,39.6645],[-83.1094,39.6594],[-83.1025,39.6559],[-83.1053,39.6505],[-83.1034,39.6458],[-83.0869,39.6391],[-83.0788,39.6393],[-83.0772,39.6463],[-83.0704,39.6469],[-83.0671,39.6525],[-83.061,39.6494],[-83.0615,39.647],[-83.0534,39.6396],[-83.0508,39.6326],[-83.0278,39.6255],[-83.0152,39.6261],[-83.0125,39.6228],[-82.9936,39.6228],[-82.9781,39.6118],[-82.9766,39.6079],[-82.9686,39.6061],[-82.9647,39.6067],[-82.964,39.6128],[-82.9588,39.6138],[-82.9516,39.6194],[-82.94,39.6184],[-82.9349,39.6139],[-82.9324,39.6209],[-82.9271,39.6211],[-82.9277,39.6252],[-82.9188,39.6337],[-82.9092,39.6341],[-82.9054,39.6296],[-82.8932,39.628],[-82.8884,39.6321],[-82.8856,39.6316],[-82.8831,39.6389],[-82.8757,39.641],[-82.8719,39.6462],[-82.8722,39.6515],[-82.8444,39.6568],[-82.838,39.6507],[-82.8251,39.6489],[-82.8227,39.6576],[-82.8188,39.6602],[-82.8211,39.6684],[-82.8135,39.674],[-82.8068,39.6746],[-82.8057,39.6798],[-82.7929,39.6738],[-82.7875,39.6773],[-82.782,39.6775],[-82.7861,39.6814],[-82.7841,39.6854],[-82.7864,39.6883],[-82.7789,39.701],[-82.7802,39.7077],[-82.792,39.7167],[-82.7873,39.7219],[-82.7868,39.7297],[-82.7781,39.7365],[-82.7648,39.7349],[-82.761,39.7386],[-82.756,39.7382],[-82.7527,39.7406],[-82.7517,39.7455],[-82.7479,39.7468],[-82.7476,39.7499],[-82.7632,39.7551],[-82.7654,39.7585],[-82.7736,39.7619],[-82.7743,39.7685],[-82.7858,39.7771],[-82.7634,39.7864],[-82.7506,39.7771],[-82.744,39.7777],[-82.74,39.7706],[-82.7215,39.7614],[-82.7169,39.7525],[-82.7045,39.7628],[-82.699,39.7631],[-82.6969,39.7691],[-82.6916,39.7723],[-82.6863,39.772],[-82.6832,39.7802],[-82.6714,39.7849],[-82.6705,39.7874],[-82.6628,39.7884],[-82.6557,39.7925],[-82.6483,39.7901],[-82.6424,39.7911],[-82.6421,39.795],[-82.6319,39.795],[-82.6288,39.8007],[-82.6161,39.8055],[-82.6058,39.7962],[-82.6109,39.7914],[-82.6077,39.7849],[-82.6006,39.7796],[-82.5819,39.7902],[-82.5746,39.7916],[-82.5563,39.7883],[-82.5519,39.7904],[-82.5286,39.7903],[-82.5238,39.7849],[-82.516,39.7817],[-82.5108,39.7842],[-82.5072,39.7895],[-82.5065,39.7964],[-82.501,39.7992],[-82.5078,39.8125],[-82.5057,39.8177],[-82.5058,39.8221],[-82.5088,39.8249],[-82.5076,39.8349],[-82.4754,39.851],[-82.4572,39.8454],[-82.4519,39.8495],[-82.4477,39.8461],[-82.4368,39.8461],[-82.4307,39.8507],[-82.4294,39.8567],[-82.4345,39.8627],[-82.4344,39.8679],[-82.4384,39.8745],[-82.4545,39.8735],[-82.4602,39.8868],[-82.4675,39.8856],[-82.488,39.8885],[-82.4958,39.8816],[-82.504,39.8788],[-82.5163,39.8838],[-82.5229,39.8824],[-82.5315,39.8897],[-82.5317,39.8938],[-82.5512,39.902],[-82.6027,39.898],[-82.6151,39.912],[-82.6267,39.9149],[-82.6361,39.9225],[-82.6419,39.9226],[-82.6429,39.9287],[-82.6407,39.9344],[-82.651,39.9346],[-82.6548,39.9404],[-82.6583,39.9415],[-82.6747,39.939],[-82.68,39.9464],[-82.6893,39.9467],[-82.6938,39.9494],[-82.6961,39.9545],[-82.707,39.9569],[-82.7081,39.9614],[-82.7051,39.9634],[-82.7057,39.9671],[-82.7145,39.968],[-82.7127,39.9737],[-82.716,39.9785],[-82.7277,39.9851],[-82.7337,39.9959],[-82.7483,40.006],[-82.7505,40.0128],[-82.7554,40.0139],[-82.7593,40.0182],[-82.7571,40.0262],[-82.7598,40.0302],[-82.7577,40.0325],[-82.7621,40.0418],[-82.7538,40.0508],[-82.7456,40.0546],[-82.7486,40.0587],[-82.7461,40.062],[-82.7431,40.0611],[-82.7441,40.0742],[-82.7379,40.0829],[-82.7365,40.0902],[-82.7329,40.0939],[-82.7287,40.0946],[-82.7144,40.0921],[-82.7111,40.0966],[-82.7129,40.0986],[-82.7117,40.1033],[-82.7075,40.1072],[-82.7147,40.1099],[-82.7278,40.1285],[-82.7353,40.1325],[-82.7311,40.1353],[-82.7353,40.1367],[-82.7363,40.1424],[-82.7268,40.1513],[-82.7284,40.1528],[-82.7258,40.1573],[-82.7365,40.1616],[-82.7373,40.1645],[-82.745,40.1692],[-82.7336,40.1834],[-82.7365,40.1851],[-82.7346,40.1885],[-82.7387,40.1934],[-82.737,40.1993],[-82.7423,40.222],[-82.7328,40.2182],[-82.7152,40.2177],[-82.7137,40.2254],[-82.7163,40.2379],[-82.7135,40.2404],[-82.7157,40.2486],[-82.7135,40.2523],[-82.7181,40.2581],[-82.7193,40.2729],[-82.724,40.2751],[-82.7291,40.2825],[-82.7259,40.2847],[-82.7243,40.2941],[-82.7334,40.3107],[-82.739,40.3142],[-82.7406,40.3202],[-82.7379,40.3238],[-82.7251,40.3235],[-82.7233,40.3293],[-82.7173,40.332],[-82.7222,40.3463],[-82.7186,40.3463],[-82.7175,40.3528],[-82.7193,40.3604],[-82.7244,40.3622],[-82.7241,40.3697],[-82.7212,40.375],[-82.7103,40.3779],[-82.7101,40.3847],[-82.707,40.385],[-82.7115,40.3938],[-82.7196,40.3923],[-82.7212,40.3996],[-82.731,40.4001],[-82.7327,40.3958],[-82.7355,40.3957],[-82.7472,40.3999],[-82.7452,40.4056],[-82.7525,40.4148],[-82.7482,40.4215],[-82.7514,40.4269],[-82.7472,40.4329],[-82.7492,40.4379],[-82.7524,40.4387],[-82.7554,40.4361],[-82.7598,40.4394],[-82.7604,40.4465],[-82.7723,40.4581],[-82.7637,40.4653],[-82.7684,40.4748],[-82.7662,40.4803],[-82.7697,40.4825],[-82.7663,40.4912],[-82.7721,40.5082],[-82.7752,40.5124],[-82.7804,40.5137],[-82.7824,40.5199],[-82.7771,40.5207],[-82.7797,40.5243],[-82.7655,40.5345],[-82.7696,40.5475],[-82.7728,40.5492],[-82.771,40.5551],[-82.7684,40.5554],[-82.7714,40.5625],[-82.763,40.5754],[-82.7618,40.5884],[-82.7564,40.5867],[-82.7546,40.5893],[-82.7435,40.5907],[-82.7407,40.5935],[-82.7358,40.5924],[-82.7313,40.5969],[-82.7233,40.5929],[-82.7152,40.592],[-82.7149,40.5967],[-82.7237,40.6037],[-82.719,40.6055],[-82.7159,40.615],[-82.7075,40.6133],[-82.7003,40.621],[-82.7031,40.6252],[-82.7093,40.6258],[-82.7116,40.6339],[-82.7101,40.6373],[-82.7219,40.6421],[-82.7258,40.6409],[-82.7306,40.6458],[-82.7229,40.6569],[-82.732,40.6703],[-82.7278,40.6767],[-82.7331,40.6785],[-82.735,40.6845],[-82.7288,40.6888],[-82.7198,40.7046],[-82.7117,40.7111],[-82.7133,40.714],[-82.7038,40.7199],[-82.7056,40.7248],[-82.6994,40.735],[-82.7015,40.7369],[-82.6989,40.7384],[-82.696,40.7481],[-82.6988,40.7523],[-82.7087,40.7473],[-82.7121,40.7499],[-82.7215,40.7474],[-82.7229,40.7507],[-82.7319,40.7532],[-82.7449,40.7483],[-82.7523,40.7506],[-82.7578,40.7471],[-82.7642,40.7521],[-82.777,40.7516],[-82.7814,40.7535],[-82.7917,40.7517],[-82.7978,40.7568],[-82.7962,40.7674],[-82.8001,40.7737],[-82.7989,40.7805],[-82.8067,40.7832],[-82.8047,40.7873],[-82.8067,40.7884],[-82.8113,40.7852],[-82.8417,40.7903],[-82.8458,40.7831],[-82.8513,40.787],[-82.872,40.7842],[-82.8838,40.7861],[-82.8935,40.781],[-82.9053,40.7838],[-82.9097,40.7927],[-82.9168,40.7966],[-82.9244,40.7976],[-82.9288,40.7957],[-82.9279,40.7922],[-82.9334,40.7943],[-82.9357,40.7916],[-82.9401,40.7935],[-82.9449,40.7921],[-82.951,40.7987],[-82.9571,40.8011]]]}},{"type":"Feature","properties":{"huc8":"05060002","name":"Lower Scioto"},"geometry":{"type":"Polygon","coordinates":[[[-83.5312,40.016],[-83.5363,40.0191],[-83.5434,40.0158],[-83.5467,40.0188],[-83.5522,40.0192],[-83.5656,40.0067],[-83.5768,40.0047],[-83.5792,39.9955],[-83.5727,39.9943],[-83.5681,39.9889],[-83.5678,39.9809],[-83.5745,39.9764],[-83.5721,39.9734],[-83.5727,39.9648],[-83.5687,39.9586],[-83.5624,39.9561],[-83.5568,39.9469],[-83.5566,39.9423],[-83.5616,39.9398],[-83.5571,39.9349],[-83.5607,39.9334],[-83.5592,39.9278],[-83.561,39.9237],[-83.5645,39.9228],[-83.5618,39.9171],[-83.5569,39.9166],[-83.5501,39.9101],[-83.5499,39.9046],[-83.553,39.9046],[-83.5572,39.8964],[-83.5554,39.894],[-83.5592,39.892],[-83.558,39.8803],[-83.5554,39.8779],[-83.5491,39.8777],[-83.5485,39.8734],[-83.5515,39.8712],[-83.5481,39.8664],[-83.552,39.8649],[-83.5443,39.8551],[-83.5336,39.8555],[-83.5303,39.8586],[-83.5282,39.8544],[-83.525,39.8546],[-83.5264,39.8499],[-83.524,39.8506],[-83.5166,39.846],[-83.5134,39.8418],[-83.5092,39.8422],[-83.4986,39.8361],[-83.4957,39.8379],[-83.4918,39.833],[-83.4898,39.8173],[-83.4817,39.8106],[-83.49,39.8003],[-83.4955,39.799],[-83.4896,39.7967],[-83.4935,39.7863],[-83.4857,39.783],[-83.4875,39.7772],[-83.4788,39.7759],[-83.4781,39.7711],[-83.4688,39.7712],[-83.4685,39.7604],[-83.463,39.7545],[-83.4506,39.7533],[-83.4461,39.7506],[-83.4374,39.7523],[-83.434,39.7499],[-83.4278,39.7508],[-83.4243,39.7489],[-83.4204,39.7508],[-83.4105,39.7477],[-83.3996,39.7479],[-83.3924,39.7426],[-83.3841,39.7307],[-83.3834,39.7249],[-83.3859,39.7213],[-83.3763,39.7117],[-83.3674,39.7123],[-83.3614,39.7154],[-83.3623,39.7182],[-83.3577,39.7199],[-83.3271,39.7147],[-83.3302,39.7124],[-83.3253,39.7086],[-83.3293,39.7056],[-83.3289,39.6983],[-83.3325,39.6933],[-83.3313,39.6913],[-83.3381,39.6736],[-83.3271,39.6657],[-83.33,39.6607],[-83.3299,39.6536],[-83.3233,39.652],[-83.3238,39.6491],[-83.3207,39.6481],[-83.3098,39.6506],[-83.3101,39.6453],[-83.3035,39.6417],[-83.306,39.639],[-83.3055,39.633],[-83.3023,39.6266],[-83.2968,39.6233],[-83.2978,39.6206],[-83.2922,39.6129],[-83.2953,39.6113],[-83.2851,39.5961],[-83.2856,39.5893],[-83.2828,39.5857],[-83.2724,39.5812],[-83.2661,39.5748],[-83.2574,39.5724],[-83.2499,39.5743],[-83.2479,39.5778],[-83.2286,39.5757],[-83.2312,39.5643],[-83.236,39.5568],[-83.2308,39.5525],[-83.2337,39.5518],[-83.2363,39.5464],[-83.233,39.5447],[-83.2418,39.5293],[-83.2371,39.5248],[-83.2325,39.5252],[-83.2254,39.5205],[-83.2188,39.5023],[-83.2207,39.4971],[-83.2106,39.4942],[-83.2081,39.4887],[-83.2035,39.4868],[-83.2026,39.4806],[-83.1776,39.4716],[-83.1732,39.4665],[-83.1756,39.4605],[-83.1735,39.4435],[-83.1614,39.4257],[-83.1567,39.428],[-83.1524,39.424],[-83.1469,39.4231],[-83.1214,39.4242],[-83.1206,39.4265],[-83.116,39.4268],[-83.1083,39.4242],[-83.1018,39.4158],[-83.0696,39.4151],[-83.0641,39.4084],[-83.0634,39.404],[-83.055,39.3997],[-83.055,39.3889],[-83.0466,39.3856],[-83.0454,39.375],[-83.0366,39.3727],[-83.0379,39.3668],[-83.0341,39.3625],[-83.0349,39.3601],[-83.0304,39.3573],[-83.0246,39.3583],[-83.0204,39.354],[-83.0198,39.3389],[-83.0229,39.3351],[-83.0217,39.3332],[-83.0128,39.333],[-83.0096,39.3311],[-83.0081,39.3262],[-83.0038,39.3248],[-82.9988,39.3263],[-82.9985,39.3294],[-82.989,39.3321],[-82.9706,39.335],[-82.9643,39.3324],[-82.9605,39.3307],[-82.9615,39.3244],[-82.9592,39.318],[-82.9517,39.3132],[-82.947,39.3152],[-82.9406,39.3113],[-82.9417,39.3041],[-82.9349,39.3002],[-82.9345,39.2953],[-82.9323,39.2942],[-82.9454,39.2934],[-82.9539,39.2987],[-82.9659,39.3],[-82.9767,39.2948],[-82.9968,39.3003],[-83.0011,39.2966],[-82.9992,39.294],[-83.0025,39.2888],[-83.0096,39.284],[-83.0154,39.288],[-83.0164,39.292],[-83.0238,39.2924],[-83.0293,39.2843],[-83.0405,39.2766],[-83.0405,39.2742],[-83.0297,39.2678],[-83.0386,39.264],[-83.0399,39.2564],[-83.0428,39.2554],[-83.0371,39.2494],[-83.0402,39.2395],[-83.0461,39.2319],[-83.0552,39.2291],[-83.0624,39.223],[-83.0678,39.225],[-83.0775,39.2209],[-83.09,39.2265],[-83.0938,39.2231],[-83.0987,39.2242],[-83.1036,39.2193],[-83.1137,39.2203],[-83.1176,39.2159],[-83.1214,39.2162],[-83.1316,39.2095],[-83.139,39.2075],[-83.1452,39.1994],[-83.1488,39.2012],[-83.1514,39.1998],[-83.1607,39.2051],[-83.1666,39.2042],[-83.1668,39.1999],[-83.1698,39.1975],[-83.1753,39.1979],[-83.1779,39.2006],[-83.1865,39.1988],[-83.1913,39.2014],[-83.1967,39.1979],[-83.2144,39.2014],[-83.2193,39.1978],[-83.2315,39.1993],[-83.2371,39.1967],[-83.2393,39.1909],[-83.2446,39.189],[-83.2488,39.1907],[-83.2544,39.1857],[-83.26,39.1845],[-83.2605,39.1811],[-83.2657,39.1823],[-83.2692,39.1793],[-83.2685,39.1759],[-83.2723,39.1756],[-83.2708,39.169],[-83.2815,39.167],[-83.2838,39.163],[-83.2938,39.1654],[-83.2946,39.161],[-83.3075,39.152],[-83.3238,39.1455],[-83.3258,39.1409],[-83.3334,39.14],[-83.3385,39.1328],[-83.3518,39.1322],[-83.3558,39.1252],[-83.3655,39.1245],[-83.3685,39.1213],[-83.3891,39.1208],[-83.3967,39.1149],[-83.392,39.1096],[-83.3924,39.1015],[-83.3876,39.0936],[-83.3772,39.0926],[-83.379,39.0894],[-83.3729,39.0847],[-83.3604,39.0804],[-83.3568,39.0766],[-83.3589,39.0714],[-83.3567,39.0696],[-83.3479,39.0652],[-83.3422,39.0667],[-83.3268,39.0579],[-83.3286,39.0463],[-83.3406,39.0447],[-83.3456,39.0411],[-83.3424,39.0353],[-83.3452,39.0262],[-83.3419,39.025],[-83.3392,39.0201],[-83.3437,39.0166],[-83.3431,39.0139],[-83.3528,39.0099],[-83.3485,39.004],[-83.3536,39.0032],[-83.3588,38.9988],[-83.3582,38.9967],[-83.3651,38.9952],[-83.3636,38.9914],[-83.3724,38.9898],[-83.3716,38.9822],[-83.3744,38.9772],[-83.3823,38.9729],[-83.3811,38.9666],[-83.3892,38.9617],[-83.3919,38.9558],[-83.3982,38.9529],[-83.4015,38.9472],[-83.4003,38.9267],[-83.3952,38.9258],[-83.3909,38.9197],[-83.3947,38.9145],[-83.3826,38.9111],[-83.3844,38.9082],[-83.3972,38.9043],[-83.3948,38.8988],[-83.3967,38.8969],[-83.3928,38.8924],[-83.3898,38.8922],[-83.384,38.8831],[-83.3937,38.8761],[-83.39,38.8734],[-83.3901,38.8657],[-83.3815,38.861],[-83.3735,38.8636],[-83.3636,38.8621],[-83.3587,38.854],[-83.3511,38.8545],[-83.3493,38.852],[-83.3534,38.8473],[-83.3478,38.8347],[-83.3545,38.8288],[-83.3543,38.8231],[-83.3512,38.8181],[-83.3446,38.8149],[-83.3499,38.805],[-83.3566,38.806],[-83.366,38.8031],[-83.3754,38.8085],[-83.3827,38.807],[-83.3839,38.8006],[-83.3918,38.7967],[-83.3999,38.7958],[-83.4105,38.7878],[-83.4079,38.7822],[-83.4164,38.7763],[-83.4177,38.7729],[-83.4205,38.7729],[-83.4204,38.7676],[-83.4335,38.768],[-83.4382,38.7643],[-83.4403,38.7659],[-83.4397,38.7585],[-83.4427,38.7556],[-83.4395,38.7539],[-83.4386,38.7498],[-83.4331,38.7484],[-83.4336,38.7459],[-83.4279,38.7394],[-83.4308,38.734],[-83.4275,38.7328],[-83.4269,38.729],[-83.4158,38.7254],[-83.4133,38.7279],[-83.4065,38.7266],[-83.3992,38.7306],[-83.3944,38.7264],[-83.3887,38.7274],[-83.3823,38.7235],[-83.3761,38.7271],[-83.3765,38.7303],[-83.3705,38.7297],[-83.3668,38.7265],[-83.3584,38.7251],[-83.3568,38.7204],[-83.3532,38.7191],[-83.3545,38.7146],[-83.3451,38.7143],[-83.345,38.7119],[-83.333,38.714],[-83.3301,38.717],[-83.3241,38.7128],[-83.3189,38.7124],[-83.3154,38.714],[-83.3135,38.7191],[-83.3087,38.7199],[-83.3078,38.7165],[-83.3022,38.7179],[-83.2977,38.7127],[-83.29,38.7163],[-83.2839,38.7069],[-83.2771,38.7064],[-83.2748,38.7093],[-83.2703,38.7084],[-83.2678,38.7115],[-83.2513,38.7142],[-83.2532,38.7179],[-83.2468,38.7301],[-83.2508,38.7328],[-83.2523,38.7379],[-83.2478,38.7405],[-83.2495,38.7459],[-83.2464,38.7476],[-83.2473,38.7496],[-83.2447,38.7527],[-83.2463,38.7546],[-83.2315,38.7613],[-83.2282,38.7698],[-83.2255,38.7685],[-83.2181,38.7721],[-83.21,38.7716],[-83.2077,38.7744],[-83.199,38.7702],[-83.1986,38.7679],[-83.1932,38.7669],[-83.1895,38.7627],[-83.1864,38.7668],[-83.18,38.7666],[-83.1786,38.7699],[-83.1802,38.7715],[-83.1745,38.7743],[-83.1672,38.7734],[-83.1642,38.7706],[-83.1559,38.7742],[-83.1502,38.7719],[-83.1509,38.7692],[-83.1432,38.7646],[-83.1398,38.7659],[-83.1306,38.7621],[-83.1245,38.7623],[-83.1218,38.7589],[-83.1174,38.7595],[-83.1171,38.763],[-83.1137,38.7647],[-83.1097,38.7629],[-83.1067,38.7667],[-83.1019,38.7631],[-83.0966,38.7641],[-83.0884,38.7603],[-83.0856,38.7604],[-83.084,38.7641],[-83.0763,38.7653],[-83.0685,38.7585],[-83.0615,38.7617],[-83.0618,38.7644],[-83.0579,38.7662],[-83.0513,38.7631],[-83.043,38.7657],[-83.0314,38.7614],[-83.0297,38.7566],[-83.0314,38.7509],[-83.0277,38.7487],[-83.0216,38.737],[-83.0175,38.7362],[-83.0185,38.732],[-83.0119,38.7303],[-82.9916,38.7373],[-82.9818,38.7436],[-82.9854,38.7499],[-82.9817,38.7579],[-82.9832,38.7635],[-82.977,38.7682],[-82.9688,38.7699],[-82.9698,38.7737],[-82.9633,38.7769],[-82.9656,38.778],[-82.9602,38.7877],[-82.972,38.793],[-82.9671,38.7946],[-82.9675,38.7984],[-82.9619,38.8014],[-82.9643,38.8101],[-82.9622,38.8168],[-82.9645,38.821],[-82.9608,38.8234],[-82.9612,38.8264],[-82.9554,38.8289],[-82.9557,38.8343],[-82.9484,38.8387],[-82.9503,38.8424],[-82.9401,38.848],[-82.9375,38.8529],[-82.9353,38.8519],[-82.9315,38.8558],[-82.9283,38.8534],[-82.9195,38.8543],[-82.9168,38.8556],[-82.9171,38.8608],[-82.9127,38.8628],[-82.9173,38.8649],[-82.9194,38.8694],[-82.9314,38.8712],[-82.9328,38.8752],[-82.9403,38.8751],[-82.9427,38.8786],[-82.9391,38.8841],[-82.9402,38.8866],[-82.9475,38.8867],[-82.9504,38.8895],[-82.9499,38.8935],[-82.9537,38.8952],[-82.9501,38.901],[-82.9507,38.905],[-82.948,38.9063],[-82.9494,38.9088],[-82.9428,38.9094],[-82.941,38.9147],[-82.9437,38.9186],[-82.9376,38.9247],[-82.9369,38.9302],[-82.9398,38.9333],[-82.9383,38.9357],[-82.9449,38.9362],[-82.9422,38.9397],[-82.9447,38.9456],[-82.9581,38.9477],[-82.9567,38.953],[-82.9504,38.9545],[-82.9506,38.9576],[-82.9472,38.9593],[-82.9537,38.9648],[-82.9584,38.9653],[-82.9581,38.9705],[-82.9603,38.9724],[-82.9564,38.9769],[-82.9535,38.9768],[-82.9511,38.9815],[-82.9433,38.9834],[-82.9445,38.9861],[-82.9415,38.9875],[-82.9385,38.9858],[-82.9299,38.9873],[-82.9258,38.9824],[-82.9098,38.983],[-82.9102,38.977],[-82.9079,38.9733],[-82.9033,38.9719],[-82.8954,38.974],[-82.8867,38.9811],[-82.8783,38.9845],[-82.8759,38.9834],[-82.8738,38.9905],[-82.8687,38.9915],[-82.8688,38.9939],[-82.8598,38.9927],[-82.8558,38.9943],[-82.8458,38.9913],[-82.8415,39],[-82.8369,38.9988],[-82.8297,39.0013],[-82.8243,39.0004],[-82.8184,38.9944],[-82.8151,38.9952],[-82.8101,39.0015],[-82.8133,39.0026],[-82.8109,39.0057],[-82.8135,39.0101],[-82.7984,39.0186],[-82.7951,39.0235],[-82.7945,39.0291],[-82.8005,39.0316],[-82.8056,39.0406],[-82.8034,39.0436],[-82.806,39.0443],[-82.8019,39.0495],[-82.8046,39.0514],[-82.8021,39.0719],[-82.7991,39.0736],[-82.7927,39.0713],[-82.7851,39.0746],[-82.7838,39.0709],[-82.7776,39.0663],[-82.7768,39.0533],[-82.7734,39.0497],[-82.766,39.0487],[-82.7535,39.0388],[-82.7527,39.0271],[-82.7407,39.0286],[-82.7354,39.0333],[-82.73,39.0289],[-82.7304,39.0267],[-82.7277,39.0264],[-82.73,39.0221],[-82.726,39.0187],[-82.7248,39.0101],[-82.7187,39.0052],[-82.7127,38.9916],[-82.7047,38.9896],[-82.6968,38.9939],[-82.6946,38.9902],[-82.6899,38.9905],[-82.6898,38.9879],[-82.6858,38.9877],[-82.685,38.9805],[-82.6887,38.9767],[-82.6839,38.9687],[-82.6876,38.9674],[-82.6808,38.9611],[-82.6807,38.9557],[-82.6774,38.9544],[-82.6772,38.9518],[-82.6586,38.9537],[-82.6525,38.9625],[-82.6501,38.9608],[-82.6459,38.9649],[-82.6344,38.9663],[-82.6298,38.9703],[-82.6186,38.9647],[-82.6097,38.9681],[-82.6016,38.9613],[-82.597,38.962],[-82.5931,38.9564],[-82.5884,38.956],[-82.5861,38.965],[-82.5901,38.9664],[-82.5917,38.9712],[-82.5794,38.979],[-82.5818,38.9825],[-82.5803,38.9885],[-82.5825,38.9983],[-82.5786,39.0068],[-82.5815,39.0116],[-82.5757,39.0107],[-82.5682,39.0132],[-82.5708,39.0179],[-82.5671,39.0222],[-82.5716,39.024],[-82.5685,39.0305],[-82.5697,39.0333],[-82.5726,39.0335],[-82.5734,39.0374],[-82.5609,39.0417],[-82.5612,39.044],[-82.5648,39.0431],[-82.5698,39.0508],[-82.5776,39.0507],[-82.5777,39.0543],[-82.5809,39.0556],[-82.5748,39.0611],[-82.5756,39.0643],[-82.5685,39.0671],[-82.574,39.0689],[-82.579,39.0753],[-82.5731,39.0754],[-82.5659,39.0803],[-82.5646,39.082],[-82.5678,39.0834],[-82.5657,39.0855],[-82.5706,39.0859],[-82.5886,39.0987],[-82.5853,39.1028],[-82.5763,39.1019],[-82.5631,39.1106],[-82.5699,39.1128],[-82.5729,39.1167],[-82.5684,39.1222],[-82.5828,39.1245],[-82.5816,39.1313],[-82.5921,39.1345],[-82.5932,39.142],[-82.6012,39.1444],[-82.5976,39.1511],[-82.5985,39.1537],[-82.5893,39.1535],[-82.5749,39.1476],[-82.572,39.1507],[-82.5735,39.1611],[-82.5775,39.1643],[-82.5758,39.1659],[-82.5796,39.1718],[-82.5786,39.174],[-82.5828,39.1762],[-82.5728,39.1852],[-82.579,39.1878],[-82.5788,39.1942],[-82.5742,39.198],[-82.5742,39.2007],[-82.5923,39.2171],[-82.5907,39.2191],[-82.5942,39.2197],[-82.5956,39.2243],[-82.5995,39.2239],[-82.599,39.2293],[-82.5927,39.2376],[-82.594,39.2403],[-82.5867,39.2456],[-82.5791,39.2454],[-82.5808,39.2421],[-82.5758,39.2376],[-82.5623,39.2415],[-82.5635,39.2483],[-82.5613,39.2501],[-82.5646,39.2575],[-82.5608,39.2589],[-82.5592,39.2631],[-82.556,39.2619],[-82.5529,39.2696],[-82.5501,39.2701],[-82.5506,39.2736],[-82.5427,39.2756],[-82.5451,39.2786],[-82.5404,39.2814],[-82.5432,39.2838],[-82.5387,39.2906],[-82.5433,39.2914],[-82.5443,39.2981],[-82.5494,39.3002],[-82.5482,39.3052],[-82.5438,39.309],[-82.5486,39.315],[-82.5421,39.3198],[-82.544,39.3231],[-82.5411,39.3249],[-82.5402,39.3319],[-82.5376,39.3328],[-82.5444,39.3385],[-82.546,39.3424],[-82.5445,39.3451],[-82.5506,39.3466],[-82.5528,39.3499],[-82.539,39.3597],[-82.5386,39.3654],[-82.5311,39.3745],[-82.5316,39.3782],[-82.5281,39.3799],[-82.522,39.3786],[-82.5192,39.3822],[-82.5075,39.3843],[-82.5033,39.3874],[-82.5033,39.3897],[-82.5075,39.3912],[-82.5064,39.3952],[-82.5115,39.4033],[-82.5058,39.4073],[-82.5002,39.4051],[-82.4956,39.4063],[-82.4905,39.4103],[-82.4923,39.4125],[-82.4905,39.4151],[-82.4857,39.4179],[-82.4902,39.4239],[-82.4903,39.4369],[-82.4979,39.4426],[-82.4889,39.4496],[-82.4886,39.4544],[-82.4797,39.4569],[-82.4788,39.4606],[-82.4748,39.4606],[-82.4747,39.4675],[-82.4784,39.473],[-82.4762,39.4767],[-82.4881,39.4803],[-82.4965,39.4949],[-82.5074,39.4937],[-82.5166,39.502],[-82.5249,39.5021],[-82.5254,39.5069],[-82.5218,39.5105],[-82.5235,39.5131],[-82.5317,39.5101],[-82.5378,39.5113],[-82.5417,39.5146],[-82.5401,39.5173],[-82.5459,39.5239],[-82.5544,39.5265],[-82.5603,39.5336],[-82.5672,39.5337],[-82.5763,39.5388],[-82.5772,39.5367],[-82.585,39.5381],[-82.5853,39.543],[-82.5902,39.5454],[-82.5886,39.5492],[-82.5922,39.5512],[-82.5923,39.5564],[-82.5982,39.5573],[-82.5986,39.5601],[-82.6025,39.5616],[-82.6026,39.565],[-82.6143,39.5612],[-82.622,39.5557],[-82.625,39.5565],[-82.6311,39.5488],[-82.6347,39.552],[-82.639,39.5511],[-82.6372,39.5537],[-82.6443,39.5566],[-82.6432,39.562],[-82.6481,39.5625],[-82.6513,39.5688],[-82.6591,39.5658],[-82.6611,39.5695],[-82.6655,39.5707],[-82.6718,39.5664],[-82.6754,39.5705],[-82.6848,39.568],[-82.687,39.5653],[-82.6936,39.5644],[-82.706,39.568],[-82.7119,39.565],[-82.7192,39.5697],[-82.727,39.5695],[-82.7309,39.5754],[-82.7345,39.5752],[-82.7363,39.5831],[-82.748,39.5838],[-82.7543,39.5814],[-82.7563,39.5886],[-82.7517,39.5946],[-82.7665,39.6046],[-82.7713,39.6052],[-82.7771,39.6132],[-82.7763,39.6153],[-82.7876,39.621],[-82.7913,39.6288],[-82.7982,39.6294],[-82.8014,39.6309],[-82.8015,39.6346],[-82.8076,39.6353],[-82.8069,39.6398],[-82.8162,39.6476],[-82.8379,39.6506],[-82.8444,39.6568],[-82.8723,39.6514],[-82.8719,39.6462],[-82.8757,39.641],[-82.8831,39.6389],[-82.8856,39.6316],[-82.8884,39.6321],[-82.8934,39.6279],[-82.9054,39.6296],[-82.9092,39.6341],[-82.9188,39.6337],[-82.9277,39.6252],[-82.9271,39.6211],[-82.9324,39.6209],[-82.9349,39.6139],[-82.94,39.6184],[-82.9516,39.6194],[-82.9588,39.6138],[-82.9641,39.6127],[-82.9647,39.6067],[-82.9677,39.6061],[-82.9766,39.6079],[-82.9781,39.6118],[-82.9936,39.6228],[-83.0125,39.6228],[-83.0152,39.6261],[-83.0278,39.6255],[-83.0508,39.6326],[-83.0534,39.6396],[-83.0615,39.647],[-83.061,39.6494],[-83.0671,39.6525],[-83.0704,39.6469],[-83.0772,39.6463],[-83.0788,39.6393],[-83.086,39.6389],[-83.1007,39.6437],[-83.1052,39.6488],[-83.1025,39.6559],[-83.1094,39.6594],[-83.1108,39.6645],[-83.1241,39.6689],[-83.1247,39.6773],[-83.1335,39.6874],[-83.1379,39.7072],[-83.1565,39.7103],[-83.1726,39.7365],[-83.1891,39.7371],[-83.1989,39.744],[-83.1987,39.749],[-83.2081,39.7579],[-83.2235,39.7808],[-83.2205,39.8075],[-83.2284,39.8163],[-83.2246,39.8209],[-83.2354,39.8236],[-83.2379,39.8369],[-83.2456,39.852],[-83.271,39.854],[-83.2853,39.8507],[-83.2979,39.8538],[-83.2996,39.857],[-83.3046,39.8572],[-83.3079,39.861],[-83.3053,39.8628],[-83.2994,39.8598],[-83.295,39.8619],[-83.2972,39.8637],[-83.2963,39.8708],[-83.3015,39.8762],[-83.2949,39.8852],[-83.3024,39.8892],[-83.3002,39.8928],[-83.3013,39.8968],[-83.3122,39.9099],[-83.3263,39.9132],[-83.3225,39.9191],[-83.3252,39.9284],[-83.3314,39.9326],[-83.3468,39.9325],[-83.3501,39.9301],[-83.351,39.9325],[-83.3543,39.9329],[-83.3555,39.9368],[-83.3535,39.9393],[-83.356,39.9455],[-83.3602,39.9489],[-83.3641,39.9473],[-83.3694,39.9496],[-83.3702,39.9582],[-83.3741,39.9606],[-83.3726,39.9629],[-83.3743,39.9681],[-83.3959,39.9633],[-83.3965,39.9577],[-83.3924,39.9512],[-83.4012,39.9488],[-83.4077,39.9538],[-83.4075,39.9588],[-83.4055,39.9596],[-83.4069,39.9636],[-83.4192,39.97],[-83.4202,39.9736],[-83.4446,39.9762],[-83.4472,39.9711],[-83.4573,39.9715],[-83.462,39.9852],[-83.4696,39.9903],[-83.4823,39.9911],[-83.4827,39.9957],[-83.49,39.9985],[-83.494,40.0056],[-83.5265,40.01],[-83.5312,40.016]]]}}]}