{"type":"FeatureCollection","features":[{"type":"Feature","properties":{"OBJECTID_1":1799,"ROCK_NAME":"Semiconsolidated sand aquifers","ROCK_TYPE":200,"AQ_NAME":"Northern Atlantic Coastal Plain aquifer system","AQ_CODE":205,"Shape_Leng":50.2713461534,"Shape_Area":3.34034243668,"metro":"nova"},"geometry":{"type":"Polygon","coordinates":[[[-77,38.65],[-77.11023143894614,38.65],[-77.11022225522197,38.651752641251505],[-77.11138925522323,38.65356864125329],[-77.11074825522246,38.66398964126279],[-77.10833725522025,38.67440764127264],[-77.105942255218,38.681194641279035],[-77.10178325521429,38.686618641283985],[-77.09468825520753,38.690223641287275],[-77.0828932551965,38.691093641288035],[-77.07700325519113,38.692909641289816],[-77.07462325518895,38.69377864129069],[-77.0687102551833,38.69738764129397],[-77.06633025518113,38.69919164129578],[-77.06161525517678,38.70053464129683],[-77.05395525516974,38.699146641295556],[-77.04922525516531,38.70184664129806],[-77.04564625516196,38.70772964130356],[-77.04093925515758,38.70499064130104],[-77.03567525515268,38.69953164129606],[-77.03213525514934,38.70042464129688],[-77.02742025514499,38.698592641295136],[-77.02269725514043,38.699031641295505],[-77.01975225513775,38.69857064129519],[-77.01563225513405,38.69810064129456],[-77.01269525513112,38.696727641293364],[-77.00975025512844,38.695808641292615],[-77.00503525512408,38.69578964129255],[-77.00148725512076,38.69713164129371],[-77.00148025512067,38.699397641295946],[-77.00382225512294,38.70076764129726],[-77.00675225512578,38.7034986412998],[-77.01145125512994,38.70578364130188],[-77.01794425513617,38.70535664130148],[-77.02442125514222,38.70674164130264],[-77.02972425514713,38.7076686413036],[-77.03384425515083,38.709949641305684],[-77.03027325514768,38.714015641309516],[-77.02257525514051,38.718067641313155],[-77.0202022551382,38.72168364131653],[-77.0195922551377,38.72394564131878],[-77.02193425513974,38.72576864132043],[-77.02429925514207,38.72577664132041],[-77.0266572551443,38.72578464132039],[-77.02782425514533,38.728961641323394],[-77.0236132551413,38.73982664133359],[-77.02180525513972,38.74570864133898],[-77.01647925513475,38.74795564134115],[-77.0105822551293,38.74747864134065],[-77.0052642551243,38.748363641341484],[-77.002891255122,38.750621641343514],[-77.00523425512438,38.75289564134573],[-77.01230625513085,38.754283641347],[-77.01643325513464,38.75611464134863],[-77.01876025513684,38.75974664135197],[-77.02346025514134,38.76520564135717],[-77.02757225514506,38.7679406413597],[-77.02931225514658,38.77247964136404],[-77.02927425514667,38.7783736413694],[-77.02864825514598,38.78244764137321],[-77.02684825514439,38.78742564137792],[-77.02329225514109,38.78877264137918],[-77.01973725513767,38.79238464138257],[-77.01852425513675,38.796459641386264],[-77.02616925514371,38.80147564139088],[-77.02733625514475,38.80374564139311],[-77.02434525514195,38.8087196413976],[-77.02137725513921,38.81097364139987],[-77.02017925513815,38.813236641402],[-77.02310225514088,38.818687641406996],[-77.0248562551426,38.82231864141045],[-77.02600825514355,38.826858641414674],[-77.02538325514297,38.83184064141915],[-77.02415425514187,38.83863064142565],[-77.02351425514121,38.8463366414328],[-77.02230025514018,38.851318641437274],[-77.0216822551397,38.85448864144041],[-77.01988225513787,38.85856264144422],[-77.0175022551357,38.861724641447154],[-77.01393125513232,38.86487964144999],[-77.00917825512784,38.86848864145327],[-77.00503525512408,38.8693806414542],[-77.00089225512033,38.87071964145548],[-77,38.87094377192592],[-77,38.87621287822298],[-77.00026725511975,38.8761556414604],[-77.00559225512461,38.875270641459565],[-77.00913225512795,38.87573664146021],[-77.01446525513279,38.874404641458796],[-77.01802025513621,38.87305464145766],[-77.02037825513844,38.873061641457525],[-77.02217125513994,38.870803641455495],[-77.02159925513956,38.86717564145215],[-77.02574925514341,38.866737641451664],[-77.027504255145,38.869464641454215],[-77.0280762551456,38.872638641457115],[-77.028640255146,38.87490864145934],[-77.02980825514715,38.87808264146224],[-77.03156325514874,38.881717641465684],[-77.03508725515212,38.88490264146867],[-77.03802525515471,38.88808864147154],[-77.04273225515908,38.89127764147452],[-77.04803425516411,38.89401664147704],[-77.0509792551668,38.895839641478915],[-77.0527422551686,38.89765964148046],[-77.05694625517253,38.9008676414835],[-77.05287125516861,38.904777641487044],[-77.05108625516687,38.90757364148976],[-77.05026225516622,38.910526641492424],[-77.04750825516362,38.913162641494864],[-77.04476125516112,38.915798641497304],[-77.04393025516038,38.91875064150008],[-77.04118325515765,38.92138664150252],[-77.03939025515615,38.92417864150525],[-77.03856625515527,38.9271356415079],[-77.03678125515376,38.92992764151063],[-77.03498825515203,38.93272364151312],[-77.03127325514856,38.93519964151551],[-77.03044925514769,38.93815264151817],[-77.02770225514519,38.94078864152061],[-77.02590925514346,38.94358064152334],[-77.02508525514281,38.94653664152611],[-77.02329225514109,38.94932964152872],[-77.02149925513936,38.95212564153121],[-77.01875325513674,38.95476164153365],[-77.01792125513612,38.95771364153643],[-77.01613625513437,38.96050664153904],[-77.01434325513264,38.96330264154176],[-77.01255025513115,38.96609464154426],[-77.0107652551294,38.96889164154686],[-77.00993325512854,38.97184364154964],[-77.0091092551279,38.9747966415523],[-77.0063552551253,38.97743264155474],[-77.00552325512444,38.98038464155752],[-77.00373825512293,38.98317764156013],[-77.00290725512218,38.98612964156291],[-77.00241825512171,38.99145864156799],[-77.00276225512198,38.99383164157007],[-77.00035125511977,38.998840641574816],[-77.00261725512178,39.001533641577225],[-77.00083125512015,39.00432564157995],[-77.0000002551194,39.007278641582616],[-77,39.00727955679251],[-77,38.65]]]}},{"type":"Feature","properties":{"OBJECTID_1":1852,"ROCK_NAME":"Sandstone and carbonate-rock aquifers","ROCK_TYPE":500,"AQ_NAME":"Valley and Ridge carbonate-rock aquifers","AQ_CODE":505,"Shape_Leng":22.7648309955,"Shape_Area":1.01871445986,"metro":"nova"},"geometry":{"type":"Polygon","coordinates":[[[-77.84080850439918,39.2],[-77.84252925590408,39.197261641759496],[-77.84526025590662,39.19460664175699],[-77.84799225590905,39.1919556417547],[-77.84975425591074,39.189147641752015],[-77.85,39.18890873638512],[-77.85,39.2],[-77.84080850439918,39.2]]]}},{"type":"Feature","properties":{"OBJECTID_1":1859,"ROCK_NAME":"Igneous and metamorphic-rock aquifers","ROCK_TYPE":600,"AQ_NAME":"Piedmont and Blue Ridge crystalline-rock aquifers","AQ_CODE":611,"Shape_Leng":60.9089648018,"Shape_Area":22.2355322589,"metro":"nova"},"geometry":{"type":"Polygon","coordinates":[[[-77.56419585867054,39.2],[-77.56477325564538,39.19788764176019],[-77.56654325564705,39.19508764175748],[-77.5683212556487,39.19228364175501],[-77.5691302556495,39.18932764175224],[-77.56993825565019,39.18637064174936],[-77.570739255651,39.183414641746594],[-77.57251725565266,39.180610641744124],[-77.57428725565433,39.17781064174142],[-77.5750962556549,39.17485464173865],[-77.57687425565655,39.17205064173618],[-77.57864425565822,39.16924664173348],[-77.57945225565913,39.16629064173071],[-77.5812222556608,39.163490641728],[-77.58396125566333,39.160838641725604],[-77.5847702556639,39.157882641722836],[-77.58654825566555,39.155082641720355],[-77.58831825566722,39.15227864171766],[-77.5893252556682,39.148582641714256],[-77.59186525567065,39.14667464171248],[-77.59266625567125,39.14371464170972],[-77.5944442556729,39.14091464170701],[-77.59621425567457,39.13811064170454],[-77.59798425567624,39.135310641701835],[-77.59975425567791,39.13250764169925],[-77.60056325567871,39.129550641696596],[-77.60233325568038,39.1267466416939],[-77.60410325568205,39.12394364169131],[-77.60491225568285,39.12098664168843],[-77.60668225568452,39.11818264168596],[-77.60845225568596,39.115383641683366],[-77.61022225568763,39.11257964168067],[-77.6119992556894,39.10977564167797],[-77.61280025569022,39.10681964167543],[-77.61457025569166,39.10401564167273],[-77.61634025569333,39.101215641670024],[-77.61734725569431,39.09751864166674],[-77.61988025569667,39.095607641664856],[-77.6218562556985,39.092063641661525],[-77.62342025570001,39.09000364165968],[-77.62519025570168,39.08720064165709],[-77.62599925570248,39.08423964165422],[-77.62776925570415,39.08143964165174],[-77.62876925570504,39.07774364164834],[-77.6313022557074,39.07583264164646],[-77.63307225570907,39.07302864164376],[-77.63388025570976,39.07007264164099],[-77.63468125571057,39.06711564163834],[-77.63548325571128,39.06415964163557],[-77.63628425571187,39.06120264163292],[-77.63612325571194,39.05809064162986],[-77.63692425571253,39.05513364162721],[-77.63773325571333,39.05217364162445],[-77.64046525571598,39.049526641621924],[-77.64126625571657,39.04656964161927],[-77.64110525571641,39.04345664161633],[-77.64190625571723,39.04050064161356],[-77.64367725571879,39.037696641610864],[-77.6444782557196,39.034740641608096],[-77.64527925572042,39.03178364160544],[-77.64608025572102,39.028823641602685],[-77.64688125572184,39.025867641599916],[-77.64769025572264,39.022910641597264],[-77.64849125572346,39.019950641594505],[-77.64929225572405,39.01699464159174],[-77.65009325572487,39.01403764158886],[-77.65089425572569,39.01108164158609],[-77.65169525572628,39.00812564158332],[-77.65153525572623,39.005012641580606],[-77.65136725572597,39.001899641577666],[-77.65216825572679,38.9989436415749],[-77.65200825572651,38.995830641571956],[-77.65280925572733,38.99287464156919],[-77.6526412557273,38.98976564156624],[-77.65248125572703,38.986652641563296],[-77.6542512557287,38.983848641560826],[-77.65505225572952,38.98089264155806],[-77.65585325573011,38.97793564155518],[-77.6547242557292,38.974670641552166],[-77.6555252557298,38.97171064154941],[-77.65632625573062,38.968753641546755],[-77.65712725573144,38.965797641543986],[-77.65792825573203,38.96283764154123],[-77.65679925573113,38.959571641538105],[-77.65760025573172,38.956615641535336],[-77.65743225573169,38.95350664153261],[-77.65727225573141,38.95039364152967],[-77.65711225573136,38.94728064152673],[-77.6569442557311,38.94417164152378],[-77.65774525573192,38.94121164152102],[-77.65854625573274,38.93825564151825],[-77.65741725573162,38.93498964151536],[-77.65821825573244,38.93203364151259],[-77.65901925573326,38.92907764150982],[-77.65982025573385,38.92612064150694],[-77.65869125573295,38.92285564150393],[-77.65949225573354,38.91989564150117],[-77.66029325573436,38.91693864149852],[-77.66109425573518,38.91398264149575],[-77.66189525573577,38.91102264149299],[-77.66269725573648,38.90806564149011],[-77.6634982557373,38.90510964148757],[-77.66429925573811,38.90215264148469],[-77.66510025573871,38.89919264148193],[-77.66589325573955,38.89623664147916],[-77.66669425574037,38.89327964147651],[-77.66749525574096,38.89032364147374],[-77.66829725574189,38.887363641470984],[-77.66909825574248,38.884406641468104],[-77.66893025574245,38.881294641465274],[-77.67069225574392,38.87849464146257],[-77.66956325574301,38.87522864145967],[-77.6703642557436,38.87226864145691],[-77.67116525574443,38.869312641454144],[-77.67196625574525,38.866355641451264],[-77.67276025574597,38.86339964144872],[-77.67356125574679,38.860439641445964],[-77.67436225574738,38.857482641443085],[-77.6751632557482,38.854526641440316],[-77.6761622557492,38.8508296414368],[-77.67868825575147,38.84891864143515],[-77.67948125575231,38.84596264143238],[-77.6802822557529,38.84300264142962],[-77.68108325575372,38.84004564142697],[-77.6828462557553,38.83724164142427],[-77.68460825575698,38.834438641421684],[-77.68560825575787,38.83074164141817],[-77.68812525576027,38.828830641416516],[-77.68892625576109,38.82587464141375],[-77.68992625576197,38.822177641410235],[-77.69245125576435,38.82026664140835],[-77.69420625576595,38.81746264140588],[-77.69500725576677,38.81450664140311],[-77.69676925576823,38.811702641400416],[-77.69873025577022,38.808158641397085],[-77.70028725577163,38.80609464139525],[-77.70204925577332,38.80329164139266],[-77.70304125577422,38.79959464138915],[-77.7046052557755,38.797527641387205],[-77.70539825577634,38.79457064138455],[-77.70619925577716,38.791614641381784],[-77.70816025577892,38.788070641378454],[-77.70971725578033,38.786006641376616],[-77.71071625578134,38.782306641373],[-77.71323425578362,38.78039964137133],[-77.71403525578444,38.77743864136846],[-77.71502725578534,38.77374264136506],[-77.71755225578772,38.771831641363406],[-77.71834525578834,38.76887164136065],[-77.71913925578906,38.76591464135777],[-77.71994025578988,38.762958641355],[-77.72073325579072,38.760001641352346],[-77.72345725579316,38.75735064134983],[-77.72425125579389,38.75439064134707],[-77.72504425579473,38.751434641344304],[-77.72584525579532,38.74847764134165],[-77.72760025579692,38.745670641339075],[-77.7293622557986,38.74287064133637],[-77.73131525580038,38.73932264133305],[-77.73287225580202,38.73725864133121],[-77.73366525580263,38.73430264132844],[-77.73562625580439,38.73075864132511],[-77.73718225580592,38.728690641323055],[-77.73797625580664,38.725734641320514],[-77.73973825580833,38.72293064131782],[-77.74149325580993,38.72012664131512],[-77.74324825581152,38.71732364131253],[-77.74500225581323,38.71451964131006],[-77.74771925581581,38.71186864130755],[-77.74851225581642,38.70890764130468],[-77.75027425581811,38.70610464130209],[-77.7520292558197,38.70330064129962],[-77.75282325582043,38.70034064129686],[-77.75361625582127,38.69738364129398],[-77.75653125582403,38.69399264129083],[-77.7590482558262,38.69208164128895],[-77.75984225582715,38.68912164128619],[-77.76371725583067,38.68588664128333],[-77.76527425583208,38.68381864128128],[-77.76722725583386,38.680274641278174],[-77.76878325583539,38.67821164127622],[-77.77053825583698,38.67540764127352],[-77.77365125583992,38.67127564126963],[-77.77520725584145,38.66920864126769],[-77.77772525584373,38.66729764126603],[-77.77948025584533,38.664493641263334],[-77.78122725584694,38.66168564126065],[-77.78298225584854,38.658881641258176],[-77.78569825585123,38.65623064125566],[-77.78840625585372,38.653579641253145],[-77.79112225585618,38.65092464125064],[-77.79137062025164,38.65],[-77.48197056572798,38.65],[-77.47982825556619,38.65339664125304],[-77.4790272555656,38.65635264125581],[-77.47388425556073,38.66786564126642],[-77.47035225555737,38.67346564127183],[-77.46955125555678,38.67642164127437],[-77.46874225555598,38.67937864127725],[-77.46697225555431,38.682178641279734],[-77.46617125555349,38.6851346412825],[-77.46536225555269,38.68809164128538],[-77.4645612555521,38.69104764128815],[-77.4637522555513,38.69400364129092],[-77.46294425555061,38.69696064129357],[-77.46118125554881,38.69976064129628],[-77.45941125554714,38.70256064129876],[-77.45861025554655,38.70551664130153],[-77.45780225554586,38.70847364130441],[-77.45699325554506,38.71142964130718],[-77.45619225554424,38.714385641309946],[-77.45538325554344,38.71733864131261],[-77.45457425554264,38.72029464131538],[-77.4518512555403,38.722942641317786],[-77.4510422555395,38.725894641320565],[-77.4502332555387,38.72885164132322],[-77.44750225553616,38.73149864132574],[-77.44670125553534,38.73445464132851],[-77.44589225553477,38.73741164133139],[-77.44508325553397,38.74036364133394],[-77.44427525553306,38.74332064133682],[-77.44346625553248,38.74627664133959],[-77.44266525553167,38.749233641342244],[-77.44185625553087,38.75218964134501],[-77.44104725553007,38.75514564134778],[-77.4392772555284,38.75794564135049],[-77.43750725552695,38.76074564135297],[-77.43669925552604,38.76370264135585],[-77.43493625552446,38.76650264135833],[-77.43316625552279,38.76930264136104],[-77.4323582555221,38.772254641363816],[-77.4315492555213,38.77521164136647],[-77.43170125552138,38.7783236413693],[-77.43089325552069,38.78128064137218],[-77.42912325551902,38.78408064137466],[-77.42927525551909,38.7871936413776],[-77.42942825551927,38.79030264138055],[-77.42861925551847,38.79325864138332],[-77.4278102555179,38.796214641386086],[-77.42796325551785,38.79932764138903],[-77.42715425551728,38.80228064139169],[-77.42731525551744,38.80539364139463],[-77.42553725551579,38.80819364139711],[-77.42568925551586,38.81130564140017],[-77.42488125551517,38.81426264140282],[-77.42408025551435,38.81721864140559],[-77.42327125551355,38.82017164140825],[-77.4214932555119,38.82297564141095],[-77.42068525551122,38.82592764141373],[-77.41987625551042,38.828883641416496],[-77.41810625550875,38.83168364141898],[-77.41729725550795,38.834640641421856],[-77.41745025550813,38.8377536414248],[-77.41664125550733,38.840705641427576],[-77.41583225550676,38.84366264143023],[-77.41405525550499,38.846462641432936],[-77.41324625550419,38.849418641435705],[-77.41243725550339,38.852374641438246],[-77.41162825550282,38.855331641441126],[-77.4108202555019,38.858287641443894],[-77.41001125550133,38.86124064144656],[-77.40823325549968,38.864044641449254],[-77.40742525549877,38.86699664145203],[-77.4066162554982,38.869953641454686],[-77.4058072554974,38.872909641457454],[-77.40499925549648,38.87586564146022],[-77.40322125549483,38.87866164146294],[-77.40241225549426,38.88162264146558],[-77.40160325549346,38.88457464146836],[-77.39982625549169,38.88737464147084],[-77.39901725549112,38.89033164147372],[-77.39724725548945,38.8931316414762],[-77.3954692554878,38.89593164147891],[-77.39466125548688,38.89888364148169],[-77.3938442554861,38.90184064148434],[-77.39207425548443,38.90464064148705],[-77.39029725548289,38.90744064148953],[-77.38948825548209,38.9103966414923],[-77.38867925548129,38.91335264149507],[-77.38786325548062,38.916309641497946],[-77.38705425547982,38.919261641500725],[-77.38527725547829,38.922061641503205],[-77.382896255476,38.92707864150793],[-77.38324725547636,38.92945064151013],[-77.38340025547654,38.93256364151307],[-77.3816222554749,38.93536364151555],[-77.37985225547322,38.93816364151826],[-77.37903625547233,38.94111664152092],[-77.37822725547153,38.94407264152369],[-77.37741125547086,38.94702864152646],[-77.37660225547006,38.94998564152934],[-77.3757862554694,38.95294164153211],[-77.37401625546772,38.9557376415346],[-77.37223825546607,38.958537641537305],[-77.37239025546614,38.96165064154002],[-77.37253525546635,38.96476364154296],[-77.37172725546566,38.96771664154585],[-77.37187925546573,38.97082864154868],[-77.37106325546506,38.97378564155133],[-77.37025425546426,38.9767416415541],[-77.36943825546336,38.97969864155698],[-77.36959125546355,38.98280764155993],[-77.36877425546277,38.98576364156247],[-77.3679652554622,38.98871964156524],[-77.3671492554613,38.99167264156813],[-77.3663402554605,38.9946286415709],[-77.36552425545983,38.99758564157355],[-77.36470825545916,39.00054164157632],[-77.36389925545836,39.00349764157909],[-77.36308325545747,39.00645064158175],[-77.3622742554569,39.00940664158452],[-77.361458255456,39.0123636415874],[-77.36064125545522,39.01531964159017],[-77.35983325545453,39.01827264159283],[-77.3580472554529,39.02107264159554],[-77.35627025545114,39.02387264159802],[-77.35642225545143,39.02698564160096],[-77.35561325545063,39.02994164160373],[-77.35382825544889,39.03273764160622],[-77.35240925544758,39.037910641611234],[-77.35276025544795,39.040283641613314],[-77.35118125544636,39.04234364161516],[-77.35153925544682,39.044715641617586],[-77.34996025544524,39.04677564161943],[-77.35031925544558,39.049148641621514],[-77.34854125544393,39.05194864162422],[-77.34772525544327,39.05490464162699],[-77.34690825544249,39.05786164162964],[-77.34706125544267,39.06097064163259],[-77.34624525544177,39.06392664163536],[-77.34542825544099,39.06688264163813],[-77.34461225544032,39.06983564164079],[-77.34379625543966,39.07279164164356],[-77.34394825543973,39.0759046416465],[-77.34313225543906,39.07886164164938],[-77.34231525543828,39.081813641651934],[-77.34150725543736,39.08477064165481],[-77.34069025543658,39.08772664165758],[-77.33987425543592,39.09068264166035],[-77.33905825543525,39.09363564166301],[-77.33824125543447,39.09659164166578],[-77.33742525543357,39.099548641668434],[-77.3366092554329,39.1025046416712],[-77.33579225543212,39.10545764167409],[-77.33498425543144,39.10841364167686],[-77.33416725543066,39.11136964167963],[-77.33431225543063,39.114478641682354],[-77.33349625542996,39.11743564168523],[-77.33267925542918,39.120391641688],[-77.33186325542852,39.123348641690654],[-77.3320162554287,39.12646064169371],[-77.33119925542792,39.129413641696374],[-77.33038325542702,39.13236964169914],[-77.32956725542635,39.135326641701795],[-77.32875025542558,39.138278641704574],[-77.3279342554249,39.14123564170745],[-77.32711825542401,39.14419164171022],[-77.32706425542392,39.148040641713806],[-77.32914725542582,39.15146664171698],[-77.33239725542899,39.15430864171958],[-77.33586125543229,39.15641364172143],[-77.33972125543573,39.15703964172212],[-77.34399425543984,39.1561886417212],[-77.34883125544434,39.156970641721955],[-77.3553922554504,39.15880164172381],[-77.35574325545076,39.16117864172588],[-77.35589625545094,39.16428764172883],[-77.3618922554565,39.17915364174269],[-77.36637125546054,39.17755864174114],[-77.37105525546485,39.17522764173896],[-77.37553425546912,39.173637641737514],[-77.38021125547357,39.17130664173533],[-77.38510125547805,39.16823564173251],[-77.39405025548649,39.16505064172952],[-77.39833025549046,39.16419964172883],[-77.4043272554959,39.164394641728904],[-77.4077912554992,39.16649664173087],[-77.4120182555032,39.16949464173376],[-77.41450525550545,39.17143964173556],[-77.41680125550761,39.1741256417381],[-77.41909025550967,39.176807641740425],[-77.42137925551174,39.17949264174308],[-77.42270625551305,39.18202164174545],[-77.42402625551426,39.1845516417477],[-77.4251482555153,39.187820641750704],[-77.4253002555156,39.190929641753655],[-77.42642225551663,39.19419864175666],[-77.42754325551755,39.19746364175967],[-77.4268501958429,39.2],[-77,39.2],[-77,39.00727955679251],[-77.0000002551194,39.007278641582616],[-77.00083125512015,39.00432564157995],[-77.00261725512178,39.001533641577225],[-77.00035125511977,38.998840641574816],[-77.00276225512198,38.99383164157007],[-77.00241825512171,38.99145864156799],[-77.00290725512218,38.98612964156291],[-77.00373825512293,38.98317764156013],[-77.00552325512444,38.98038464155752],[-77.0063552551253,38.97743264155474],[-77.0091092551279,38.9747966415523],[-77.00993325512854,38.97184364154964],[-77.0107652551294,38.96889164154686],[-77.01255025513115,38.96609464154426],[-77.01434325513264,38.96330264154176],[-77.01613625513437,38.96050664153904],[-77.01792125513612,38.95771364153643],[-77.01875325513674,38.95476164153365],[-77.02149925513936,38.95212564153121],[-77.02329225514109,38.94932964152872],[-77.02508525514281,38.94653664152611],[-77.02590925514346,38.94358064152334],[-77.02770225514519,38.94078864152061],[-77.03044925514769,38.93815264151817],[-77.03127325514856,38.93519964151551],[-77.03498825515203,38.93272364151312],[-77.03678125515376,38.92992764151063],[-77.03856625515527,38.9271356415079],[-77.03939025515615,38.92417864150525],[-77.04118325515765,38.92138664150252],[-77.04393025516038,38.91875064150008],[-77.04476125516112,38.915798641497304],[-77.04750825516362,38.913162641494864],[-77.05026225516622,38.910526641492424],[-77.05108625516687,38.90757364148976],[-77.05287125516861,38.904777641487044],[-77.05694625517253,38.9008676414835],[-77.05922725517462,38.90130964148398],[-77.0621722551773,38.90312964148552],[-77.07044225518507,38.90361364148612],[-77.07638525519042,38.90133264148403],[-77.07128925518577,38.89868164148152],[-77.06665025518146,38.89587064147895],[-77.06336225517839,38.89243364147569],[-77.0664822551812,38.888484641471905],[-77.06826825518306,38.885688641469415],[-77.07005325518458,38.88289664146669],[-77.07473025518902,38.880576641464586],[-77.07747625519164,38.87793764146227],[-77.07926225519327,38.875144641459656],[-77.08200825519566,38.87250564145711],[-77.08571625519926,38.87002964145472],[-77.08750125520078,38.86723364145223],[-77.0902482552035,38.86459764144979],[-77.0929942552059,38.86196164144735],[-77.09574125520862,38.85932564144491],[-77.09752625521014,38.856529641442194],[-77.10027325521287,38.853889641439764],[-77.10205825521439,38.85109664143715],[-77.10384325521613,38.84830064143466],[-77.1075512552195,38.84582164143217],[-77.10933725522113,38.843025641429676],[-77.11207625522366,38.84038964142724],[-77.1138612552254,38.837592641424635],[-77.11660725522802,38.834956641422195],[-77.11839325522965,38.83216064141948],[-77.12113225523217,38.82952464141704],[-77.12387825523479,38.82688564141472],[-77.12566425523642,38.82408864141189],[-77.12841025523903,38.82145264140945],[-77.13114925524155,38.81881364140713],[-77.13389625524405,38.81617764140469],[-77.13567325524582,38.813381641401975],[-77.13745925524745,38.81058464139937],[-77.13923625524899,38.80778864139688],[-77.14102125525073,38.804992641394165],[-77.14376025525326,38.802356641391725],[-77.14554625525489,38.799560641389235],[-77.14732325525665,38.79676464138652],[-77.15007025525915,38.79412464138409],[-77.1518482552608,38.7913286413816],[-77.15363325526255,38.78853264137888],[-77.15637225526507,38.78589664137644],[-77.15718825526574,38.78293964137379],[-77.15993525526824,38.78030364137112],[-77.16171225527,38.77750764136863],[-77.16349025527165,38.77471164136591],[-77.1652752552734,38.77191564136342],[-77.16705325527505,38.7691196413607],[-77.1688312552767,38.7663226413581],[-77.17061625527822,38.76352664135561],[-77.17239425527987,38.76073064135289],[-77.17417125528164,38.75793064135041],[-77.17498825528241,38.754978641347634],[-77.17772625528482,38.752338641345204],[-77.18046525528757,38.749702641342765],[-77.18128925528822,38.746745641339885],[-77.18402825529074,38.744109641337445],[-77.18580625529239,38.741309641334965],[-77.18758425529404,38.73851364133225],[-77.18936125529581,38.73571764132976],[-77.19113925529746,38.73292164132704],[-77.19291725529911,38.73012564132455],[-77.19469425530065,38.72732964132183],[-77.19551125530143,38.72437264131918],[-77.19728825530319,38.72157664131646],[-77.19906625530484,38.71878064131397],[-77.19988225530551,38.71582764131108],[-77.20069925530629,38.71287164130831],[-77.20055425530609,38.7097586413056],[-77.20233125530785,38.70696264130288],[-77.20314825530863,38.70400964130022],[-77.2039642553093,38.70105764129744],[-77.2047802553102,38.69810064129456],[-77.20559725531098,38.69514864129201],[-77.20737425531252,38.6923486412893],[-77.20915225531417,38.68955264128681],[-77.20996825531483,38.68659964128392],[-77.21078525531561,38.68364364128115],[-77.21351625531815,38.68100364127872],[-77.21433225531905,38.67805064127606],[-77.2161102553207,38.67525464127334],[-77.21884925532322,38.67261464127091],[-77.22061925532489,38.66981864126842],[-77.22335825532741,38.667178641265764],[-77.22608925532995,38.664539641263445],[-77.23098725533441,38.65962964125879],[-77.23600025533915,38.660613641259715],[-77.2343672553377,38.656055641255534],[-77.23783825534088,38.65102364125073],[-77.23848919745242,38.65],[-77.85,38.65],[-77.85,39.18890873638512],[-77.84975425591074,39.189147641752015],[-77.84799225590905,39.1919556417547],[-77.84526025590662,39.19460664175699],[-77.84252925590408,39.197261641759496],[-77.84080850439918,39.2],[-77.56419585867054,39.2]]]}},{"type":"Feature","properties":{"OBJECTID_1":2053,"ROCK_NAME":"Sandstone aquifers","ROCK_TYPE":300,"AQ_NAME":"Early Mesozoic basin aquifers","AQ_CODE":308,"Shape_Leng":3.46948879992,"Shape_Area":0.261268547631,"metro":"nova"},"geometry":{"type":"Polygon","coordinates":[[[-77.4268501958429,39.2],[-77.42754325551755,39.19746364175967],[-77.42642225551663,39.19419864175666],[-77.4253002555156,39.190929641753655],[-77.4251482555153,39.187820641750704],[-77.42402625551426,39.1845516417477],[-77.42270625551305,39.18202164174545],[-77.42137925551174,39.17949264174308],[-77.41909025550967,39.176807641740425],[-77.41680125550761,39.1741256417381],[-77.41450525550545,39.17143964173556],[-77.4120182555032,39.16949464173376],[-77.4077912554992,39.16649664173087],[-77.4043272554959,39.164394641728904],[-77.39833025549046,39.16419964172883],[-77.39405025548649,39.16505064172952],[-77.38510125547805,39.16823564173251],[-77.38021125547357,39.17130664173533],[-77.37553425546912,39.173637641737514],[-77.37105525546485,39.17522764173896],[-77.36637125546054,39.17755864174114],[-77.3618922554565,39.17915364174269],[-77.35589625545094,39.16428764172883],[-77.35574325545076,39.16117864172588],[-77.3553922554504,39.15880164172381],[-77.34883125544434,39.156970641721955],[-77.34399425543984,39.1561886417212],[-77.33972125543573,39.15703964172212],[-77.33586125543229,39.15641364172143],[-77.33239725542899,39.15430864171958],[-77.32914725542582,39.15146664171698],[-77.32706425542392,39.148040641713806],[-77.32711825542401,39.14419164171022],[-77.3279342554249,39.14123564170745],[-77.32875025542558,39.138278641704574],[-77.32956725542635,39.135326641701795],[-77.33038325542702,39.13236964169914],[-77.33119925542792,39.129413641696374],[-77.3320162554287,39.12646064169371],[-77.33186325542852,39.123348641690654],[-77.33267925542918,39.120391641688],[-77.33349625542996,39.11743564168523],[-77.33431225543063,39.114478641682354],[-77.33416725543066,39.11136964167963],[-77.33498425543144,39.10841364167686],[-77.33579225543212,39.10545764167409],[-77.3366092554329,39.1025046416712],[-77.33742525543357,39.099548641668434],[-77.33824125543447,39.09659164166578],[-77.33905825543525,39.09363564166301],[-77.33987425543592,39.09068264166035],[-77.34069025543658,39.08772664165758],[-77.34150725543736,39.08477064165481],[-77.34231525543828,39.081813641651934],[-77.34313225543906,39.07886164164938],[-77.34394825543973,39.0759046416465],[-77.34379625543966,39.07279164164356],[-77.34461225544032,39.06983564164079],[-77.34542825544099,39.06688264163813],[-77.34624525544177,39.06392664163536],[-77.34706125544267,39.06097064163259],[-77.34690825544249,39.05786164162964],[-77.34772525544327,39.05490464162699],[-77.34854125544393,39.05194864162422],[-77.35031925544558,39.049148641621514],[-77.34996025544524,39.04677564161943],[-77.35153925544682,39.044715641617586],[-77.35118125544636,39.04234264161528],[-77.35276025544795,39.040283641613314],[-77.35240925544758,39.037910641611234],[-77.35382825544889,39.03273764160622],[-77.35561325545063,39.02994164160373],[-77.35642225545143,39.02698564160096],[-77.35627025545114,39.02387264159802],[-77.3580472554529,39.02107264159554],[-77.35983325545453,39.01827264159283],[-77.36064125545522,39.01531964159017],[-77.361458255456,39.0123636415874],[-77.3622742554569,39.00940664158452],[-77.36308325545747,39.00645064158175],[-77.36389925545836,39.00349764157909],[-77.36470825545916,39.00054164157632],[-77.36552425545983,38.99758564157355],[-77.3663402554605,38.9946286415709],[-77.3671492554613,38.99167264156813],[-77.3679652554622,38.98871964156524],[-77.36877425546277,38.98576364156247],[-77.36959125546355,38.98280764155993],[-77.36943825546336,38.97969864155698],[-77.37025425546426,38.9767416415541],[-77.37106325546506,38.97378564155133],[-77.37187925546573,38.97082864154868],[-77.37172725546566,38.96771664154585],[-77.37253525546635,38.96476364154296],[-77.37239025546614,38.96165064154002],[-77.37223825546607,38.958537641537305],[-77.37401625546772,38.9557376415346],[-77.3757862554694,38.95294164153211],[-77.37660225547006,38.94998564152934],[-77.37741125547086,38.94702864152646],[-77.37822725547153,38.94407264152369],[-77.37903625547233,38.94111664152092],[-77.37985225547322,38.93816364151826],[-77.3816222554749,38.93536364151555],[-77.38340025547654,38.93256364151307],[-77.38324725547636,38.92945064151013],[-77.382896255476,38.92707864150793],[-77.38527725547829,38.922061641503205],[-77.38705425547982,38.919261641500725],[-77.38786325548062,38.916309641497946],[-77.38867925548129,38.91335264149507],[-77.38948825548209,38.9103966414923],[-77.39029725548289,38.90744064148953],[-77.39207425548443,38.90464064148705],[-77.3938442554861,38.90184064148434],[-77.39466125548688,38.89888364148169],[-77.3954692554878,38.89593164147891],[-77.39724725548945,38.8931316414762],[-77.39901725549112,38.89033164147372],[-77.39982625549169,38.88737464147084],[-77.40160325549346,38.88457464146836],[-77.40241225549426,38.88162264146558],[-77.40322125549483,38.87866164146294],[-77.40499925549648,38.87586564146022],[-77.4058072554974,38.872909641457454],[-77.4066162554982,38.869953641454686],[-77.40742525549877,38.86699664145203],[-77.40823325549968,38.864044641449254],[-77.41001125550133,38.86124064144656],[-77.4108202555019,38.858287641443894],[-77.41162825550282,38.855331641441126],[-77.41243725550339,38.852374641438246],[-77.41324625550419,38.849418641435705],[-77.41405525550499,38.846462641432936],[-77.41583225550676,38.84366264143023],[-77.41664125550733,38.840705641427576],[-77.41745025550813,38.8377536414248],[-77.41729725550795,38.834640641421856],[-77.41810625550875,38.83168364141898],[-77.41987625551042,38.828883641416496],[-77.42068525551122,38.82592764141373],[-77.4214932555119,38.82297564141095],[-77.42327125551355,38.82017164140825],[-77.42408025551435,38.81721864140559],[-77.42488125551517,38.81426264140282],[-77.42568925551586,38.81130564140017],[-77.42553725551579,38.80819364139711],[-77.42731525551744,38.80539364139463],[-77.42715425551728,38.80228064139169],[-77.42796325551785,38.79932764138903],[-77.4278102555179,38.796214641386086],[-77.42861925551847,38.79325864138332],[-77.42942825551927,38.79030264138055],[-77.42927525551909,38.7871936413776],[-77.42912325551902,38.78408064137466],[-77.43089325552069,38.78128064137218],[-77.43170125552138,38.7783236413693],[-77.4315492555213,38.77521164136647],[-77.4323582555221,38.772254641363816],[-77.43316625552279,38.76930264136104],[-77.43493625552446,38.76650264135833],[-77.43669925552604,38.76370264135585],[-77.43750725552695,38.76074564135297],[-77.4392772555284,38.75794564135049],[-77.44104725553007,38.75514564134778],[-77.44185625553087,38.75218964134501],[-77.44266525553167,38.749233641342244],[-77.44346625553248,38.74627664133959],[-77.44427525553306,38.74332064133682],[-77.44508325553397,38.74036364133394],[-77.44589225553477,38.73741164133139],[-77.44670125553534,38.73445464132851],[-77.44750225553616,38.73149864132574],[-77.4502332555387,38.72885164132322],[-77.4510422555395,38.725894641320565],[-77.4518512555403,38.722942641317786],[-77.45457425554264,38.72029464131538],[-77.45538325554344,38.71733864131261],[-77.45619225554424,38.714385641309946],[-77.45699325554506,38.71142964130718],[-77.45780225554586,38.70847364130441],[-77.45861025554655,38.70551664130153],[-77.45941125554714,38.70256064129876],[-77.46118125554881,38.69976064129628],[-77.46294425555061,38.69696064129357],[-77.4637522555513,38.69400364129092],[-77.4645612555521,38.69104764128815],[-77.46536225555269,38.68809164128538],[-77.46617125555349,38.6851346412825],[-77.46697225555431,38.682178641279734],[-77.46874225555598,38.67937864127725],[-77.46955125555678,38.67642164127437],[-77.47035225555737,38.67346564127183],[-77.47388425556073,38.66786564126642],[-77.4790272555656,38.65635264125581],[-77.47982825556619,38.65339664125304],[-77.48197056572798,38.65],[-77.79137062025164,38.65],[-77.79112225585618,38.65092464125064],[-77.78840625585372,38.653579641253145],[-77.78569825585123,38.65623064125566],[-77.78298225584854,38.658881641258176],[-77.78122725584694,38.66168564126065],[-77.77948025584533,38.664493641263334],[-77.77772525584373,38.66729764126603],[-77.77520725584145,38.66920864126769],[-77.77365125583992,38.67127564126963],[-77.77053825583698,38.67540764127352],[-77.76878325583539,38.67821164127622],[-77.76722725583386,38.680274641278174],[-77.76527425583208,38.68381864128128],[-77.76371725583067,38.68588664128333],[-77.75984225582715,38.68912164128619],[-77.7590482558262,38.69208164128895],[-77.75653125582403,38.69399264129083],[-77.75361625582127,38.69738364129398],[-77.75282325582043,38.70034064129686],[-77.7520292558197,38.70330064129962],[-77.75027425581811,38.70610464130209],[-77.74851225581642,38.70890764130468],[-77.74771925581581,38.71186864130755],[-77.74500225581323,38.71451964131006],[-77.74324825581152,38.71732364131253],[-77.74149325580993,38.72012664131512],[-77.73973825580833,38.72293064131782],[-77.73797625580664,38.725734641320514],[-77.73718225580592,38.728690641323055],[-77.73562625580439,38.73075864132511],[-77.73366525580263,38.73430264132844],[-77.73287225580202,38.73725864133121],[-77.73131525580038,38.73932264133305],[-77.7293622557986,38.74287064133637],[-77.72760025579692,38.745670641339075],[-77.72584525579532,38.74847764134165],[-77.72504425579473,38.751434641344304],[-77.72425125579389,38.75439064134707],[-77.72345725579316,38.75735064134983],[-77.72073325579072,38.760001641352346],[-77.71994025578988,38.762958641355],[-77.71913925578906,38.76591464135777],[-77.71834525578834,38.76887164136065],[-77.71755225578772,38.771831641363406],[-77.71502725578534,38.77374264136506],[-77.71403525578444,38.77743864136846],[-77.71323425578362,38.78039964137133],[-77.71071625578134,38.782306641373],[-77.70971725578033,38.786006641376616],[-77.70816025577892,38.788070641378454],[-77.70619925577716,38.791614641381784],[-77.70539825577634,38.79457064138455],[-77.7046052557755,38.797527641387205],[-77.70304125577422,38.79959464138915],[-77.70204925577332,38.80329164139266],[-77.70028725577163,38.80609464139525],[-77.69873025577022,38.808158641397085],[-77.69676925576823,38.811702641400416],[-77.69500725576677,38.81450664140311],[-77.69420625576595,38.81746264140588],[-77.69245125576435,38.82026664140835],[-77.68992625576197,38.822177641410235],[-77.68892625576109,38.82587464141375],[-77.68812525576027,38.828830641416516],[-77.68560825575787,38.83074164141817],[-77.68460825575698,38.834438641421684],[-77.6828462557553,38.83724164142427],[-77.68108325575372,38.84004564142697],[-77.6802822557529,38.84300264142962],[-77.67948125575231,38.84596264143238],[-77.67868825575147,38.84891864143515],[-77.6761622557492,38.8508296414368],[-77.6751632557482,38.854526641440316],[-77.67436225574738,38.857482641443085],[-77.67356125574679,38.860439641445964],[-77.67276025574597,38.86339964144872],[-77.67196625574525,38.866355641451264],[-77.67116525574443,38.869312641454144],[-77.6703642557436,38.87226864145691],[-77.66956325574301,38.87522864145967],[-77.67069225574392,38.87849464146257],[-77.66893025574245,38.881294641465274],[-77.66909825574248,38.884406641468104],[-77.66829725574189,38.887363641470984],[-77.66749525574096,38.89032364147374],[-77.66669425574037,38.89327964147651],[-77.66589325573955,38.89623664147916],[-77.66510025573871,38.89919264148193],[-77.66429925573811,38.90215264148469],[-77.6634982557373,38.90510964148757],[-77.66269725573648,38.90806564149011],[-77.66189525573577,38.91102264149299],[-77.66109425573518,38.91398264149575],[-77.66029325573436,38.91693864149852],[-77.65949225573354,38.91989564150117],[-77.65869125573295,38.92285564150393],[-77.65982025573385,38.92612064150694],[-77.65901925573326,38.92907764150982],[-77.65821825573244,38.93203364151259],[-77.65741725573162,38.93498964151536],[-77.65854625573274,38.93825564151825],[-77.65774525573192,38.94121164152102],[-77.6569442557311,38.94417164152378],[-77.65711225573136,38.94728064152673],[-77.65727225573141,38.95039364152967],[-77.65743225573169,38.95350664153261],[-77.65760025573172,38.956615641535336],[-77.65679925573113,38.959571641538105],[-77.65792825573203,38.96283764154123],[-77.65712725573144,38.965797641543986],[-77.65632625573062,38.968753641546755],[-77.6555252557298,38.97171064154941],[-77.6547242557292,38.974670641552166],[-77.65585325573011,38.97793564155518],[-77.65505225572952,38.98089264155806],[-77.6542512557287,38.983848641560826],[-77.65248125572703,38.986652641563296],[-77.6526412557273,38.98976564156624],[-77.65280925572733,38.99287464156919],[-77.65200825572651,38.995830641571956],[-77.65216825572679,38.9989436415749],[-77.65136725572597,39.001899641577666],[-77.65153525572623,39.005012641580606],[-77.65169525572628,39.00812564158332],[-77.65089425572569,39.01108164158609],[-77.65009325572487,39.01403764158886],[-77.64929225572405,39.01699464159174],[-77.64849125572346,39.019950641594505],[-77.64769025572264,39.022910641597264],[-77.64688125572184,39.025867641599916],[-77.64608025572102,39.028823641602685],[-77.64527925572042,39.03178364160544],[-77.6444782557196,39.034740641608096],[-77.64367725571879,39.037696641610864],[-77.64190625571723,39.04050064161356],[-77.64110525571641,39.04345664161633],[-77.64126625571657,39.04656964161927],[-77.64046525571598,39.049526641621924],[-77.63773325571333,39.05217364162445],[-77.63692425571253,39.05513364162721],[-77.63612325571194,39.05809064162986],[-77.63628425571187,39.06120264163292],[-77.63548325571128,39.06415964163557],[-77.63468125571057,39.06711564163834],[-77.63388025570976,39.07007264164099],[-77.63307225570907,39.07302864164376],[-77.6313022557074,39.07583264164646],[-77.62876925570504,39.07774364164834],[-77.62776925570415,39.08143964165174],[-77.62599925570248,39.08423964165422],[-77.62519025570168,39.08720064165709],[-77.62342025570001,39.09000364165968],[-77.6218562556985,39.092063641661525],[-77.61988025569667,39.095607641664856],[-77.61734725569431,39.09751864166674],[-77.61634025569333,39.101215641670024],[-77.61457025569166,39.10401564167273],[-77.61280025569022,39.10681964167543],[-77.6119992556894,39.10977564167797],[-77.61022225568763,39.11257964168067],[-77.60845225568596,39.115383641683366],[-77.60668225568452,39.11818264168596],[-77.60491225568285,39.12098664168843],[-77.60410325568205,39.12394364169131],[-77.60233325568038,39.1267466416939],[-77.60056325567871,39.129550641696596],[-77.59975425567791,39.13250764169925],[-77.59798425567624,39.135310641701835],[-77.59621425567457,39.13811064170454],[-77.5944442556729,39.14091464170701],[-77.59266625567125,39.14371464170972],[-77.59186525567065,39.14667464171248],[-77.5893252556682,39.148582641714256],[-77.58831825566722,39.15227864171766],[-77.58654825566555,39.155082641720355],[-77.5847702556639,39.157882641722836],[-77.58396125566333,39.160838641725604],[-77.5812222556608,39.163490641728],[-77.57945225565913,39.16629064173071],[-77.57864425565822,39.16924664173348],[-77.57687425565655,39.17205064173618],[-77.5750962556549,39.17485464173865],[-77.57428725565433,39.17781064174142],[-77.57251725565266,39.180610641744124],[-77.570739255651,39.183414641746594],[-77.56993825565019,39.18637064174936],[-77.5691302556495,39.18932764175224],[-77.5683212556487,39.19228364175501],[-77.56654325564705,39.19508764175748],[-77.56477325564538,39.19788764176019],[-77.56419585867054,39.2],[-77.4268501958429,39.2]]]}},{"type":"Feature","properties":{"OBJECTID_1":2129,"ROCK_NAME":"Semiconsolidated sand aquifers","ROCK_TYPE":200,"AQ_NAME":"Northern Atlantic Coastal Plain aquifer system","AQ_CODE":205,"Shape_Leng":0.952162639968,"Shape_Area":0.0244144921285,"metro":"nova"},"geometry":{"type":"Polygon","coordinates":[[[-77.06336225517839,38.89243364147569],[-77.0615082551767,38.89032764147373],[-77.05918925517449,38.888923641472275],[-77.0557712551713,38.88522764146887],[-77.05173525516761,38.881976641465826],[-77.04595225516209,38.87823464146254],[-77.04309125515942,38.87545764145989],[-77.03968025515633,38.87130764145604],[-77.03748325515426,38.86627964145123],[-77.03640025515324,38.86353664144872],[-77.03473625515176,38.85987464144523],[-77.03305825515008,38.85712464144285],[-77.03196725514908,38.85438164144011],[-77.03150925514865,38.85074264143691],[-77.03217325514925,38.84849564143474],[-77.03352325515061,38.8435326414301],[-77.03537025515243,38.841300641428006],[-77.03775825515459,38.84044264142722],[-77.0407412551574,38.83959564142651],[-77.04261025515916,38.836910641423856],[-77.04212225515857,38.833724641420986],[-77.04051925515705,38.82870864141637],[-77.03948925515624,38.82415364141207],[-77.03802525515471,38.81505964140365],[-77.0376972551544,38.80734664139641],[-77.0386042551554,38.797843641387544],[-77.03952025515628,38.7883376413788],[-77.03960425515629,38.786075641376556],[-77.04069525515729,38.77113364136267],[-77.04083225515751,38.767055641358866],[-77.04101525515762,38.76161964135372],[-77.04028325515696,38.748454641341596],[-77.04000125515654,38.73892964133279],[-77.03980225515647,38.72759264132219],[-77.04180125515836,38.72082864131585],[-77.04433425516072,38.71543864131081],[-77.04739425516345,38.71232564130787],[-77.05161325516747,38.70968964130543],[-77.05461925517034,38.70793564130372],[-77.05877725517416,38.70711164130307],[-77.06288925517788,38.70764564130354],[-77.06758925518238,38.7081906413041],[-77.0717012551861,38.70872464130457],[-77.07405825518845,38.70877064130468],[-77.07761425519175,38.708389641304166],[-77.08058925519435,38.70753864130347],[-77.08359525519722,38.70578364130188],[-77.09079025520396,38.70230064129851],[-77.10440825521664,38.700748641297196],[-77.1108322552227,38.7026866412989],[-77.11429625522578,38.70502064130119],[-77.11775925522898,38.707355641303366],[-77.1229702552339,38.71017464130591],[-77.12602225523665,38.70706164130297],[-77.12496225523569,38.70341464129956],[-77.12331425523416,38.6997526412963],[-77.11929325523056,38.69650664129313],[-77.11942325523069,38.692424641289335],[-77.12126925523239,38.69019664128723],[-77.12372625523471,38.68706864128444],[-77.12445025523539,38.6830066412806],[-77.12872325523927,38.67855064127639],[-77.1316982552421,38.677703641275684],[-77.13589525524594,38.6755176412737],[-77.14243325525194,38.67382464127195],[-77.14887225525808,38.67531164127354],[-77.15634125526503,38.681342641279116],[-77.1555482552642,38.68767564128507],[-77.15600625526463,38.69176464128873],[-77.15824925526681,38.695434641292195],[-77.16172825526996,38.697315641293926],[-77.167030255275,38.69741464129402],[-77.16249125527065,38.691886641288875],[-77.16568725527372,38.6842426412818],[-77.17871825528573,38.682220641279855],[-77.17820725528532,38.679946641277866],[-77.17235525527985,38.67847864127634],[-77.1683042552761,38.67612864127432],[-77.1637492552718,38.67105864126938],[-77.15850025526697,38.66914764126773],[-77.15392325526273,38.66497764126393],[-77.15109225526021,38.66130064126037],[-77.15063525525966,38.65721164125648],[-77.14305125525266,38.65479664125428],[-77.1390002552489,38.652454641252234],[-77.13545700342702,38.65],[-77.19389117389491,38.65],[-77.19380925529981,38.65258364125225],[-77.19606825530195,38.65579564125528],[-77.19896725530475,38.65721464125659],[-77.20780225531303,38.65737964125674],[-77.2143022553189,38.65704364125645],[-77.2226032553267,38.65538364125496],[-77.22837825533202,38.659118641258374],[-77.23098725533441,38.65962964125879],[-77.22608925532995,38.664539641263445],[-77.22335825532741,38.667178641265764],[-77.22061925532489,38.66981864126842],[-77.21884925532322,38.67261464127091],[-77.2161102553207,38.67525464127334],[-77.21433225531905,38.67805064127606],[-77.21351625531815,38.68100364127872],[-77.21078525531561,38.68364364128115],[-77.20996825531483,38.68659964128392],[-77.20915225531417,38.68955264128681],[-77.20737425531252,38.6923486412893],[-77.20559725531098,38.69514864129201],[-77.2047802553102,38.69810064129456],[-77.2039642553093,38.70105764129744],[-77.20314825530863,38.70400964130022],[-77.20233125530785,38.70696264130288],[-77.20055425530609,38.7097586413056],[-77.20069925530629,38.71287164130831],[-77.19988225530551,38.71582764131108],[-77.19906625530484,38.71878064131397],[-77.19728825530319,38.72157664131646],[-77.19551125530143,38.72437264131918],[-77.19469425530065,38.72732964132183],[-77.19291725529911,38.73012564132455],[-77.19113925529746,38.73292164132704],[-77.18936125529581,38.73571764132976],[-77.18758425529404,38.73851364133225],[-77.18580625529239,38.741309641334965],[-77.18402825529074,38.744109641337445],[-77.18128925528822,38.746745641339885],[-77.18046525528757,38.749702641342765],[-77.17772625528482,38.752338641345204],[-77.17498825528241,38.754978641347634],[-77.17417125528164,38.75793064135041],[-77.17239425527987,38.76073064135289],[-77.17061625527822,38.76352664135561],[-77.1688312552767,38.7663226413581],[-77.16705325527505,38.7691196413607],[-77.1652752552734,38.77191564136342],[-77.16349025527165,38.77471164136591],[-77.16171225527,38.77750764136863],[-77.15993525526824,38.78030364137112],[-77.15718825526574,38.78293964137379],[-77.15637225526507,38.78589664137644],[-77.15363325526255,38.78853264137888],[-77.1518482552608,38.7913286413816],[-77.15007025525915,38.79412464138409],[-77.14732325525665,38.79676464138652],[-77.14554625525489,38.799560641389235],[-77.14376025525326,38.802356641391725],[-77.14102125525073,38.804992641394165],[-77.13923625524899,38.80778864139688],[-77.13745925524745,38.81058464139937],[-77.13567325524582,38.813381641401975],[-77.13389625524405,38.81617764140469],[-77.13114925524155,38.81881364140713],[-77.12841025523903,38.82145264140945],[-77.12566425523642,38.82408864141189],[-77.12387825523479,38.82688564141472],[-77.12113225523217,38.82952464141704],[-77.11839325522965,38.83216064141948],[-77.11660725522802,38.834956641422195],[-77.1138612552254,38.837592641424635],[-77.11207625522366,38.84038964142724],[-77.10933725522113,38.843025641429676],[-77.1075512552195,38.84582164143217],[-77.10384325521613,38.84830064143466],[-77.10205825521439,38.85109664143715],[-77.10027325521287,38.853889641439764],[-77.09752625521014,38.856529641442194],[-77.09574125520862,38.85932564144491],[-77.0929942552059,38.86196164144735],[-77.0902482552035,38.86459764144979],[-77.08750125520078,38.86723364145223],[-77.08571625519926,38.87002964145472],[-77.08200825519566,38.87250564145711],[-77.07926225519327,38.875144641459656],[-77.07747625519164,38.87793764146227],[-77.07473025518902,38.880576641464586],[-77.07005325518458,38.88289664146669],[-77.06826825518306,38.885688641469415],[-77.0664822551812,38.888484641471905],[-77.06336225517839,38.89243364147569]]]}},{"type":"Feature","properties":{"OBJECTID_1":2169,"ROCK_NAME":"Semiconsolidated sand aquifers","ROCK_TYPE":200,"AQ_NAME":"Northern Atlantic Coastal Plain aquifer system","AQ_CODE":205,"Shape_Leng":62.3483785629,"Shape_Area":5.92282714795,"metro":"nova"},"geometry":{"type":"Polygon","coordinates":[[[-77.23848919745242,38.65],[-77.23783825534088,38.65102364125073],[-77.2343672553377,38.656055641255534],[-77.2303312553338,38.653259641252816],[-77.22803525533186,38.65140564125113],[-77.22747204191542,38.65],[-77.23848919745242,38.65]]]}}]}