{"type":"FeatureCollection","features":[{"type":"Feature","properties":{"name":"365 Data Centers - Herndon","operator":"365 Data Centers","city":"Herndon","state":"VA","status":"Active"},"geometry":{"type":"Point","coordinates":[-77.426518,38.933155]}},{"type":"Feature","properties":{"name":"3721 Stonecroft Boulevard","operator":"Starwood Digital Ventures","city":"Chantilly","state":"VA","status":"Active"},"geometry":{"type":"Point","coordinates":[-77.457138,38.913559]}},{"type":"Feature","properties":{"name":"Aligned Data Centers - IAD-01","operator":"Aligned Data Centers","city":"Ashburn","state":"VA","status":"Active"},"geometry":{"type":"Point","coordinates":[-77.469201,39.013618]}},{"type":"Feature","properties":{"name":"Aligned Data Centers - IAD-02","operator":"Aligned Data Centers","city":"Ashburn","state":"VA","status":"Active"},"geometry":{"type":"Point","coordinates":[-77.475466,39.011858]}},{"type":"Feature","properties":{"name":"Aligned Data Centers - IAD-03","operator":"Aligned Data Centers","city":"Sterling","state":"VA","status":"Active"},"geometry":{"type":"Point","coordinates":[-77.439342,38.989056]}},{"type":"Feature","properties":{"name":"Amazon AWS - 22520 Randolph Drive","operator":"Amazon AWS","city":"Sterling","state":"VA","status":"Active"},"geometry":{"type":"Point","coordinates":[-77.452003,38.994493]}},{"type":"Feature","properties":{"name":"Amazon AWS - 22760 Pacific Blvd","operator":"Amazon AWS","city":"Sterling","state":"VA","status":"Active"},"geometry":{"type":"Point","coordinates":[-77.436865,38.988588]}},{"type":"Feature","properties":{"name":"Amazon AWS - 4151 Auto Park Cir","operator":"Amazon AWS","city":"Chantilly","state":"VA","status":"Active"},"geometry":{"type":"Point","coordinates":[-77.46164,38.903637]}},{"type":"Feature","properties":{"name":"Amazon AWS - 41789 Cochran Mill Rd","operator":"Amazon AWS","city":"Leesburg","state":"VA","status":"Active"},"geometry":{"type":"Point","coordinates":[-77.531664,39.069233]}},{"type":"Feature","properties":{"name":"Amazon AWS - 45965-45975 Nokes Blvd","operator":"Amazon AWS","city":"Sterling","state":"VA","status":"Active"},"geometry":{"type":"Point","coordinates":[-77.412153,39.023631]}},{"type":"Feature","properties":{"name":"Amazon AWS - 46000-46020 Manekin Plz","operator":"Amazon AWS","city":"Sterling","state":"VA","status":"Active"},"geometry":{"type":"Point","coordinates":[-77.406854,39.023615]}},{"type":"Feature","properties":{"name":"Amazon AWS - 6894-6922 Wellington Rd / 8019 Devlin Rd","operator":"Amazon AWS","city":"Manassas","state":"VA","status":"Active"},"geometry":{"type":"Point","coordinates":[-77.56136,38.782055]}},{"type":"Feature","properties":{"name":"Amazon AWS - 8158 Sudley Road","operator":"Amazon AWS","city":"Manassas","state":"VA","status":"Active"},"geometry":{"type":"Point","coordinates":[-77.50706,38.777582]}},{"type":"Feature","properties":{"name":"Amazon AWS - IAD Beaumeade Cir Campus","operator":"Amazon AWS","city":"Ashburn","state":"VA","status":"Active"},"geometry":{"type":"Point","coordinates":[-77.452595,39.014901]}},{"type":"Feature","properties":{"name":"Amazon AWS - IAD Loudoun County Campus","operator":"Amazon AWS","city":"Ashburn","state":"VA","status":"Active"},"geometry":{"type":"Point","coordinates":[-77.449261,39.037179]}},{"type":"Feature","properties":{"name":"Amazon AWS - IAD Smith Campus","operator":"Amazon AWS","city":"Ashburn","state":"VA","status":"Active"},"geometry":{"type":"Point","coordinates":[-77.458979,39.02704]}},{"type":"Feature","properties":{"name":"Amazon AWS Atlantic Blvd Campus","operator":"Amazon AWS","city":"Sterling","state":"VA","status":"Active"},"geometry":{"type":"Point","coordinates":[-77.428752,39.032332]}},{"type":"Feature","properties":{"name":"Amazon AWS Bethlehem Road Campus","operator":"Amazon AWS","city":"Manassas","state":"VA","status":"Active"},"geometry":{"type":"Point","coordinates":[-77.534957,38.792445]}},{"type":"Feature","properties":{"name":"Amazon AWS Brewers Spring Road Campus","operator":"Amazon AWS","city":"Manassas","state":"VA","status":"Active"},"geometry":{"type":"Point","coordinates":[-77.546734,38.790554]}},{"type":"Feature","properties":{"name":"Amazon AWS Dulles Summit Ct Campus","operator":"Amazon AWS","city":"Sterling","state":"VA","status":"Active"},"geometry":{"type":"Point","coordinates":[-77.44833,38.988907]}},{"type":"Feature","properties":{"name":"Amazon AWS EDS Campus","operator":"Amazon AWS","city":"Herndon","state":"VA","status":"Active"},"geometry":{"type":"Point","coordinates":[-77.426186,38.925573]}},{"type":"Feature","properties":{"name":"Amazon AWS Freedom Center Blvd Campus","operator":"Amazon AWS","city":"Manassas","state":"VA","status":"Active"},"geometry":{"type":"Point","coordinates":[-77.517192,38.759826]}},{"type":"Feature","properties":{"name":"Amazon AWS International Campus","operator":"Amazon AWS","city":"Sterling","state":"VA","status":"Active"},"geometry":{"type":"Point","coordinates":[-77.424496,38.985043]}},{"type":"Feature","properties":{"name":"Amazon AWS Mason King Court Campus","operator":"Amazon AWS","city":"Manassas","state":"VA","status":"Active"},"geometry":{"type":"Point","coordinates":[-77.539549,38.791444]}},{"type":"Feature","properties":{"name":"Amazon AWS Prologis Plaza Campus","operator":"Amazon AWS","city":"Sterling","state":"VA","status":"Active"},"geometry":{"type":"Point","coordinates":[-77.438008,38.988341]}},{"type":"Feature","properties":{"name":"Amazon AWS Relocation Campus","operator":"Amazon AWS","city":"Sterling","state":"VA","status":"Active"},"geometry":{"type":"Point","coordinates":[-77.439965,38.98783]}},{"type":"Feature","properties":{"name":"Amazon AWS Renaissance Park Campus","operator":"Amazon AWS","city":"Herndon","state":"VA","status":"Active"},"geometry":{"type":"Point","coordinates":[-77.424383,38.934084]}},{"type":"Feature","properties":{"name":"Amazon AWS Ridgetop Cir Campus","operator":"Amazon AWS","city":"Sterling","state":"VA","status":"Active"},"geometry":{"type":"Point","coordinates":[-77.408975,39.025193]}},{"type":"Feature","properties":{"name":"Amazon AWS Virginia Mallory Campus","operator":"Amazon AWS","city":"Chantilly","state":"VA","status":"Active"},"geometry":{"type":"Point","coordinates":[-77.449976,38.905884]}},{"type":"Feature","properties":{"name":"Amazon AWS Wellington Road Campus (Manassas)","operator":"Amazon AWS","city":"Manassas","state":"VA","status":"Active"},"geometry":{"type":"Point","coordinates":[-77.557104,38.780041]}},{"type":"Feature","properties":{"name":"Amazon AWS Westfax Campus","operator":"Amazon AWS","city":"Chantilly","state":"VA","status":"Active"},"geometry":{"type":"Point","coordinates":[-77.455298,38.899441]}},{"type":"Feature","properties":{"name":"Aptum Herndon","operator":"Aptum","city":"Herndon","state":"VA","status":"Active"},"geometry":{"type":"Point","coordinates":[-77.395927,38.950746]}},{"type":"Feature","properties":{"name":"ATI DC-1","operator":"ATI Solutions Inc.","city":"Chantilly","state":"VA","status":"Active"},"geometry":{"type":"Point","coordinates":[-77.476677,38.906429]}},{"type":"Feature","properties":{"name":"CloudHQ - Cloud Capital (9651 Hornbaker)","operator":"CloudHQ","city":"Manassas","state":"VA","status":"Active"},"geometry":{"type":"Point","coordinates":[-77.533563,38.746361]}},{"type":"Feature","properties":{"name":"CloudHQ - LC1","operator":"CloudHQ","city":"Ashburn","state":"VA","status":"Active"},"geometry":{"type":"Point","coordinates":[-77.461685,39.00892]}},{"type":"Feature","properties":{"name":"CloudHQ - LC2","operator":"CloudHQ","city":"Ashburn","state":"VA","status":"Active"},"geometry":{"type":"Point","coordinates":[-77.475251,39.013227]}},{"type":"Feature","properties":{"name":"CloudHQ - LC3","operator":"CloudHQ","city":"Ashburn","state":"VA","status":"Active"},"geometry":{"type":"Point","coordinates":[-77.475172,39.013246]}},{"type":"Feature","properties":{"name":"CloudHQ LC Campus (22210 Loudoun County Pkwy)","operator":"CloudHQ","city":"Ashburn","state":"VA","status":"Active"},"geometry":{"type":"Point","coordinates":[-77.47189,39.007303]}},{"type":"Feature","properties":{"name":"CloudHQ MCC6Z/MCC7","operator":"CloudHQ","city":"Manassas","state":"VA","status":"Active"},"geometry":{"type":"Point","coordinates":[-77.500811,38.722516]}},{"type":"Feature","properties":{"name":"CloudHQ MDC Campus","operator":"CloudHQ","city":"Manassas","state":"VA","status":"Active"},"geometry":{"type":"Point","coordinates":[-77.501901,38.724098]}},{"type":"Feature","properties":{"name":"Cogent Data Center - Vienna","operator":"Cogent Communications, Inc.","city":"Vienna","state":"VA","status":"Active"},"geometry":{"type":"Point","coordinates":[-77.2278,38.913842]}},{"type":"Feature","properties":{"name":"Cologix Ashburn Campus","operator":"Cologix","city":"Ashburn","state":"VA","status":"Active"},"geometry":{"type":"Point","coordinates":[-77.457688,39.017186]}},{"type":"Feature","properties":{"name":"COPT DC-19","operator":"COPT Defense Properties","city":"Manassas","state":"VA","status":"Active"},"geometry":{"type":"Point","coordinates":[-77.535836,38.778668]}},{"type":"Feature","properties":{"name":"COPT Defense Properties Maries Tech Park","operator":"COPT Defense Properties","city":"Sterling","state":"VA","status":"Active"},"geometry":{"type":"Point","coordinates":[-77.41409,39.022796]}},{"type":"Feature","properties":{"name":"CoreSite Reston Campus","operator":"CoreSite","city":"Reston","state":"VA","status":"Active"},"geometry":{"type":"Point","coordinates":[-77.364621,38.949011]}},{"type":"Feature","properties":{"name":"Csquare - IAD1-A","operator":"Csquare","city":"Sterling","state":"VA","status":"Active"},"geometry":{"type":"Point","coordinates":[-77.41381,39.024108]}},{"type":"Feature","properties":{"name":"Csquare - IAD3-A","operator":"Csquare","city":"Sterling","state":"VA","status":"Active"},"geometry":{"type":"Point","coordinates":[-77.443821,38.979613]}},{"type":"Feature","properties":{"name":"Csquare Ashburn Campus","operator":"Csquare","city":"Ashburn","state":"VA","status":"Active"},"geometry":{"type":"Point","coordinates":[-77.454286,39.021042]}},{"type":"Feature","properties":{"name":"Csquare IAD2 Campus","operator":"Csquare","city":"Sterling","state":"VA","status":"Active"},"geometry":{"type":"Point","coordinates":[-77.424245,38.985699]}},{"type":"Feature","properties":{"name":"Csquare Sterling Campus (IAD1-B/IAD1-C)","operator":"Csquare","city":"Sterling","state":"VA","status":"Active"},"geometry":{"type":"Point","coordinates":[-77.41579,39.024669]}},{"type":"Feature","properties":{"name":"CyrusOne - NVA4","operator":"CyrusOne Data Centers","city":"Sterling","state":"VA","status":"Active"},"geometry":{"type":"Point","coordinates":[-77.424446,38.985638]}},{"type":"Feature","properties":{"name":"CyrusOne - NVA8","operator":"CyrusOne Data Centers","city":"Sterling","state":"VA","status":"Active"},"geometry":{"type":"Point","coordinates":[-77.411938,39.02209]}},{"type":"Feature","properties":{"name":"CyrusOne - NVA9","operator":"CyrusOne Data Centers","city":"Sterling","state":"VA","status":"Active"},"geometry":{"type":"Point","coordinates":[-77.506748,38.955883]}},{"type":"Feature","properties":{"name":"CyrusOne Data Centers - NVA14","operator":"CyrusOne Data Centers","city":"Ashburn","state":"VA","status":"Active"},"geometry":{"type":"Point","coordinates":[-77.453438,39.020793]}},{"type":"Feature","properties":{"name":"CyrusOne NVA1-NVA3 Campus","operator":"CyrusOne Data Centers","city":"Sterling","state":"VA","status":"Active"},"geometry":{"type":"Point","coordinates":[-77.413754,39.024673]}},{"type":"Feature","properties":{"name":"CyrusOne Sterling Campus (NVA5-NVA7)","operator":"CyrusOne Data Centers","city":"Sterling","state":"VA","status":"Active"},"geometry":{"type":"Point","coordinates":[-77.436244,39.025978]}},{"type":"Feature","properties":{"name":"Digital Realty - 8100 Boone Boulevard","operator":"Digital Realty","city":"Vienna","state":"VA","status":"Active"},"geometry":{"type":"Point","coordinates":[-77.225732,38.913156]}},{"type":"Feature","properties":{"name":"Digital Realty - ACC2","operator":"Digital Realty","city":"Ashburn","state":"VA","status":"Active"},"geometry":{"type":"Point","coordinates":[-77.460121,39.021126]}},{"type":"Feature","properties":{"name":"Digital Realty - ACC3","operator":"Digital Realty","city":"Ashburn","state":"VA","status":"Active"},"geometry":{"type":"Point","coordinates":[-77.46123,39.019834]}},{"type":"Feature","properties":{"name":"Digital Realty - ACC4","operator":"Digital Realty","city":"Ashburn","state":"VA","status":"Active"},"geometry":{"type":"Point","coordinates":[-77.46201,39.019375]}},{"type":"Feature","properties":{"name":"Digital Realty - ACC5","operator":"Digital Realty","city":"Ashburn","state":"VA","status":"Active"},"geometry":{"type":"Point","coordinates":[-77.462953,39.019203]}},{"type":"Feature","properties":{"name":"Digital Realty - ACC6","operator":"Digital Realty","city":"Ashburn","state":"VA","status":"Active"},"geometry":{"type":"Point","coordinates":[-77.461881,39.021787]}},{"type":"Feature","properties":{"name":"Digital Realty - ACC7","operator":"Digital Realty","city":"Ashburn","state":"VA","status":"Active"},"geometry":{"type":"Point","coordinates":[-77.464144,39.01795]}},{"type":"Feature","properties":{"name":"Digital Realty - ACC8","operator":"Digital Realty","city":"Ashburn","state":"VA","status":"Active"},"geometry":{"type":"Point","coordinates":[-77.46335,39.024264]}},{"type":"Feature","properties":{"name":"Digital Realty - IAD12","operator":"Digital Realty","city":"Ashburn","state":"VA","status":"Active"},"geometry":{"type":"Point","coordinates":[-77.484518,39.00332]}},{"type":"Feature","properties":{"name":"Digital Realty - IAD13","operator":"Digital Realty","city":"Ashburn","state":"VA","status":"Active"},"geometry":{"type":"Point","coordinates":[-77.485381,39.003553]}},{"type":"Feature","properties":{"name":"Digital Realty - IAD14","operator":"Digital Realty","city":"Ashburn","state":"VA","status":"Active"},"geometry":{"type":"Point","coordinates":[-77.486036,39.003785]}},{"type":"Feature","properties":{"name":"Digital Realty - IAD18","operator":"Digital Realty","city":"Ashburn","state":"VA","status":"Active"},"geometry":{"type":"Point","coordinates":[-77.461073,39.021575]}},{"type":"Feature","properties":{"name":"Digital Realty - IAD24","operator":"Digital Realty","city":"Ashburn","state":"VA","status":"Active"},"geometry":{"type":"Point","coordinates":[-77.48532,39.003657]}},{"type":"Feature","properties":{"name":"Digital Realty - IAD43","operator":"Digital Realty","city":"Sterling","state":"VA","status":"Active"},"geometry":{"type":"Point","coordinates":[-77.452936,39.001226]}},{"type":"Feature","properties":{"name":"Digital Realty - IAD53","operator":"Digital Realty","city":"Manassas","state":"VA","status":"Active"},"geometry":{"type":"Point","coordinates":[-77.506769,38.74068]}},{"type":"Feature","properties":{"name":"Digital Realty - VA3 (Business Center Dr)","operator":"Digital Realty","city":"Reston","state":"VA","status":"Active"},"geometry":{"type":"Point","coordinates":[-77.326073,38.949208]}},{"type":"Feature","properties":{"name":"EdgeCore - Ashburn AS01","operator":"EdgeCore","city":"Sterling","state":"VA","status":"Active"},"geometry":{"type":"Point","coordinates":[-77.412519,39.022319]}},{"type":"Feature","properties":{"name":"EdgeCore - Ashburn AS02","operator":"EdgeCore","city":"Sterling","state":"VA","status":"Active"},"geometry":{"type":"Point","coordinates":[-77.44503,38.996205]}},{"type":"Feature","properties":{"name":"Equinix - DC1","operator":"Equinix","city":"Ashburn","state":"VA","status":"Active"},"geometry":{"type":"Point","coordinates":[-77.45784,39.014418]}},{"type":"Feature","properties":{"name":"Equinix - DC10","operator":"Equinix","city":"Ashburn","state":"VA","status":"Active"},"geometry":{"type":"Point","coordinates":[-77.454003,39.020991]}},{"type":"Feature","properties":{"name":"Equinix - DC13","operator":"Equinix","city":"Ashburn","state":"VA","status":"Active"},"geometry":{"type":"Point","coordinates":[-77.473939,39.012378]}},{"type":"Feature","properties":{"name":"Equinix - DC14","operator":"Equinix","city":"Manassas","state":"VA","status":"Active"},"geometry":{"type":"Point","coordinates":[-77.514397,38.803726]}},{"type":"Feature","properties":{"name":"Equinix - DC2","operator":"Equinix","city":"Ashburn","state":"VA","status":"Active"},"geometry":{"type":"Point","coordinates":[-77.457841,39.014365]}},{"type":"Feature","properties":{"name":"Equinix - DC21","operator":"Equinix","city":"Ashburn","state":"VA","status":"Active"},"geometry":{"type":"Point","coordinates":[-77.454057,39.011288]}},{"type":"Feature","properties":{"name":"Equinix - DC22","operator":"Equinix","city":"Ashburn","state":"VA","status":"Active"},"geometry":{"type":"Point","coordinates":[-77.453863,39.011675]}},{"type":"Feature","properties":{"name":"Equinix - DC3","operator":"Equinix","city":"Ashburn","state":"VA","status":"Active"},"geometry":{"type":"Point","coordinates":[-77.461073,39.021575]}},{"type":"Feature","properties":{"name":"Equinix - DC4","operator":"Equinix","city":"Ashburn","state":"VA","status":"Active"},"geometry":{"type":"Point","coordinates":[-77.457817,39.014689]}},{"type":"Feature","properties":{"name":"Equinix - DC5","operator":"Equinix","city":"Ashburn","state":"VA","status":"Active"},"geometry":{"type":"Point","coordinates":[-77.457838,39.014551]}},{"type":"Feature","properties":{"name":"Equinix Ashburn Campus (Filigree Ct)","operator":"Equinix","city":"Ashburn","state":"VA","status":"Active"},"geometry":{"type":"Point","coordinates":[-77.457842,39.014285]}},{"type":"Feature","properties":{"name":"Evocative IAD1","operator":"Evocative Data Centers","city":"Reston","state":"VA","status":"Active"},"geometry":{"type":"Point","coordinates":[-77.332225,38.95005]}},{"type":"Feature","properties":{"name":"EvoSwitch Manassas (WDC1)","operator":"EvoSwitch","city":"Manassas","state":"VA","status":"Active"},"geometry":{"type":"Point","coordinates":[-77.533563,38.746361]}},{"type":"Feature","properties":{"name":"Flex Data Center Reston","operator":"Flex Data Center, LLC","city":"Reston","state":"VA","status":"Active"},"geometry":{"type":"Point","coordinates":[-77.345693,38.952438]}},{"type":"Feature","properties":{"name":"GI Property Management - IAD15","operator":"GI Property Management","city":"Ashburn","state":"VA","status":"Active"},"geometry":{"type":"Point","coordinates":[-77.483889,39.003321]}},{"type":"Feature","properties":{"name":"Gulick Mill Campus","operator":"Unknown Company","city":"Leesburg","state":"VA","status":"Active"},"geometry":{"type":"Point","coordinates":[-77.555873,39.034616]}},{"type":"Feature","properties":{"name":"H5 Data Centers - Ashburn","operator":"H5 Data Centers","city":"Ashburn","state":"VA","status":"Active"},"geometry":{"type":"Point","coordinates":[-77.455139,39.015402]}},{"type":"Feature","properties":{"name":"H5 Data Centers Herndon","operator":"H5 Data Centers","city":"Herndon","state":"VA","status":"Active"},"geometry":{"type":"Point","coordinates":[-77.377797,38.962617]}},{"type":"Feature","properties":{"name":"Iron Mountain Data Centers Manassas Point","operator":"Iron Mountain Data Centers","city":"Manassas","state":"VA","status":"Active"},"geometry":{"type":"Point","coordinates":[-77.533764,38.78667]}},{"type":"Feature","properties":{"name":"Iron Mountain Data Centers VA-7","operator":"Iron Mountain Data Centers","city":"Manassas","state":"VA","status":"Active"},"geometry":{"type":"Point","coordinates":[-77.536938,38.775055]}},{"type":"Feature","properties":{"name":"Iron Mountain Virginia Campus (Hayden Rd)","operator":"Iron Mountain Data Centers","city":"Manassas","state":"VA","status":"Active"},"geometry":{"type":"Point","coordinates":[-77.544322,38.773639]}},{"type":"Feature","properties":{"name":"JK Land Holdings - 19886 Ashburn Rd","operator":"JK Land Holdings","city":"Ashburn","state":"VA","status":"Active"},"geometry":{"type":"Point","coordinates":[-77.480801,39.065723]}},{"type":"Feature","properties":{"name":"LightEdge - Ashburn","operator":"LightEdge","city":"Ashburn","state":"VA","status":"Active"},"geometry":{"type":"Point","coordinates":[-77.457842,39.014285]}},{"type":"Feature","properties":{"name":"Lumen - Ashburn","operator":"Lumen","city":"Ashburn","state":"VA","status":"Active"},"geometry":{"type":"Point","coordinates":[-77.456611,39.022746]}},{"type":"Feature","properties":{"name":"Lumen Herndon 2","operator":"Lumen","city":"Herndon","state":"VA","status":"Active"},"geometry":{"type":"Point","coordinates":[-77.382891,38.964798]}},{"type":"Feature","properties":{"name":"Lumen Herndon 3","operator":"Lumen","city":"Herndon","state":"VA","status":"Active"},"geometry":{"type":"Point","coordinates":[-77.382877,38.964955]}},{"type":"Feature","properties":{"name":"Menlo Digital - 43790 Devin Shafron Dr","operator":"Menlo Digital","city":"Ashburn","state":"VA","status":"Active"},"geometry":{"type":"Point","coordinates":[-77.485975,39.003889]}},{"type":"Feature","properties":{"name":"Menlo Digital - MD-DC2","operator":"Menlo Digital","city":"Sterling","state":"VA","status":"Active"},"geometry":{"type":"Point","coordinates":[-77.444082,39.00038]}},{"type":"Feature","properties":{"name":"Menlo Digital MD-DC1 (Herndon)","operator":"Menlo Digital","city":"Herndon","state":"VA","status":"Active"},"geometry":{"type":"Point","coordinates":[-77.42365,38.928056]}},{"type":"Feature","properties":{"name":"Microsoft - 13490 University Blvd","operator":"Microsoft","city":"Gainesville","state":"VA","status":"Active"},"geometry":{"type":"Point","coordinates":[-77.589155,38.794202]}},{"type":"Feature","properties":{"name":"Microsoft - 23540 Pebble Run Pl","operator":"Microsoft","city":"Sterling","state":"VA","status":"Active"},"geometry":{"type":"Point","coordinates":[-77.501576,38.964926]}},{"type":"Feature","properties":{"name":"Microsoft Balls Ford Road Campus","operator":"Microsoft","city":"Manassas","state":"VA","status":"Active"},"geometry":{"type":"Point","coordinates":[-77.532791,38.796308]}},{"type":"Feature","properties":{"name":"NetEx NDC01","operator":"NetEx Inc.","city":"Vienna","state":"VA","status":"Active"},"geometry":{"type":"Point","coordinates":[-77.238966,38.931469]}},{"type":"Feature","properties":{"name":"NTT DATA GDC - Ashburn VA1","operator":"NTT DATA, Inc.","city":"Ashburn","state":"VA","status":"Active"},"geometry":{"type":"Point","coordinates":[-77.4559,39.021905]}},{"type":"Feature","properties":{"name":"NTT DATA GDC - Ashburn VA2","operator":"NTT DATA, Inc.","city":"Ashburn","state":"VA","status":"Active"},"geometry":{"type":"Point","coordinates":[-77.45704,39.023385]}},{"type":"Feature","properties":{"name":"PointOne - 45449 E Severn Way","operator":"PointOne","city":"Sterling","state":"VA","status":"Active"},"geometry":{"type":"Point","coordinates":[-77.426677,39.02068]}},{"type":"Feature","properties":{"name":"PowerHouse Data Centers - Quantum Connect","operator":"PowerHouse Data Centers","city":"Ashburn","state":"VA","status":"Active"},"geometry":{"type":"Point","coordinates":[-77.471196,39.008127]}},{"type":"Feature","properties":{"name":"PowerHouse Pacific Campus","operator":"PowerHouse Data Centers","city":"Sterling","state":"VA","status":"Active"},"geometry":{"type":"Point","coordinates":[-77.447521,39.007059]}},{"type":"Feature","properties":{"name":"Prologis - 22650-22660 Executive Dr","operator":"Prologis","city":"Sterling","state":"VA","status":"Active"},"geometry":{"type":"Point","coordinates":[-77.444612,38.987921]}},{"type":"Feature","properties":{"name":"QTS - Ashburn 1 DC1","operator":"QTS Data Centers","city":"Sterling","state":"VA","status":"Active"},"geometry":{"type":"Point","coordinates":[-77.448517,39.000406]}},{"type":"Feature","properties":{"name":"QTS Ashburn 3 Campus","operator":"QTS Data Centers","city":"Ashburn","state":"VA","status":"Active"},"geometry":{"type":"Point","coordinates":[-77.47716,39.001833]}},{"type":"Feature","properties":{"name":"QTS Manassas DC5","operator":"QTS Data Centers","city":"Manassas","state":"VA","status":"Active"},"geometry":{"type":"Point","coordinates":[-77.519172,38.75666]}},{"type":"Feature","properties":{"name":"Rackspace Hosting - Ashburn","operator":"Rackspace Hosting","city":"Ashburn","state":"VA","status":"Active"},"geometry":{"type":"Point","coordinates":[-77.461881,39.021787]}},{"type":"Feature","properties":{"name":"SDC Ashburn Campus","operator":"Sabey Data Center Properties LLC","city":"Ashburn","state":"VA","status":"Active"},"geometry":{"type":"Point","coordinates":[-77.47685,39.015532]}},{"type":"Feature","properties":{"name":"SDC Capital Partners - 42277 Cochran Mill Rd","operator":"SDC Capital Partners","city":"Leesburg","state":"VA","status":"Active"},"geometry":{"type":"Point","coordinates":[-77.521102,39.074598]}},{"type":"Feature","properties":{"name":"Skybox Datacenters - Nova One","operator":"Skybox Datacenters","city":"Sterling","state":"VA","status":"Active"},"geometry":{"type":"Point","coordinates":[-77.448657,38.988673]}},{"type":"Feature","properties":{"name":"STACK - NVA02F","operator":"STACK Infrastructure","city":"Manassas","state":"VA","status":"Active"},"geometry":{"type":"Point","coordinates":[-77.535857,38.749648]}},{"type":"Feature","properties":{"name":"STACK - NVA02G","operator":"STACK Infrastructure","city":"Manassas","state":"VA","status":"Active"},"geometry":{"type":"Point","coordinates":[-77.535827,38.749993]}},{"type":"Feature","properties":{"name":"STACK INFRASTRUCTURE - NVA01A","operator":"STACK Infrastructure","city":"Sterling","state":"VA","status":"Active"},"geometry":{"type":"Point","coordinates":[-77.44363,39.005136]}},{"type":"Feature","properties":{"name":"STACK INFRASTRUCTURE - NVA06A","operator":"STACK Infrastructure","city":"Leesburg","state":"VA","status":"Active"},"geometry":{"type":"Point","coordinates":[-77.563422,39.084298]}},{"type":"Feature","properties":{"name":"STACK NVA05A/B Campus","operator":"STACK Infrastructure","city":"Manassas","state":"VA","status":"Active"},"geometry":{"type":"Point","coordinates":[-77.51771,38.758811]}},{"type":"Feature","properties":{"name":"STACK NVA05C/D Campus","operator":"STACK Infrastructure","city":"Manassas","state":"VA","status":"Active"},"geometry":{"type":"Point","coordinates":[-77.51832,38.764286]}},{"type":"Feature","properties":{"name":"Summit (formerly Deft) - Ashburn","operator":"Summit Digital","city":"Ashburn","state":"VA","status":"Active"},"geometry":{"type":"Point","coordinates":[-77.48532,39.003657]}},{"type":"Feature","properties":{"name":"T5 Data Centers - T5@Dulles","operator":"T5 Data Centers","city":"Chantilly","state":"VA","status":"Active"},"geometry":{"type":"Point","coordinates":[-77.455411,38.876347]}},{"type":"Feature","properties":{"name":"TA Realty - 45564 Thayer Rd","operator":"TA Realty","city":"Sterling","state":"VA","status":"Active"},"geometry":{"type":"Point","coordinates":[-77.424119,39.025513]}},{"type":"Feature","properties":{"name":"The BlackChamber Group - Tech Park at Brambleton","operator":"The BlackChamber Group","city":"Ashburn","state":"VA","status":"Active"},"geometry":{"type":"Point","coordinates":[-77.538418,38.957181]}},{"type":"Feature","properties":{"name":"Uniti Wholesale - Ashburn","operator":"Uniti Wholesale","city":"Ashburn","state":"VA","status":"Active"},"geometry":{"type":"Point","coordinates":[-77.473452,39.013832]}},{"type":"Feature","properties":{"name":"Uniti Wholesale - Sterling","operator":"Uniti Wholesale","city":"Sterling","state":"VA","status":"Active"},"geometry":{"type":"Point","coordinates":[-77.392861,39.023727]}},{"type":"Feature","properties":{"name":"Vantage Ashburn II Campus (Glenn Drive)","operator":"Vantage Data Centers","city":"Sterling","state":"VA","status":"Active"},"geometry":{"type":"Point","coordinates":[-77.428123,38.997758]}},{"type":"Feature","properties":{"name":"Vantage Data Centers - VA3 - Ashburn III Campus","operator":"Vantage Data Centers","city":"Ashburn","state":"VA","status":"Active"},"geometry":{"type":"Point","coordinates":[-77.50702,39.07013]}},{"type":"Feature","properties":{"name":"VAZATA NoVA I","operator":"VAZATA","city":"Manassas","state":"VA","status":"Active"},"geometry":{"type":"Point","coordinates":[-77.533563,38.746361]}},{"type":"Feature","properties":{"name":"Verizon Manassas","operator":"Verizon Communications Inc.","city":"Manassas","state":"VA","status":"Active"},"geometry":{"type":"Point","coordinates":[-77.510919,38.803943]}}]}