{"type":"FeatureCollection","features":[{"type":"Feature","properties":{"huc10":"0208010302","name":"Carter Run-Rappahannock River"},"geometry":{"type":"Polygon","coordinates":[[[-77.8887,38.8663],[-77.8951,38.8715],[-77.8993,38.8675],[-77.8993,38.8635],[-77.9105,38.865],[-77.9165,38.8588],[-77.9226,38.8602],[-77.9276,38.8547],[-77.9396,38.8581],[-77.9398,38.8555],[-77.9326,38.8514],[-77.9282,38.8454],[-77.9208,38.843],[-77.9212,38.8363],[-77.9293,38.836],[-77.934,38.8251],[-77.9329,38.8223],[-77.9372,38.8176],[-77.9318,38.8086],[-77.9337,38.8034],[-77.9459,38.8018],[-77.9512,38.7975],[-77.9472,38.7846],[-77.9537,38.7722],[-77.9529,38.7679],[-77.9612,38.7583],[-77.9596,38.7422],[-77.9738,38.7277],[-77.9883,38.7205],[-77.9918,38.7123],[-77.9978,38.7111],[-78.0008,38.7058],[-78.0045,38.706],[-78.007,38.7017],[-78.0103,38.7009],[-78.0137,38.6923],[-78.0131,38.6863],[-78.0009,38.6774],[-78.0002,38.6664],[-77.9881,38.6719],[-77.972,38.6727],[-77.9653,38.6767],[-77.9591,38.6758],[-77.9599,38.664],[-77.947,38.6649],[-77.9313,38.6484],[-77.9268,38.6465],[-77.9219,38.6481],[-77.9139,38.6367],[-77.9155,38.6322],[-77.91,38.6291],[-77.9091,38.6245],[-77.8993,38.6206],[-77.9025,38.6143],[-77.9006,38.6081],[-77.8929,38.6035],[-77.8953,38.597],[-77.8996,38.5937],[-77.8968,38.5883],[-77.8982,38.5838],[-77.8938,38.5799],[-77.8947,38.5778],[-77.8814,38.5717],[-77.8728,38.5719],[-77.8695,38.5699],[-77.8637,38.5581],[-77.8595,38.5581],[-77.8478,38.5513],[-77.8403,38.5538],[-77.8335,38.5614],[-77.8323,38.5672],[-77.8352,38.5784],[-77.8438,38.5925],[-77.8423,38.5975],[-77.8488,38.6042],[-77.8467,38.6064],[-77.8475,38.6097],[-77.8406,38.6121],[-77.8375,38.611],[-77.8353,38.6135],[-77.8363,38.6214],[-77.8226,38.6294],[-77.8216,38.6337],[-77.8156,38.6335],[-77.8155,38.6359],[-77.8119,38.6367],[-77.8082,38.6425],[-77.8023,38.646],[-77.8009,38.6589],[-77.8033,38.6635],[-77.8014,38.6665],[-77.8066,38.6783],[-77.804,38.6781],[-77.8037,38.6829],[-77.81,38.7042],[-77.8006,38.7079],[-77.7953,38.7138],[-77.7984,38.7171],[-77.7978,38.7206],[-77.8131,38.7248],[-77.8137,38.7287],[-77.8249,38.7288],[-77.8358,38.7337],[-77.8308,38.763],[-77.8351,38.7736],[-77.8405,38.777],[-77.8462,38.7865],[-77.8388,38.7925],[-77.8448,38.8077],[-77.8365,38.8109],[-77.8317,38.8158],[-77.8178,38.817],[-77.8126,38.8308],[-77.8214,38.8338],[-77.8254,38.841],[-77.8285,38.8418],[-77.8285,38.8473],[-77.8464,38.8602],[-77.8498,38.8651],[-77.8558,38.8655],[-77.8603,38.8595],[-77.8696,38.8585],[-77.8772,38.8651],[-77.8887,38.8663]]]}},{"type":"Feature","properties":{"huc10":"0207000703","name":"Bullskin Run-Shenandoah River"},"geometry":{"type":"Polygon","coordinates":[[[-77.8682,39.3369],[-77.8679,39.3397],[-77.8884,39.3464],[-77.8923,39.3378],[-77.8988,39.3369],[-77.9068,39.3302],[-77.9132,39.3122],[-77.917,39.3078],[-77.9268,39.3052],[-77.9347,39.2951],[-77.9402,39.2773],[-77.9488,39.2607],[-77.9598,39.2542],[-77.9588,39.2484],[-77.9636,39.243],[-77.962,39.2394],[-77.9638,39.2365],[-77.973,39.2342],[-77.9832,39.2156],[-77.976,39.2144],[-77.9747,39.2122],[-77.9653,39.2118],[-77.9623,39.2151],[-77.9558,39.2157],[-77.9539,39.2204],[-77.9481,39.2249],[-77.9441,39.2255],[-77.9399,39.2216],[-77.9346,39.2208],[-77.9215,39.223],[-77.9121,39.2285],[-77.9063,39.2189],[-77.8987,39.2197],[-77.8903,39.2086],[-77.8847,39.2119],[-77.8782,39.2118],[-77.8724,39.2055],[-77.8529,39.195],[-77.8534,39.1907],[-77.849,39.1886],[-77.8523,39.1863],[-77.8517,39.1838],[-77.848,39.1792],[-77.8374,39.1764],[-77.8335,39.1795],[-77.828,39.1737],[-77.8167,39.1702],[-77.8139,39.1678],[-77.8139,39.1641],[-77.8051,39.1743],[-77.7935,39.2103],[-77.7813,39.2281],[-77.7714,39.2367],[-77.7672,39.2494],[-77.771,39.2493],[-77.7703,39.2558],[-77.7626,39.2586],[-77.7613,39.2637],[-77.7577,39.2649],[-77.758,39.2718],[-77.7532,39.2767],[-77.7488,39.2927],[-77.7351,39.3124],[-77.7287,39.3163],[-77.7268,39.3218],[-77.7482,39.3258],[-77.7564,39.3225],[-77.7609,39.3236],[-77.7684,39.3139],[-77.7739,39.3139],[-77.7805,39.3158],[-77.7785,39.3253],[-77.7846,39.3282],[-77.7877,39.3236],[-77.7963,39.3244],[-77.8091,39.3297],[-77.8112,39.3242],[-77.8205,39.321],[-77.8355,39.3244],[-77.8455,39.3208],[-77.8461,39.3267],[-77.8486,39.329],[-77.8693,39.3334],[-77.8682,39.3369]]]}},{"type":"Feature","properties":{"huc10":"0207000806","name":"North Fork Goose Creek"},"geometry":{"type":"Polygon","coordinates":[[[-77.8081,39.1667],[-77.8134,39.1648],[-77.8214,39.1524],[-77.8223,39.1398],[-77.8282,39.1323],[-77.839,39.1216],[-77.8462,39.1184],[-77.8546,39.0952],[-77.8618,39.0832],[-77.8626,39.0804],[-77.8597,39.0762],[-77.8634,39.0674],[-77.8595,39.0484],[-77.8642,39.0449],[-77.8594,39.0359],[-77.8631,39.0229],[-77.8468,39.0153],[-77.8316,39.016],[-77.8279,39.0099],[-77.8201,39.0055],[-77.8176,39.0078],[-77.8128,39.0075],[-77.7987,38.9993],[-77.7965,39.0017],[-77.7901,39.0007],[-77.7892,39.0041],[-77.7825,39.008],[-77.7814,39.0117],[-77.7737,39.0188],[-77.7568,39.0164],[-77.7517,39.021],[-77.7472,39.0217],[-77.7358,39.0207],[-77.7305,39.0177],[-77.7257,39.0192],[-77.7212,39.0259],[-77.7106,39.0227],[-77.7094,39.0272],[-77.7025,39.0284],[-77.7018,39.0309],[-77.6869,39.0327],[-77.6822,39.0383],[-77.6607,39.0359],[-77.6589,39.0383],[-77.654,39.0357],[-77.6483,39.0379],[-77.6485,39.0485],[-77.643,39.0557],[-77.6492,39.07],[-77.6556,39.0732],[-77.6553,39.0765],[-77.6508,39.0802],[-77.6534,39.0879],[-77.652,39.0945],[-77.6421,39.0991],[-77.6309,39.1094],[-77.6298,39.1109],[-77.6327,39.1129],[-77.6292,39.1179],[-77.6316,39.1205],[-77.6267,39.1245],[-77.6234,39.1316],[-77.6298,39.1315],[-77.636,39.1352],[-77.6426,39.1326],[-77.645,39.1288],[-77.6588,39.134],[-77.6602,39.1319],[-77.668,39.1336],[-77.6706,39.1318],[-77.6728,39.1325],[-77.6736,39.137],[-77.6832,39.1404],[-77.6875,39.1445],[-77.6943,39.1445],[-77.6948,39.1422],[-77.7064,39.1381],[-77.7074,39.1349],[-77.7309,39.1405],[-77.7357,39.1452],[-77.7521,39.1428],[-77.7527,39.1506],[-77.7577,39.1533],[-77.7607,39.1583],[-77.7735,39.1613],[-77.7866,39.1595],[-77.7933,39.1646],[-77.8081,39.1667]]]}},{"type":"Feature","properties":{"huc10":"0207000702","name":"Long Marsh Run-Shenandoah River"},"geometry":{"type":"Polygon","coordinates":[[[-77.9107,39.2272],[-77.9132,39.2286],[-77.9215,39.223],[-77.9346,39.2208],[-77.9399,39.2216],[-77.9441,39.2255],[-77.9481,39.2249],[-77.9539,39.2204],[-77.9558,39.2157],[-77.9623,39.2151],[-77.9653,39.2118],[-77.9747,39.2122],[-77.976,39.2144],[-77.9832,39.2156],[-77.9852,39.2099],[-77.9913,39.2089],[-78.0027,39.1893],[-77.9984,39.1868],[-77.9982,39.181],[-77.9945,39.1777],[-77.9977,39.1712],[-77.9945,39.1683],[-77.9962,39.1598],[-78.0082,39.1595],[-78.0202,39.1557],[-78.025,39.1508],[-78.0315,39.151],[-78.0381,39.1459],[-78.0374,39.1364],[-78.0334,39.1338],[-78.0359,39.131],[-78.0287,39.1265],[-78.0338,39.1181],[-78.0291,39.1122],[-78.0323,39.1026],[-78.0359,39.1013],[-78.0359,39.0861],[-78.029,39.0825],[-78.0164,39.0832],[-78.0167,39.0779],[-78.009,39.0708],[-77.9924,39.0745],[-77.9897,39.0771],[-77.9844,39.077],[-77.9817,39.0733],[-77.9736,39.073],[-77.9681,39.0638],[-77.9713,39.0532],[-77.9577,39.0471],[-77.9535,39.0382],[-77.935,39.0281],[-77.9277,39.0321],[-77.9264,39.0355],[-77.908,39.0446],[-77.898,39.054],[-77.894,39.0542],[-77.8768,39.0787],[-77.8625,39.081],[-77.8546,39.0952],[-77.8462,39.1184],[-77.839,39.1216],[-77.8223,39.1398],[-77.8216,39.1522],[-77.8139,39.1641],[-77.8139,39.1678],[-77.8167,39.1702],[-77.828,39.1737],[-77.8335,39.1795],[-77.8374,39.1764],[-77.848,39.1792],[-77.8517,39.1838],[-77.8523,39.1863],[-77.849,39.1886],[-77.8534,39.1907],[-77.8529,39.195],[-77.8724,39.2055],[-77.8782,39.2118],[-77.8847,39.2119],[-77.8903,39.2086],[-77.8987,39.2197],[-77.9063,39.2189],[-77.9107,39.2272]]]}},{"type":"Feature","properties":{"huc10":"0206000601","name":"Headwaters Patuxent River"},"geometry":{"type":"Polygon","coordinates":[[[-77.0791,39.3523],[-77.0814,39.3537],[-77.0883,39.3517],[-77.0928,39.3477],[-77.0934,39.3422],[-77.0971,39.3375],[-77.1028,39.3374],[-77.1068,39.3346],[-77.1077,39.3382],[-77.1337,39.3482],[-77.1381,39.3465],[-77.141,39.3411],[-77.1486,39.3389],[-77.1528,39.3396],[-77.1584,39.3462],[-77.169,39.3438],[-77.175,39.3502],[-77.18,39.3505],[-77.1935,39.3419],[-77.1943,39.334],[-77.2007,39.3309],[-77.2029,39.3262],[-77.1969,39.3166],[-77.1986,39.3112],[-77.1973,39.3026],[-77.2043,39.298],[-77.2054,39.289],[-77.1895,39.2827],[-77.1825,39.2847],[-77.179,39.2816],[-77.1556,39.2751],[-77.1485,39.2638],[-77.1495,39.2597],[-77.1431,39.2543],[-77.1454,39.2486],[-77.1436,39.2388],[-77.1377,39.2334],[-77.1426,39.2229],[-77.1417,39.2089],[-77.138,39.2065],[-77.1398,39.2036],[-77.132,39.1977],[-77.1265,39.1968],[-77.1156,39.1853],[-77.0995,39.1835],[-77.0996,39.1785],[-77.094,39.1718],[-77.0859,39.1725],[-77.0823,39.1637],[-77.0762,39.1624],[-77.0692,39.1564],[-77.0659,39.1431],[-77.0569,39.1414],[-77.0495,39.1451],[-77.0476,39.1423],[-77.0434,39.1422],[-77.0386,39.149],[-77.0341,39.1506],[-77.022,39.1488],[-77.0124,39.1505],[-77.0075,39.1443],[-76.9968,39.142],[-76.9934,39.1389],[-76.9947,39.1356],[-76.9926,39.1308],[-76.9846,39.1215],[-76.9744,39.121],[-76.9589,39.1158],[-76.9536,39.1168],[-76.943,39.1063],[-76.9387,39.107],[-76.9323,39.1131],[-76.9226,39.1101],[-76.9213,39.1044],[-76.9107,39.1064],[-76.9108,39.1104],[-76.896,39.1187],[-76.8784,39.1134],[-76.8731,39.1181],[-76.8728,39.1253],[-76.8695,39.1318],[-76.8916,39.144],[-76.8976,39.1437],[-76.9119,39.1497],[-76.9202,39.1487],[-76.9221,39.1534],[-76.933,39.1606],[-76.9336,39.1637],[-76.9587,39.1749],[-76.9583,39.1798],[-76.9633,39.1855],[-76.9688,39.1853],[-76.972,39.1876],[-76.9759,39.1964],[-76.9737,39.2107],[-76.9764,39.2139],[-76.9742,39.2223],[-76.9826,39.2244],[-76.9827,39.2343],[-76.9898,39.2453],[-76.9842,39.2544],[-76.99,39.2671],[-76.9894,39.271],[-76.9925,39.2779],[-77.0049,39.2806],[-77.0062,39.2858],[-77.0136,39.2873],[-77.0173,39.2908],[-77.0203,39.304],[-77.0247,39.3082],[-77.0193,39.3125],[-77.026,39.3189],[-77.0282,39.3239],[-77.0261,39.3254],[-77.0266,39.3294],[-77.0288,39.3328],[-77.0371,39.339],[-77.0452,39.3391],[-77.0511,39.3448],[-77.0606,39.3486],[-77.0651,39.3468],[-77.0733,39.3527],[-77.0791,39.3523]]]}},{"type":"Feature","properties":{"huc10":"0207001003","name":"Cameron Run-Potomac River"},"geometry":{"type":"Polygon","coordinates":[[[-77.2227,38.9047],[-77.228,38.8983],[-77.2257,38.8972],[-77.2285,38.8879],[-77.2244,38.8751],[-77.2269,38.8697],[-77.2246,38.867],[-77.2266,38.8588],[-77.2241,38.8554],[-77.2028,38.8476],[-77.1999,38.8423],[-77.2019,38.8406],[-77.1918,38.8337],[-77.199,38.8283],[-77.2113,38.8238],[-77.1991,38.7978],[-77.1909,38.7935],[-77.195,38.7903],[-77.1939,38.785],[-77.1814,38.779],[-77.1733,38.7833],[-77.1719,38.7801],[-77.1636,38.7778],[-77.1615,38.7824],[-77.1495,38.7784],[-77.1445,38.7808],[-77.1462,38.7752],[-77.1446,38.7704],[-77.1582,38.769],[-77.1551,38.7668],[-77.1568,38.7583],[-77.1631,38.7557],[-77.1624,38.7527],[-77.1667,38.7508],[-77.1668,38.7464],[-77.1652,38.7426],[-77.1606,38.7411],[-77.1605,38.7349],[-77.1406,38.7182],[-77.1457,38.7094],[-77.1379,38.7032],[-77.1413,38.6934],[-77.1394,38.689],[-77.1296,38.6831],[-77.1296,38.6778],[-77.1324,38.6741],[-77.1136,38.668],[-77.1067,38.6687],[-77.0881,38.6784],[-77.0645,38.6789],[-77.0558,38.6764],[-77.0567,38.668],[-77.0502,38.66],[-77.034,38.6552],[-77.029,38.6598],[-77.0314,38.6652],[-77.0279,38.6698],[-77.0215,38.6713],[-76.979,38.669],[-76.9716,38.6742],[-76.9453,38.6734],[-76.9403,38.6765],[-76.9422,38.6849],[-76.9384,38.6899],[-76.9261,38.6824],[-76.9188,38.6856],[-76.9013,38.687],[-76.8984,38.6894],[-76.8928,38.6858],[-76.8867,38.6864],[-76.8772,38.6827],[-76.8733,38.687],[-76.8689,38.7009],[-76.8605,38.7112],[-76.8549,38.7149],[-76.8427,38.7122],[-76.8298,38.7237],[-76.8292,38.7286],[-76.8319,38.7326],[-76.8222,38.7387],[-76.8172,38.7379],[-76.8119,38.7407],[-76.8111,38.7465],[-76.8052,38.7505],[-76.8109,38.7532],[-76.8106,38.7581],[-76.8177,38.7594],[-76.8208,38.763],[-76.8167,38.7662],[-76.8184,38.7727],[-76.8228,38.7744],[-76.8282,38.7721],[-76.8327,38.7755],[-76.8273,38.786],[-76.8383,38.7901],[-76.8415,38.7954],[-76.8412,38.8034],[-76.8505,38.8052],[-76.8551,38.8095],[-76.8553,38.8158],[-76.8606,38.8188],[-76.8607,38.8251],[-76.858,38.8292],[-76.8619,38.8331],[-76.8633,38.8397],[-76.8811,38.8458],[-76.8869,38.8523],[-76.8984,38.8502],[-76.9035,38.8567],[-76.9029,38.8644],[-76.915,38.864],[-76.9187,38.8712],[-76.9303,38.8739],[-76.9458,38.8712],[-76.951,38.8657],[-76.957,38.8649],[-76.9574,38.8622],[-76.9693,38.8595],[-76.97,38.8528],[-76.9727,38.8507],[-76.9781,38.8529],[-76.9811,38.8507],[-76.9805,38.8467],[-76.9959,38.8451],[-77.0091,38.8381],[-77.0091,38.8444],[-77.0153,38.8451],[-77.0182,38.8506],[-77.0166,38.8547],[-77.0331,38.8549],[-77.0358,38.8581],[-77.0382,38.856],[-77.0384,38.8488],[-77.044,38.8565],[-77.0432,38.8505],[-77.0473,38.85],[-77.0469,38.8571],[-77.0483,38.8529],[-77.0484,38.8558],[-77.0523,38.8575],[-77.0682,38.8552],[-77.0657,38.865],[-77.0749,38.87],[-77.0771,38.8792],[-77.0813,38.8832],[-77.0837,38.8826],[-77.0841,38.8796],[-77.0935,38.8829],[-77.0936,38.8865],[-77.0966,38.8868],[-77.1006,38.8803],[-77.1093,38.8783],[-77.1149,38.8876],[-77.1175,38.8863],[-77.1185,38.8926],[-77.1271,38.8994],[-77.1284,38.895],[-77.1355,38.8953],[-77.1405,38.8982],[-77.1421,38.8966],[-77.1477,38.8996],[-77.1581,38.8999],[-77.1595,38.9027],[-77.1654,38.8996],[-77.1751,38.9036],[-77.1787,38.9007],[-77.1782,38.8976],[-77.1899,38.8973],[-77.1951,38.8947],[-77.1995,38.8965],[-77.2104,38.8916],[-77.2125,38.8968],[-77.217,38.8979],[-77.2227,38.9047]]]}},{"type":"Feature","properties":{"huc10":"0207001001","name":"Rock Creek-Potomac River"},"geometry":{"type":"Polygon","coordinates":[[[-77.132,39.1977],[-77.1398,39.2036],[-77.1444,39.1975],[-77.1493,39.1968],[-77.1514,39.1752],[-77.1552,39.1711],[-77.1553,39.1654],[-77.161,39.1625],[-77.1597,39.1568],[-77.1698,39.1483],[-77.1769,39.138],[-77.1756,39.13],[-77.1788,39.1201],[-77.1748,39.1169],[-77.1613,39.1139],[-77.1588,39.1027],[-77.1529,39.0981],[-77.1537,39.0934],[-77.1489,39.0865],[-77.141,39.0821],[-77.1416,39.0799],[-77.1367,39.075],[-77.1372,39.0716],[-77.1266,39.0677],[-77.1239,39.0618],[-77.1123,39.0506],[-77.1124,39.0461],[-77.1183,39.0463],[-77.1212,39.0425],[-77.1266,39.0317],[-77.1269,39.0229],[-77.1175,39.0156],[-77.1187,39.0103],[-77.115,39.0095],[-77.1082,39.001],[-77.1108,38.9974],[-77.1095,38.9901],[-77.1059,38.9892],[-77.104,38.9859],[-77.0961,38.9882],[-77.0887,38.9776],[-77.0764,38.9773],[-77.0729,38.9749],[-77.0762,38.9684],[-77.0824,38.9632],[-77.0772,38.9577],[-77.0769,38.9519],[-77.0886,38.9339],[-77.0939,38.932],[-77.1118,38.9388],[-77.1146,38.937],[-77.1155,38.9391],[-77.1179,38.937],[-77.1134,38.93],[-77.1165,38.9291],[-77.1242,38.9359],[-77.1272,38.9348],[-77.1326,38.9397],[-77.1358,38.9387],[-77.1387,38.9439],[-77.1492,38.946],[-77.1556,38.9436],[-77.16,38.9445],[-77.1595,38.9467],[-77.175,38.9408],[-77.1755,38.9375],[-77.1796,38.9344],[-77.1778,38.9311],[-77.1971,38.9299],[-77.2003,38.9221],[-77.2041,38.9198],[-77.2045,38.916],[-77.2114,38.9114],[-77.2113,38.909],[-77.2156,38.9093],[-77.2174,38.9131],[-77.2218,38.9126],[-77.2226,38.904],[-77.217,38.8979],[-77.2125,38.8968],[-77.2104,38.8916],[-77.1995,38.8965],[-77.1951,38.8947],[-77.1899,38.8973],[-77.1782,38.8976],[-77.1787,38.9007],[-77.1751,38.9036],[-77.1654,38.8996],[-77.1595,38.9027],[-77.1581,38.8999],[-77.1477,38.8996],[-77.1421,38.8966],[-77.1405,38.8982],[-77.1355,38.8953],[-77.1284,38.895],[-77.1271,38.8994],[-77.1185,38.8926],[-77.1175,38.8863],[-77.1149,38.8876],[-77.1093,38.8783],[-77.1006,38.8803],[-77.0966,38.8868],[-77.0936,38.8865],[-77.0935,38.8829],[-77.0841,38.8796],[-77.0837,38.8826],[-77.0813,38.8832],[-77.0771,38.8792],[-77.0749,38.87],[-77.0657,38.865],[-77.0682,38.8552],[-77.0523,38.8575],[-77.0484,38.8558],[-77.0483,38.8529],[-77.0469,38.8571],[-77.0473,38.85],[-77.0432,38.8505],[-77.044,38.8565],[-77.0384,38.8488],[-77.0382,38.856],[-77.0358,38.8581],[-77.0331,38.8549],[-77.0166,38.8547],[-77.0144,38.8581],[-77.0184,38.8615],[-77.0174,38.8718],[-77.0115,38.8708],[-77.0058,38.8808],[-76.9984,38.8833],[-76.9986,38.8863],[-76.9959,38.8876],[-76.9984,38.8887],[-76.9979,38.8913],[-77.0007,38.8898],[-77.0017,38.8939],[-76.9857,38.8994],[-76.9857,38.9066],[-76.9786,38.9105],[-76.9851,38.9157],[-76.9927,38.9135],[-76.9808,38.9224],[-76.9833,38.9251],[-76.9869,38.9241],[-76.9901,38.9323],[-76.9982,38.9335],[-77.0008,38.9353],[-77.0003,38.9387],[-77.0087,38.9427],[-77.0044,38.9485],[-77.0077,38.9525],[-77.0063,38.9582],[-77.0144,38.9681],[-77.0146,38.9698],[-77.013,38.9682],[-77.0115,38.9697],[-77.0124,38.9756],[-77.0176,38.9753],[-77.019,38.9779],[-77.0179,38.9752],[-77.0218,38.976],[-77.0222,38.9827],[-77.0264,38.9859],[-77.0246,38.9903],[-77.0266,38.9916],[-77.0269,38.9974],[-77.0346,38.9993],[-77.0395,39.0068],[-77.0432,39.0066],[-77.0427,39.0098],[-77.0461,39.0112],[-77.0436,39.0134],[-77.0453,39.0168],[-77.0428,39.0205],[-77.052,39.025],[-77.0538,39.0285],[-77.0568,39.0279],[-77.049,39.0607],[-77.0603,39.0647],[-77.0626,39.0744],[-77.0603,39.0759],[-77.059,39.0848],[-77.0629,39.0955],[-77.0762,39.0971],[-77.0806,39.1077],[-77.0744,39.1098],[-77.0722,39.1138],[-77.0749,39.1179],[-77.0795,39.1194],[-77.0746,39.1206],[-77.0768,39.1262],[-77.0683,39.1307],[-77.0699,39.1344],[-77.0666,39.1434],[-77.0686,39.1555],[-77.0762,39.1624],[-77.0823,39.1637],[-77.0859,39.1725],[-77.0946,39.1721],[-77.0996,39.1785],[-77.0995,39.1835],[-77.1156,39.1853],[-77.1265,39.1968],[-77.132,39.1977]]]}},{"type":"Feature","properties":{"huc10":"0207000809","name":"Broad Run-Potomac River"},"geometry":{"type":"Polygon","coordinates":[[[-77.4073,39.1344],[-77.4113,39.1412],[-77.416,39.1439],[-77.4205,39.1371],[-77.4289,39.132],[-77.4359,39.1176],[-77.4465,39.1155],[-77.4504,39.1119],[-77.4622,39.118],[-77.4652,39.1129],[-77.4694,39.1109],[-77.4677,39.1025],[-77.4775,39.1013],[-77.4764,39.0957],[-77.4834,39.0975],[-77.4861,39.094],[-77.4933,39.0938],[-77.4941,39.087],[-77.4872,39.0839],[-77.4895,39.0813],[-77.4857,39.0728],[-77.4913,39.0695],[-77.4978,39.0693],[-77.5022,39.0658],[-77.5056,39.067],[-77.5075,39.0604],[-77.5199,39.0553],[-77.5212,39.042],[-77.5273,39.0335],[-77.5282,39.0244],[-77.5188,39.0129],[-77.5203,39.0035],[-77.5248,38.9949],[-77.5415,38.9787],[-77.5482,38.9793],[-77.5522,38.9763],[-77.5539,38.9794],[-77.5622,38.9831],[-77.5683,38.9805],[-77.5716,38.9829],[-77.572,38.9868],[-77.5778,38.9896],[-77.5883,38.9898],[-77.5904,38.9797],[-77.6008,38.973],[-77.6009,38.9668],[-77.5981,38.965],[-77.602,38.9567],[-77.6059,38.9553],[-77.6057,38.9521],[-77.6089,38.9502],[-77.6058,38.9444],[-77.6099,38.9372],[-77.6075,38.9304],[-77.595,38.9256],[-77.5875,38.9275],[-77.5773,38.9239],[-77.5659,38.9269],[-77.5613,38.9244],[-77.552,38.9292],[-77.5445,38.9265],[-77.5341,38.9364],[-77.5223,38.9334],[-77.5193,38.9273],[-77.5121,38.9288],[-77.5106,38.9273],[-77.4962,38.9313],[-77.496,38.9421],[-77.4903,38.9437],[-77.4776,38.9399],[-77.4568,38.9391],[-77.4541,38.9397],[-77.4522,38.9443],[-77.4459,38.9441],[-77.4411,38.9397],[-77.4383,38.9415],[-77.4272,38.9369],[-77.4237,38.9317],[-77.4241,38.9248],[-77.4186,38.9223],[-77.4196,38.9133],[-77.4092,38.9043],[-77.4012,38.9084],[-77.3942,38.9036],[-77.3838,38.9036],[-77.3796,38.9079],[-77.3808,38.9114],[-77.3772,38.9138],[-77.3779,38.9162],[-77.3661,38.9412],[-77.3556,38.9451],[-77.3564,38.9518],[-77.3524,38.9728],[-77.3451,38.985],[-77.3461,38.992],[-77.3417,39.005],[-77.3434,39.014],[-77.3415,39.0201],[-77.3433,39.0224],[-77.34,39.036],[-77.3421,39.0388],[-77.3339,39.0485],[-77.3326,39.0533],[-77.3342,39.0556],[-77.3325,39.0569],[-77.3346,39.0583],[-77.3289,39.0674],[-77.3301,39.0715],[-77.3254,39.0729],[-77.3134,39.0697],[-77.31,39.0788],[-77.3155,39.0807],[-77.33,39.0798],[-77.3412,39.0686],[-77.3476,39.0746],[-77.3498,39.0857],[-77.3692,39.0854],[-77.3786,39.0978],[-77.386,39.1025],[-77.3918,39.1032],[-77.3997,39.1134],[-77.3997,39.1188],[-77.4073,39.1344]]]}},{"type":"Feature","properties":{"huc10":"0207000810","name":"Difficult Run-Potomac River"},"geometry":{"type":"Polygon","coordinates":[[[-77.1792,39.137],[-77.1886,39.1417],[-77.1927,39.138],[-77.1988,39.1368],[-77.215,39.1365],[-77.2435,39.1268],[-77.2486,39.1171],[-77.2592,39.1197],[-77.2655,39.1128],[-77.2733,39.1142],[-77.2798,39.1115],[-77.2854,39.1029],[-77.2915,39.1031],[-77.2968,39.0992],[-77.2974,39.0945],[-77.3021,39.0914],[-77.31,39.0788],[-77.3114,39.0713],[-77.3134,39.0697],[-77.3298,39.072],[-77.3289,39.0674],[-77.3346,39.0583],[-77.3325,39.0569],[-77.3342,39.0556],[-77.3326,39.0533],[-77.3339,39.0485],[-77.3421,39.0388],[-77.34,39.036],[-77.3433,39.0224],[-77.3415,39.0201],[-77.3434,39.014],[-77.3417,39.005],[-77.3461,38.992],[-77.3451,38.985],[-77.3524,38.9728],[-77.3564,38.9518],[-77.3556,38.9451],[-77.3661,38.9412],[-77.3779,38.9162],[-77.3772,38.9138],[-77.3808,38.9114],[-77.3796,38.9079],[-77.3839,38.9051],[-77.3795,38.8959],[-77.3803,38.8921],[-77.3685,38.8789],[-77.3646,38.8683],[-77.3657,38.8626],[-77.3636,38.8609],[-77.3657,38.8542],[-77.3608,38.8492],[-77.3513,38.8481],[-77.3474,38.8434],[-77.3438,38.8432],[-77.3395,38.8474],[-77.3388,38.8516],[-77.3355,38.8517],[-77.3283,38.8572],[-77.3228,38.8646],[-77.3229,38.8679],[-77.3155,38.8735],[-77.3097,38.8733],[-77.3037,38.8804],[-77.2857,38.8836],[-77.2805,38.8899],[-77.2826,38.8937],[-77.2774,38.8987],[-77.2723,38.8982],[-77.2629,38.8921],[-77.2436,38.9024],[-77.2357,38.8984],[-77.228,38.8983],[-77.2229,38.9037],[-77.2218,38.9126],[-77.2174,38.9131],[-77.2158,38.9094],[-77.2115,38.9089],[-77.2114,38.9114],[-77.2044,38.9161],[-77.1971,38.9299],[-77.1778,38.9311],[-77.1796,38.9344],[-77.1755,38.9375],[-77.175,38.9408],[-77.1595,38.9467],[-77.16,38.9445],[-77.1556,38.9436],[-77.1492,38.946],[-77.1387,38.9439],[-77.1358,38.9387],[-77.1326,38.9397],[-77.1272,38.9348],[-77.1242,38.9359],[-77.1177,38.9291],[-77.1134,38.93],[-77.1179,38.937],[-77.1155,38.9391],[-77.1146,38.937],[-77.1118,38.9388],[-77.0934,38.932],[-77.0886,38.9339],[-77.0831,38.9404],[-77.0822,38.9458],[-77.0769,38.952],[-77.0772,38.9577],[-77.0824,38.9632],[-77.0762,38.9684],[-77.0729,38.9749],[-77.0764,38.9773],[-77.0887,38.9776],[-77.0961,38.9882],[-77.104,38.9859],[-77.1096,38.9901],[-77.1108,38.9974],[-77.1082,39.001],[-77.115,39.0095],[-77.1187,39.0103],[-77.1175,39.0156],[-77.1269,39.0228],[-77.1276,39.0263],[-77.1199,39.0446],[-77.115,39.0473],[-77.1124,39.0461],[-77.1123,39.0506],[-77.1239,39.0618],[-77.1266,39.0677],[-77.1372,39.0716],[-77.1367,39.075],[-77.1416,39.0799],[-77.141,39.0821],[-77.1489,39.0865],[-77.1537,39.0934],[-77.1529,39.0981],[-77.1588,39.1027],[-77.1613,39.1139],[-77.1786,39.1193],[-77.1756,39.13],[-77.1792,39.137]]]}},{"type":"Feature","properties":{"huc10":"0207001002","name":"Anacostia River"},"geometry":{"type":"Polygon","coordinates":[[[-77.0315,39.151],[-77.0386,39.149],[-77.0434,39.1422],[-77.0476,39.1423],[-77.0495,39.1451],[-77.0569,39.1414],[-77.0669,39.1435],[-77.0701,39.1331],[-77.0683,39.1305],[-77.0768,39.1262],[-77.0746,39.1206],[-77.0795,39.1195],[-77.0749,39.1179],[-77.0722,39.1138],[-77.0744,39.1098],[-77.0806,39.1077],[-77.0762,39.0971],[-77.0629,39.0955],[-77.059,39.0848],[-77.0603,39.0759],[-77.0626,39.0744],[-77.0603,39.0647],[-77.049,39.0607],[-77.0568,39.0279],[-77.0538,39.0285],[-77.052,39.025],[-77.0428,39.0205],[-77.0453,39.0168],[-77.0436,39.0134],[-77.0461,39.0112],[-77.0427,39.0098],[-77.0432,39.0066],[-77.0395,39.0068],[-77.0346,38.9993],[-77.0269,38.9974],[-77.0266,38.9916],[-77.0246,38.9903],[-77.0264,38.9859],[-77.0222,38.9827],[-77.0218,38.976],[-77.0179,38.9752],[-77.019,38.9779],[-77.0176,38.9753],[-77.0124,38.9756],[-77.0115,38.9697],[-77.013,38.9682],[-77.0146,38.9698],[-77.0144,38.9681],[-77.0063,38.9582],[-77.0077,38.9525],[-77.0044,38.9485],[-77.0087,38.9427],[-77.0003,38.9387],[-77.0008,38.9353],[-76.9982,38.9335],[-76.9901,38.9323],[-76.9869,38.9241],[-76.9833,38.9251],[-76.9808,38.9224],[-76.9927,38.9135],[-76.9851,38.9157],[-76.9786,38.9105],[-76.9857,38.9066],[-76.9857,38.8994],[-77.0017,38.8939],[-77.0007,38.8898],[-76.9979,38.8913],[-76.9984,38.8887],[-76.9959,38.8876],[-76.9986,38.8863],[-76.9984,38.8833],[-77.0058,38.8808],[-77.0115,38.8708],[-77.0174,38.8718],[-77.0184,38.8615],[-77.0144,38.8581],[-77.0182,38.8506],[-77.0153,38.8451],[-77.0091,38.8444],[-77.0091,38.8381],[-76.9959,38.8451],[-76.9805,38.8467],[-76.9811,38.8507],[-76.9781,38.8529],[-76.9727,38.8507],[-76.97,38.8528],[-76.9693,38.8595],[-76.9574,38.8622],[-76.957,38.8649],[-76.951,38.8657],[-76.9458,38.8712],[-76.926,38.8736],[-76.922,38.8705],[-76.9186,38.8711],[-76.9155,38.8642],[-76.91,38.8627],[-76.9075,38.8654],[-76.9022,38.8624],[-76.8921,38.8651],[-76.8916,38.8683],[-76.8837,38.8728],[-76.8804,38.8812],[-76.8771,38.8834],[-76.8765,38.8876],[-76.8786,38.8887],[-76.8766,38.8937],[-76.8797,38.8981],[-76.8707,38.9053],[-76.8565,38.9064],[-76.8569,38.9093],[-76.8534,38.9118],[-76.856,38.917],[-76.8505,38.9188],[-76.8518,38.9206],[-76.8458,38.9245],[-76.8502,38.9292],[-76.8465,38.9315],[-76.8477,38.9363],[-76.855,38.9378],[-76.8555,38.9397],[-76.8552,38.9444],[-76.8511,38.9463],[-76.8541,38.9463],[-76.8571,38.9536],[-76.8604,38.9537],[-76.8604,38.9564],[-76.8649,38.9587],[-76.8636,38.9676],[-76.8598,38.9693],[-76.8613,38.9727],[-76.8584,38.9754],[-76.8654,38.9917],[-76.8553,38.9926],[-76.8504,38.9979],[-76.833,38.9957],[-76.8263,39.0006],[-76.8189,39.001],[-76.8106,39.0055],[-76.8189,39.0145],[-76.814,39.023],[-76.8181,39.0289],[-76.8153,39.0329],[-76.8197,39.0381],[-76.8211,39.045],[-76.8294,39.0501],[-76.8459,39.0531],[-76.8501,39.0562],[-76.8594,39.055],[-76.8687,39.0586],[-76.8713,39.0655],[-76.8773,39.0664],[-76.8835,39.0733],[-76.8821,39.0832],[-76.8971,39.0847],[-76.9088,39.0907],[-76.9109,39.0949],[-76.905,39.0998],[-76.9101,39.1062],[-76.9213,39.1044],[-76.9226,39.1101],[-76.9323,39.1131],[-76.9387,39.107],[-76.943,39.1063],[-76.9536,39.1168],[-76.9589,39.1158],[-76.9744,39.121],[-76.9826,39.1207],[-76.9893,39.1253],[-76.9947,39.1354],[-76.9933,39.1388],[-76.9965,39.1418],[-77.0075,39.1443],[-77.0124,39.1505],[-77.022,39.1488],[-77.0315,39.151]]]}},{"type":"Feature","properties":{"huc10":"0207001008","name":"Occoquan River-Potomac River"},"geometry":{"type":"Polygon","coordinates":[[[-77.3327,38.7837],[-77.3444,38.7835],[-77.3571,38.7783],[-77.3613,38.7793],[-77.3656,38.7706],[-77.3765,38.7667],[-77.3772,38.7618],[-77.3694,38.751],[-77.3723,38.7471],[-77.3693,38.7413],[-77.3716,38.7341],[-77.3686,38.7291],[-77.3722,38.7243],[-77.3816,38.7239],[-77.3841,38.7342],[-77.3872,38.7371],[-77.3958,38.7327],[-77.4021,38.7317],[-77.4086,38.7341],[-77.4128,38.7313],[-77.4271,38.7378],[-77.436,38.7348],[-77.4461,38.7374],[-77.4491,38.7408],[-77.4571,38.739],[-77.4627,38.745],[-77.4628,38.7416],[-77.4683,38.7364],[-77.4695,38.7284],[-77.4759,38.7246],[-77.4749,38.7137],[-77.4784,38.7095],[-77.4736,38.7067],[-77.4758,38.6937],[-77.4798,38.6931],[-77.4826,38.6894],[-77.4891,38.6884],[-77.4847,38.6788],[-77.4792,38.6771],[-77.4771,38.6693],[-77.4709,38.6647],[-77.4709,38.6595],[-77.4619,38.6456],[-77.4571,38.644],[-77.4556,38.6377],[-77.4466,38.6392],[-77.4439,38.6423],[-77.4445,38.6495],[-77.4403,38.6584],[-77.4352,38.6558],[-77.4307,38.6601],[-77.4237,38.6582],[-77.4147,38.6641],[-77.4122,38.6614],[-77.4043,38.6634],[-77.3972,38.6604],[-77.3955,38.655],[-77.3855,38.6498],[-77.3845,38.6422],[-77.3789,38.6364],[-77.3591,38.6321],[-77.3519,38.6354],[-77.3465,38.6289],[-77.346,38.6243],[-77.3418,38.6215],[-77.3356,38.6224],[-77.3294,38.617],[-77.3245,38.6158],[-77.3085,38.6174],[-77.297,38.6043],[-77.2876,38.6001],[-77.2601,38.5969],[-77.2537,38.5923],[-77.2465,38.5926],[-77.2102,38.5677],[-77.1922,38.5838],[-77.1842,38.595],[-77.1733,38.5989],[-77.146,38.6015],[-77.1439,38.6049],[-77.1384,38.6063],[-77.1283,38.6046],[-77.1184,38.6136],[-77.1052,38.6135],[-77.0946,38.6264],[-77.0837,38.6336],[-77.0654,38.6323],[-77.0549,38.6352],[-77.0518,38.6398],[-77.0455,38.6418],[-77.0405,38.6491],[-77.0333,38.6527],[-77.0337,38.6553],[-77.0423,38.6565],[-77.0435,38.6594],[-77.0492,38.6595],[-77.0551,38.6647],[-77.0564,38.6769],[-77.0719,38.6801],[-77.0888,38.6783],[-77.1073,38.6685],[-77.1136,38.668],[-77.1335,38.6743],[-77.1395,38.6681],[-77.1401,38.6612],[-77.1477,38.6584],[-77.1462,38.6528],[-77.1516,38.6528],[-77.1528,38.6553],[-77.1704,38.6628],[-77.1684,38.6656],[-77.1732,38.6721],[-77.1775,38.6731],[-77.1816,38.6685],[-77.1875,38.6685],[-77.1897,38.6735],[-77.2006,38.6752],[-77.2009,38.6793],[-77.2082,38.6803],[-77.2088,38.6857],[-77.2196,38.6921],[-77.2209,38.6972],[-77.2247,38.6988],[-77.2242,38.7025],[-77.228,38.7042],[-77.2255,38.7111],[-77.2397,38.7202],[-77.2453,38.7209],[-77.2497,38.7267],[-77.2536,38.725],[-77.2599,38.7297],[-77.2774,38.7321],[-77.2806,38.738],[-77.2848,38.7382],[-77.286,38.7439],[-77.2895,38.7439],[-77.2934,38.7488],[-77.2965,38.748],[-77.3058,38.7564],[-77.3155,38.7688],[-77.315,38.7721],[-77.3192,38.7777],[-77.3242,38.7756],[-77.327,38.7815],[-77.3327,38.7837]]]}},{"type":"Feature","properties":{"huc10":"0207000808","name":"Seneca Creek"},"geometry":{"type":"Polygon","coordinates":[[[-77.1997,39.286],[-77.2054,39.289],[-77.2106,39.2847],[-77.2133,39.2765],[-77.2217,39.2689],[-77.2181,39.264],[-77.2283,39.2532],[-77.2347,39.2541],[-77.2472,39.2471],[-77.2508,39.2491],[-77.2643,39.2458],[-77.2772,39.2487],[-77.2822,39.2435],[-77.2864,39.2473],[-77.3016,39.2467],[-77.3084,39.2489],[-77.3151,39.2438],[-77.3151,39.2414],[-77.3263,39.2422],[-77.3519,39.2178],[-77.356,39.2176],[-77.3611,39.2125],[-77.3752,39.2064],[-77.3831,39.2002],[-77.3906,39.2025],[-77.4019,39.1931],[-77.4157,39.1742],[-77.4154,39.1688],[-77.4215,39.162],[-77.4217,39.1584],[-77.4159,39.1506],[-77.416,39.1439],[-77.4081,39.1368],[-77.4056,39.1279],[-77.3997,39.1188],[-77.3997,39.1134],[-77.392,39.1034],[-77.386,39.1025],[-77.3786,39.0978],[-77.3692,39.0854],[-77.3498,39.0857],[-77.3476,39.0746],[-77.3409,39.0685],[-77.3346,39.0772],[-77.33,39.0798],[-77.3155,39.0807],[-77.31,39.0788],[-77.3021,39.0914],[-77.2974,39.0945],[-77.2965,39.0994],[-77.2915,39.1031],[-77.2854,39.1029],[-77.2798,39.1115],[-77.2733,39.1142],[-77.2655,39.1128],[-77.2592,39.1197],[-77.2486,39.1171],[-77.2435,39.1268],[-77.2379,39.1272],[-77.2333,39.1313],[-77.227,39.1311],[-77.2123,39.137],[-77.1927,39.138],[-77.1886,39.1417],[-77.1777,39.1363],[-77.1698,39.1483],[-77.1597,39.1568],[-77.161,39.1625],[-77.1553,39.1654],[-77.1552,39.1711],[-77.1511,39.1764],[-77.1494,39.1966],[-77.1444,39.1975],[-77.1382,39.2058],[-77.1417,39.2089],[-77.1426,39.2229],[-77.1377,39.2334],[-77.1435,39.2384],[-77.1454,39.2486],[-77.1431,39.2543],[-77.1495,39.2597],[-77.1485,39.2638],[-77.1551,39.2748],[-77.179,39.2816],[-77.1825,39.2847],[-77.1892,39.2826],[-77.1997,39.286]]]}},{"type":"Feature","properties":{"huc10":"0207001101","name":"Quantico Creek-Potomac River"},"geometry":{"type":"Polygon","coordinates":[[[-76.8235,38.6901],[-76.8401,38.6976],[-76.8453,38.7052],[-76.845,38.7116],[-76.8549,38.7149],[-76.8689,38.7009],[-76.8733,38.687],[-76.8772,38.6827],[-76.8867,38.6864],[-76.8928,38.6858],[-76.8984,38.6894],[-76.9013,38.687],[-76.9188,38.6856],[-76.9261,38.6824],[-76.9384,38.6899],[-76.9422,38.6849],[-76.9403,38.6765],[-76.9453,38.6734],[-76.9716,38.6742],[-76.978,38.669],[-77.0089,38.6697],[-77.0155,38.6724],[-77.0274,38.67],[-77.0315,38.665],[-77.0293,38.6588],[-77.0336,38.6559],[-77.0349,38.6504],[-77.0405,38.6491],[-77.0455,38.6418],[-77.0518,38.6398],[-77.0549,38.6352],[-77.0654,38.6323],[-77.0837,38.6336],[-77.0946,38.6264],[-77.1052,38.6135],[-77.1184,38.6136],[-77.1283,38.6046],[-77.1384,38.6063],[-77.1439,38.6049],[-77.146,38.6015],[-77.1733,38.5989],[-77.1842,38.595],[-77.1922,38.5838],[-77.2102,38.5677],[-77.2465,38.5926],[-77.2537,38.5923],[-77.2601,38.5969],[-77.2876,38.6001],[-77.297,38.6043],[-77.3085,38.6174],[-77.3245,38.6158],[-77.3294,38.617],[-77.3356,38.6224],[-77.3418,38.6215],[-77.346,38.6243],[-77.3465,38.6289],[-77.3519,38.6354],[-77.3591,38.6321],[-77.3789,38.6364],[-77.3845,38.6422],[-77.3849,38.649],[-77.3902,38.6538],[-77.3955,38.655],[-77.3968,38.6602],[-77.4049,38.6636],[-77.4143,38.6619],[-77.4147,38.6641],[-77.4237,38.6582],[-77.4307,38.6601],[-77.437,38.6558],[-77.4403,38.6584],[-77.4445,38.6495],[-77.4442,38.642],[-77.4466,38.6392],[-77.4556,38.6377],[-77.4564,38.6344],[-77.4595,38.6343],[-77.4614,38.6376],[-77.4649,38.6348],[-77.4649,38.622],[-77.4712,38.6148],[-77.4751,38.6151],[-77.4781,38.6114],[-77.4808,38.601],[-77.4902,38.6013],[-77.4899,38.5972],[-77.4995,38.591],[-77.4992,38.5879],[-77.505,38.5796],[-77.4998,38.5753],[-77.495,38.5757],[-77.4877,38.5671],[-77.48,38.5655],[-77.4698,38.5588],[-77.4682,38.5555],[-77.47,38.5534],[-77.4667,38.5477],[-77.4506,38.5338],[-77.4397,38.532],[-77.4319,38.5274],[-77.4266,38.5307],[-77.4152,38.527],[-77.4087,38.53],[-77.4056,38.5243],[-77.3848,38.5106],[-77.3858,38.5021],[-77.3738,38.4954],[-77.3763,38.4934],[-77.3747,38.4887],[-77.3764,38.4864],[-77.3676,38.4767],[-77.3638,38.4686],[-77.3542,38.4641],[-77.3541,38.4592],[-77.3513,38.4566],[-77.3438,38.4567],[-77.3345,38.4527],[-77.3323,38.4469],[-77.3371,38.442],[-77.3272,38.4187],[-77.3292,38.4096],[-77.3237,38.4085],[-77.3157,38.3999],[-77.3105,38.3973],[-77.2608,38.408],[-77.2546,38.4132],[-77.2379,38.4046],[-77.2358,38.406],[-77.2253,38.4021],[-77.2279,38.4113],[-77.2357,38.4215],[-77.2432,38.4193],[-77.2464,38.4211],[-77.2396,38.4294],[-77.2474,38.4374],[-77.2508,38.445],[-77.2451,38.4518],[-77.2471,38.4598],[-77.2406,38.4695],[-77.2417,38.4753],[-77.2331,38.4816],[-77.2314,38.4896],[-77.2215,38.4948],[-77.2183,38.5012],[-77.2107,38.5015],[-77.21,38.4974],[-77.2078,38.4971],[-77.2034,38.5003],[-77.185,38.5014],[-77.1817,38.5087],[-77.1848,38.5124],[-77.1821,38.5227],[-77.1767,38.522],[-77.1672,38.5257],[-77.1611,38.5368],[-77.1614,38.5404],[-77.1506,38.5364],[-77.1442,38.5392],[-77.1435,38.5443],[-77.1391,38.5472],[-77.1297,38.5477],[-77.1296,38.5564],[-77.1262,38.5575],[-77.125,38.5608],[-77.1177,38.5513],[-77.1075,38.5461],[-77.1065,38.5399],[-77.1024,38.5355],[-77.0828,38.5358],[-77.0832,38.5419],[-77.0749,38.545],[-77.0583,38.5422],[-77.0526,38.5452],[-77.0488,38.5433],[-77.0519,38.548],[-77.048,38.5486],[-77.0326,38.562],[-77.0337,38.5641],[-77.0298,38.5716],[-77.0328,38.5754],[-77.0261,38.5853],[-77.0155,38.5884],[-77.0126,38.5852],[-77.0094,38.587],[-77.0081,38.592],[-77.0001,38.5887],[-76.9905,38.5933],[-76.9791,38.5928],[-76.9733,38.6054],[-76.9792,38.6127],[-76.9891,38.6161],[-76.9897,38.6187],[-76.9852,38.6216],[-76.9837,38.6258],[-76.9755,38.6197],[-76.966,38.6165],[-76.9424,38.6179],[-76.9288,38.6065],[-76.9242,38.6056],[-76.9181,38.6103],[-76.915,38.6183],[-76.8897,38.643],[-76.8737,38.6473],[-76.8686,38.6438],[-76.8445,38.6457],[-76.834,38.6582],[-76.8172,38.6635],[-76.8142,38.6676],[-76.8146,38.6734],[-76.8097,38.6782],[-76.8178,38.6904],[-76.8235,38.6901]]]}},{"type":"Feature","properties":{"huc10":"0207000805","name":"Upper Goose Creek"},"geometry":{"type":"Polygon","coordinates":[[[-77.8626,39.0804],[-77.8771,39.0784],[-77.894,39.0542],[-77.898,39.054],[-77.912,39.0419],[-77.9264,39.0355],[-77.9277,39.0321],[-77.9347,39.0285],[-77.9369,39.0226],[-77.9553,39.0207],[-77.9569,39.0157],[-77.9612,39.0147],[-77.9651,39.009],[-77.99,38.9967],[-77.99,38.9934],[-78.0052,38.9783],[-78.0175,38.97],[-78.0173,38.9658],[-78.0273,38.9518],[-78.0344,38.9497],[-78.0398,38.9391],[-78.0616,38.9322],[-78.0647,38.927],[-78.0639,38.9238],[-78.075,38.9119],[-78.0758,38.9083],[-78.0718,38.9025],[-78.0622,38.8999],[-78.0626,38.897],[-78.0558,38.886],[-78.046,38.8867],[-78.038,38.89],[-78.0364,38.8935],[-78.0286,38.8957],[-78.0208,38.8947],[-78.0179,38.8907],[-78.0082,38.8861],[-77.9961,38.8885],[-77.9974,38.883],[-77.9955,38.8807],[-77.9817,38.8796],[-77.9841,38.8739],[-77.9812,38.8701],[-77.9658,38.8684],[-77.9659,38.8513],[-77.9584,38.8484],[-77.959,38.8437],[-77.9523,38.8404],[-77.9511,38.8426],[-77.9572,38.8545],[-77.9509,38.8584],[-77.9446,38.8677],[-77.9395,38.8632],[-77.9421,38.8606],[-77.9396,38.8581],[-77.9279,38.8547],[-77.9226,38.8602],[-77.9165,38.8588],[-77.9105,38.865],[-77.8993,38.8635],[-77.8993,38.8675],[-77.8951,38.8715],[-77.8887,38.8663],[-77.8768,38.8649],[-77.8712,38.8588],[-77.8603,38.8595],[-77.8585,38.8643],[-77.8507,38.8682],[-77.8393,38.8671],[-77.8309,38.8716],[-77.8277,38.8778],[-77.8234,38.8795],[-77.8196,38.8738],[-77.8122,38.8819],[-77.8018,38.8844],[-77.7982,38.8932],[-77.7935,38.8962],[-77.7849,38.912],[-77.783,38.9172],[-77.7853,38.9271],[-77.7815,38.9292],[-77.7741,38.9466],[-77.7514,38.9522],[-77.7413,38.9496],[-77.7381,38.946],[-77.7326,38.9471],[-77.7283,38.9507],[-77.7282,38.9535],[-77.7213,38.9582],[-77.722,38.9605],[-77.7156,38.967],[-77.7143,38.9731],[-77.7062,38.9739],[-77.7027,38.9788],[-77.705,38.9849],[-77.6953,38.9853],[-77.6878,38.9893],[-77.6772,38.9889],[-77.6739,38.9927],[-77.6668,38.9936],[-77.666,38.9986],[-77.6704,39.0117],[-77.6578,39.0152],[-77.6534,39.0108],[-77.6452,39.0138],[-77.6429,39.0169],[-77.6462,39.0255],[-77.6434,39.0298],[-77.6455,39.0303],[-77.6466,39.0375],[-77.6544,39.0357],[-77.6589,39.0383],[-77.6607,39.0359],[-77.6777,39.0389],[-77.6822,39.0383],[-77.6869,39.0327],[-77.7018,39.0309],[-77.7025,39.0284],[-77.7094,39.0272],[-77.7106,39.0227],[-77.7212,39.0259],[-77.7257,39.0192],[-77.7305,39.0177],[-77.7358,39.0207],[-77.7472,39.0217],[-77.7517,39.021],[-77.7568,39.0164],[-77.7746,39.0185],[-77.7825,39.008],[-77.7892,39.0041],[-77.7901,39.0007],[-77.7965,39.0017],[-77.7987,38.9993],[-77.8128,39.0075],[-77.8176,39.0078],[-77.8201,39.0055],[-77.8279,39.0099],[-77.8316,39.016],[-77.8468,39.0153],[-77.8631,39.0229],[-77.8594,39.0359],[-77.8642,39.0449],[-77.8595,39.0484],[-77.8634,39.0674],[-77.8597,39.0762],[-77.8626,39.0804]]]}},{"type":"Feature","properties":{"huc10":"0207000807","name":"Lower Goose Creek"},"geometry":{"type":"Polygon","coordinates":[[[-77.603,39.1373],[-77.6054,39.1412],[-77.6196,39.1372],[-77.6267,39.1245],[-77.6316,39.1205],[-77.6292,39.1179],[-77.6327,39.1129],[-77.6298,39.1109],[-77.6309,39.1094],[-77.6421,39.0991],[-77.652,39.0945],[-77.6534,39.0879],[-77.6508,39.0802],[-77.6558,39.0742],[-77.6493,39.0703],[-77.6483,39.0647],[-77.6451,39.0641],[-77.6438,39.0603],[-77.643,39.0557],[-77.6494,39.0436],[-77.6455,39.0303],[-77.6434,39.0298],[-77.6462,39.0255],[-77.643,39.0201],[-77.6444,39.0144],[-77.6534,39.0108],[-77.6578,39.0152],[-77.6704,39.0117],[-77.666,38.9986],[-77.6668,38.9936],[-77.6739,38.9927],[-77.6772,38.9889],[-77.6878,38.9893],[-77.6953,38.9853],[-77.705,38.9849],[-77.7027,38.9788],[-77.7062,38.9739],[-77.7143,38.9731],[-77.7156,38.967],[-77.722,38.9605],[-77.7213,38.9582],[-77.7282,38.9535],[-77.7283,38.9507],[-77.7326,38.9471],[-77.7381,38.946],[-77.7413,38.9496],[-77.7514,38.9522],[-77.7741,38.9466],[-77.7815,38.9292],[-77.7853,38.9271],[-77.783,38.9172],[-77.7903,38.901],[-77.7982,38.8932],[-77.8018,38.8844],[-77.8103,38.8829],[-77.8192,38.8753],[-77.8192,38.872],[-77.814,38.8702],[-77.8136,38.8664],[-77.8094,38.8666],[-77.8073,38.8631],[-77.7986,38.8667],[-77.791,38.8667],[-77.7838,38.8628],[-77.7764,38.8631],[-77.772,38.8595],[-77.7696,38.865],[-77.7613,38.8731],[-77.756,38.8746],[-77.7427,38.8921],[-77.7311,38.8926],[-77.7287,38.889],[-77.7246,38.889],[-77.7195,38.8908],[-77.7143,38.8989],[-77.7034,38.9005],[-77.6952,38.8958],[-77.6886,38.8946],[-77.6875,38.897],[-77.6804,38.8934],[-77.6655,38.9164],[-77.6638,38.9269],[-77.6576,38.9346],[-77.6547,38.9449],[-77.6509,38.9464],[-77.6442,38.9587],[-77.6417,38.9592],[-77.642,38.9561],[-77.6372,38.954],[-77.6325,38.9452],[-77.6218,38.9443],[-77.6175,38.9417],[-77.6146,38.9446],[-77.6082,38.9437],[-77.6058,38.9444],[-77.6089,38.9502],[-77.6057,38.9521],[-77.6059,38.9553],[-77.602,38.9567],[-77.5981,38.965],[-77.6009,38.9668],[-77.6008,38.973],[-77.5904,38.9797],[-77.5883,38.9898],[-77.5778,38.9896],[-77.572,38.9868],[-77.5716,38.9829],[-77.5683,38.9805],[-77.5622,38.9831],[-77.5539,38.9794],[-77.5522,38.9763],[-77.5482,38.9793],[-77.5415,38.9787],[-77.5356,38.9829],[-77.5323,38.9896],[-77.5252,38.9944],[-77.5203,39.0035],[-77.5188,39.0129],[-77.5282,39.0244],[-77.5279,39.0294],[-77.5255,39.0385],[-77.5212,39.042],[-77.5199,39.0553],[-77.5075,39.0604],[-77.5056,39.067],[-77.5022,39.0658],[-77.4978,39.0693],[-77.4913,39.0695],[-77.4857,39.0728],[-77.4895,39.0813],[-77.4872,39.0839],[-77.4939,39.0866],[-77.4949,39.0906],[-77.4916,39.0951],[-77.4861,39.094],[-77.484,39.0973],[-77.4764,39.0957],[-77.4775,39.1013],[-77.4886,39.1077],[-77.4976,39.1076],[-77.5046,39.1121],[-77.5069,39.1108],[-77.5231,39.1179],[-77.5304,39.1223],[-77.5361,39.1295],[-77.5619,39.1211],[-77.5695,39.1237],[-77.5739,39.1217],[-77.5827,39.1243],[-77.5848,39.1294],[-77.591,39.1324],[-77.5901,39.1349],[-77.593,39.1369],[-77.5995,39.1371],[-77.6031,39.1346],[-77.603,39.1373]]]}},{"type":"Feature","properties":{"huc10":"0207001004","name":"Pohick Creek"},"geometry":{"type":"Polygon","coordinates":[[[-77.2428,38.9019],[-77.2482,38.8985],[-77.2529,38.8989],[-77.2629,38.8921],[-77.2723,38.8982],[-77.278,38.8984],[-77.2826,38.8937],[-77.2805,38.8899],[-77.2857,38.8836],[-77.3037,38.8804],[-77.3097,38.8733],[-77.3155,38.8735],[-77.3229,38.8679],[-77.3273,38.8581],[-77.3345,38.8533],[-77.3228,38.849],[-77.3205,38.843],[-77.3119,38.8411],[-77.3124,38.8377],[-77.3105,38.8371],[-77.3161,38.8242],[-77.3278,38.8076],[-77.3241,38.8021],[-77.3249,38.7894],[-77.3287,38.7884],[-77.3322,38.7832],[-77.327,38.7815],[-77.3242,38.7756],[-77.3192,38.7777],[-77.315,38.7721],[-77.3155,38.7688],[-77.3058,38.7564],[-77.2965,38.748],[-77.2934,38.7488],[-77.2895,38.7439],[-77.286,38.7439],[-77.2848,38.7382],[-77.2806,38.738],[-77.2774,38.7321],[-77.2599,38.7297],[-77.2536,38.725],[-77.2497,38.7267],[-77.2453,38.7209],[-77.2397,38.7202],[-77.2255,38.7111],[-77.228,38.7042],[-77.2242,38.7025],[-77.2247,38.6988],[-77.2209,38.6972],[-77.2196,38.6921],[-77.2088,38.6857],[-77.2082,38.6803],[-77.2009,38.6793],[-77.2006,38.6752],[-77.1897,38.6735],[-77.1875,38.6685],[-77.1816,38.6685],[-77.1775,38.6731],[-77.1732,38.6721],[-77.1684,38.6656],[-77.1704,38.6628],[-77.1528,38.6553],[-77.1516,38.6528],[-77.1462,38.6528],[-77.1477,38.6584],[-77.1401,38.6612],[-77.1395,38.6681],[-77.1296,38.6778],[-77.1296,38.6831],[-77.1329,38.6864],[-77.1361,38.686],[-77.1413,38.6934],[-77.1379,38.7032],[-77.1457,38.7094],[-77.1407,38.716],[-77.1411,38.7191],[-77.1463,38.7212],[-77.1572,38.7339],[-77.1605,38.7349],[-77.1606,38.7411],[-77.1652,38.7426],[-77.1668,38.7475],[-77.1667,38.7508],[-77.1624,38.7527],[-77.1631,38.7557],[-77.157,38.7579],[-77.1551,38.7668],[-77.1582,38.769],[-77.1446,38.7704],[-77.1462,38.7752],[-77.1445,38.7808],[-77.1495,38.7784],[-77.1615,38.7824],[-77.1636,38.7778],[-77.1719,38.7801],[-77.1733,38.7833],[-77.1814,38.779],[-77.1939,38.785],[-77.195,38.7903],[-77.1909,38.7935],[-77.1991,38.7978],[-77.2113,38.8238],[-77.199,38.8283],[-77.1918,38.8337],[-77.2019,38.8406],[-77.1999,38.8423],[-77.2028,38.8476],[-77.2074,38.8477],[-77.2254,38.8567],[-77.227,38.8628],[-77.2246,38.867],[-77.2269,38.8697],[-77.2244,38.8751],[-77.2285,38.8879],[-77.2257,38.8972],[-77.2428,38.9019]]]}},{"type":"Feature","properties":{"huc10":"0207001005","name":"Broad Run"},"geometry":{"type":"Polygon","coordinates":[[[-77.7004,38.8995],[-77.7136,38.8993],[-77.7195,38.8908],[-77.7276,38.8884],[-77.7311,38.8926],[-77.7427,38.8921],[-77.756,38.8746],[-77.7613,38.8731],[-77.7696,38.865],[-77.772,38.8595],[-77.7764,38.8631],[-77.7838,38.8628],[-77.791,38.8667],[-77.7986,38.8667],[-77.8078,38.8633],[-77.8094,38.8666],[-77.8147,38.8676],[-77.814,38.8702],[-77.8192,38.872],[-77.8234,38.8795],[-77.8277,38.8778],[-77.8294,38.873],[-77.8368,38.868],[-77.8516,38.8676],[-77.8524,38.8659],[-77.8467,38.8626],[-77.8464,38.8602],[-77.8285,38.8473],[-77.8285,38.8418],[-77.8254,38.841],[-77.8214,38.8338],[-77.8125,38.8305],[-77.8178,38.817],[-77.8317,38.8158],[-77.8365,38.8109],[-77.8448,38.8077],[-77.8388,38.7925],[-77.8333,38.7891],[-77.8182,38.7868],[-77.8016,38.794],[-77.7868,38.7945],[-77.781,38.7856],[-77.778,38.7861],[-77.7756,38.7834],[-77.7711,38.7856],[-77.7672,38.7821],[-77.7613,38.7847],[-77.7546,38.7835],[-77.7483,38.7792],[-77.749,38.7769],[-77.7416,38.774],[-77.7422,38.7681],[-77.7328,38.7623],[-77.7309,38.7551],[-77.7272,38.7559],[-77.7287,38.7395],[-77.723,38.7385],[-77.7214,38.7306],[-77.6997,38.7248],[-77.6983,38.7267],[-77.6914,38.7259],[-77.689,38.7199],[-77.6773,38.715],[-77.6783,38.7134],[-77.6746,38.7117],[-77.673,38.7062],[-77.6679,38.7035],[-77.6463,38.7008],[-77.6433,38.6937],[-77.6373,38.6911],[-77.6311,38.6906],[-77.625,38.6943],[-77.6212,38.6905],[-77.6152,38.6915],[-77.6066,38.6883],[-77.598,38.7018],[-77.5947,38.7031],[-77.587,38.6991],[-77.5822,38.7005],[-77.5706,38.6969],[-77.5607,38.6991],[-77.5514,38.6947],[-77.5478,38.6893],[-77.5421,38.6899],[-77.5335,38.684],[-77.5263,38.6881],[-77.5161,38.69],[-77.5057,38.6877],[-77.5008,38.6898],[-77.4943,38.6879],[-77.4826,38.6894],[-77.4798,38.6931],[-77.4758,38.6937],[-77.4736,38.7067],[-77.4784,38.7095],[-77.4749,38.7137],[-77.4759,38.7246],[-77.4695,38.7284],[-77.4683,38.7364],[-77.4628,38.7416],[-77.4615,38.7481],[-77.4657,38.7518],[-77.478,38.7504],[-77.4941,38.7552],[-77.5045,38.7637],[-77.5176,38.7662],[-77.5204,38.7705],[-77.5272,38.7739],[-77.5231,38.7838],[-77.5366,38.7943],[-77.5441,38.7949],[-77.5443,38.7918],[-77.5493,38.7888],[-77.5629,38.7922],[-77.5656,38.7904],[-77.5715,38.7949],[-77.5734,38.7936],[-77.5931,38.799],[-77.5923,38.8028],[-77.5955,38.8022],[-77.5986,38.8052],[-77.6196,38.7959],[-77.6203,38.8014],[-77.6252,38.8085],[-77.6323,38.8091],[-77.6367,38.8136],[-77.6454,38.8167],[-77.6462,38.8216],[-77.6514,38.8195],[-77.6605,38.824],[-77.662,38.8293],[-77.6826,38.8506],[-77.6829,38.8546],[-77.6863,38.8569],[-77.7009,38.8586],[-77.71,38.8631],[-77.7041,38.8717],[-77.7021,38.8893],[-77.6964,38.8967],[-77.7004,38.8995]]]}},{"type":"Feature","properties":{"huc10":"0207001006","name":"Cedar Run"},"geometry":{"type":"Polygon","coordinates":[[[-77.7844,38.7928],[-77.7868,38.7945],[-77.8016,38.794],[-77.8182,38.7868],[-77.8333,38.7891],[-77.8388,38.7925],[-77.8462,38.7882],[-77.843,38.7802],[-77.8351,38.7736],[-77.8308,38.763],[-77.8358,38.7337],[-77.8249,38.7288],[-77.8137,38.7287],[-77.8131,38.7248],[-77.7978,38.7206],[-77.7984,38.7171],[-77.7953,38.7138],[-77.8006,38.7079],[-77.81,38.7042],[-77.8037,38.6829],[-77.804,38.6781],[-77.8066,38.6783],[-77.8014,38.6665],[-77.8033,38.6635],[-77.8009,38.6589],[-77.8015,38.6486],[-77.8115,38.637],[-77.8155,38.6359],[-77.8156,38.6335],[-77.8084,38.6275],[-77.8087,38.6222],[-77.7961,38.6197],[-77.7932,38.6117],[-77.7761,38.6168],[-77.7697,38.6107],[-77.7531,38.6181],[-77.7491,38.6144],[-77.7387,38.6147],[-77.7321,38.6026],[-77.7277,38.6044],[-77.7201,38.5949],[-77.7155,38.5957],[-77.7063,38.5875],[-77.7033,38.5888],[-77.6987,38.5868],[-77.7011,38.5821],[-77.699,38.5764],[-77.6889,38.5679],[-77.6931,38.5628],[-77.6916,38.5561],[-77.6946,38.5506],[-77.6925,38.5467],[-77.6819,38.5434],[-77.6645,38.5248],[-77.6549,38.5296],[-77.6516,38.5357],[-77.6441,38.5334],[-77.6419,38.5349],[-77.6352,38.5316],[-77.6336,38.527],[-77.6259,38.527],[-77.6224,38.5203],[-77.6096,38.5132],[-77.6084,38.5183],[-77.5992,38.5198],[-77.5908,38.5245],[-77.5892,38.528],[-77.5843,38.5256],[-77.5744,38.5292],[-77.5743,38.5335],[-77.5621,38.544],[-77.5367,38.5545],[-77.5306,38.5537],[-77.5264,38.5562],[-77.5325,38.5618],[-77.5278,38.5701],[-77.5168,38.5742],[-77.5151,38.5776],[-77.505,38.5796],[-77.4992,38.5879],[-77.4995,38.591],[-77.4899,38.5972],[-77.4902,38.6013],[-77.4808,38.601],[-77.4781,38.6114],[-77.4751,38.6151],[-77.4712,38.6148],[-77.4647,38.6224],[-77.4649,38.6348],[-77.4614,38.6376],[-77.4595,38.6343],[-77.4564,38.6344],[-77.4571,38.644],[-77.4619,38.6456],[-77.4709,38.6595],[-77.4709,38.6647],[-77.475,38.6664],[-77.4784,38.676],[-77.4847,38.6788],[-77.4907,38.6898],[-77.5057,38.6877],[-77.5161,38.69],[-77.5263,38.6881],[-77.5335,38.684],[-77.5421,38.6899],[-77.5478,38.6893],[-77.5514,38.6947],[-77.5607,38.6991],[-77.5706,38.6969],[-77.5822,38.7005],[-77.587,38.6991],[-77.5947,38.7031],[-77.598,38.7018],[-77.6066,38.6883],[-77.6152,38.6915],[-77.6212,38.6905],[-77.625,38.6943],[-77.6311,38.6906],[-77.6383,38.6914],[-77.6433,38.6937],[-77.6463,38.7008],[-77.6679,38.7035],[-77.673,38.7062],[-77.6746,38.7117],[-77.6783,38.7134],[-77.6773,38.715],[-77.689,38.7199],[-77.6914,38.7259],[-77.6983,38.7267],[-77.6997,38.7248],[-77.7214,38.7306],[-77.723,38.7385],[-77.7287,38.7395],[-77.7272,38.7559],[-77.7309,38.7551],[-77.7328,38.7623],[-77.7422,38.7681],[-77.7422,38.7747],[-77.749,38.7769],[-77.7483,38.7792],[-77.7551,38.7837],[-77.7613,38.7847],[-77.7672,38.7821],[-77.7711,38.7856],[-77.7756,38.7834],[-77.778,38.7861],[-77.781,38.7856],[-77.7844,38.7928]]]}},{"type":"Feature","properties":{"huc10":"0207001007","name":"Bull Run"},"geometry":{"type":"Polygon","coordinates":[[[-77.6297,38.9448],[-77.6335,38.9465],[-77.6372,38.954],[-77.642,38.9561],[-77.6417,38.9592],[-77.6446,38.9583],[-77.6509,38.9464],[-77.6547,38.9449],[-77.6576,38.9346],[-77.6638,38.9269],[-77.6655,38.9164],[-77.6804,38.8934],[-77.6875,38.897],[-77.6886,38.8946],[-77.6964,38.8967],[-77.6985,38.8923],[-77.7007,38.8921],[-77.7041,38.8717],[-77.71,38.8631],[-77.7009,38.8586],[-77.6863,38.8569],[-77.6829,38.8546],[-77.6826,38.8506],[-77.662,38.8293],[-77.6605,38.824],[-77.6514,38.8195],[-77.6462,38.8216],[-77.6454,38.8167],[-77.6367,38.8136],[-77.6323,38.8091],[-77.6252,38.8085],[-77.6203,38.8014],[-77.6196,38.7959],[-77.5986,38.8052],[-77.5955,38.8022],[-77.5923,38.8028],[-77.5931,38.799],[-77.5734,38.7936],[-77.5715,38.7949],[-77.5656,38.7904],[-77.5629,38.7922],[-77.5493,38.7888],[-77.5443,38.7918],[-77.5441,38.7949],[-77.5366,38.7943],[-77.5231,38.7838],[-77.5272,38.7739],[-77.5204,38.7705],[-77.5176,38.7662],[-77.5033,38.7631],[-77.4941,38.7552],[-77.478,38.7504],[-77.4657,38.7518],[-77.4571,38.739],[-77.4491,38.7408],[-77.4461,38.7374],[-77.436,38.7348],[-77.4282,38.7379],[-77.418,38.7353],[-77.4139,38.7315],[-77.4066,38.7342],[-77.4021,38.7317],[-77.3872,38.7371],[-77.3841,38.7342],[-77.3832,38.7254],[-77.3787,38.7234],[-77.3722,38.7243],[-77.3686,38.7291],[-77.3716,38.7341],[-77.3693,38.7413],[-77.3723,38.7471],[-77.3694,38.751],[-77.3772,38.7618],[-77.3765,38.7667],[-77.3656,38.7706],[-77.3613,38.7793],[-77.355,38.7787],[-77.3444,38.7835],[-77.3322,38.7832],[-77.3287,38.7884],[-77.3251,38.7888],[-77.3241,38.8021],[-77.3278,38.8076],[-77.3161,38.8242],[-77.3106,38.8359],[-77.3119,38.8411],[-77.3176,38.8412],[-77.3228,38.849],[-77.3345,38.8533],[-77.3388,38.8516],[-77.3395,38.8474],[-77.3445,38.8431],[-77.3513,38.8481],[-77.3626,38.8505],[-77.3657,38.8542],[-77.3636,38.8609],[-77.3657,38.8626],[-77.3655,38.8715],[-77.3697,38.8815],[-77.3756,38.885],[-77.3803,38.8921],[-77.3814,38.9012],[-77.3845,38.9038],[-77.3942,38.9036],[-77.4012,38.9084],[-77.4092,38.9043],[-77.4109,38.9073],[-77.4177,38.9101],[-77.4172,38.9126],[-77.4196,38.9133],[-77.4186,38.9223],[-77.4241,38.9248],[-77.4237,38.9317],[-77.4272,38.9369],[-77.4383,38.9415],[-77.4411,38.9397],[-77.4459,38.9441],[-77.4522,38.9443],[-77.4541,38.9397],[-77.4568,38.9391],[-77.4776,38.9399],[-77.4903,38.9437],[-77.496,38.9421],[-77.4962,38.9313],[-77.504,38.9285],[-77.5189,38.9271],[-77.5223,38.9334],[-77.5341,38.9364],[-77.5448,38.9264],[-77.552,38.9292],[-77.5603,38.9246],[-77.5659,38.9269],[-77.5789,38.9239],[-77.5875,38.9275],[-77.6,38.9264],[-77.6047,38.9306],[-77.6075,38.9304],[-77.6099,38.9372],[-77.6058,38.9444],[-77.6146,38.9446],[-77.6175,38.9417],[-77.6206,38.9441],[-77.6297,38.9448]]]}},{"type":"Feature","properties":{"huc10":"0207000803","name":"South Fork Catoctin Creek-Catoctin Creek"},"geometry":{"type":"Polygon","coordinates":[[[-77.5849,39.2805],[-77.5885,39.2817],[-77.5982,39.2777],[-77.6089,39.2789],[-77.6179,39.2719],[-77.6353,39.2754],[-77.6398,39.2671],[-77.6387,39.2617],[-77.6416,39.2561],[-77.6537,39.2583],[-77.6632,39.2573],[-77.6657,39.2538],[-77.6746,39.2549],[-77.6774,39.2577],[-77.6894,39.2566],[-77.7066,39.2659],[-77.7071,39.2516],[-77.7159,39.2322],[-77.7244,39.2307],[-77.7326,39.2326],[-77.7346,39.2306],[-77.7477,39.2357],[-77.7486,39.2401],[-77.7538,39.2383],[-77.7612,39.2431],[-77.7684,39.2403],[-77.7813,39.2281],[-77.7935,39.2103],[-77.8051,39.1743],[-77.8116,39.1667],[-77.7938,39.1647],[-77.7866,39.1595],[-77.7735,39.1613],[-77.7607,39.1583],[-77.7577,39.1533],[-77.7527,39.1506],[-77.7521,39.1428],[-77.7357,39.1452],[-77.7309,39.1405],[-77.7074,39.1349],[-77.7064,39.1381],[-77.6948,39.1422],[-77.6943,39.1445],[-77.6875,39.1445],[-77.6832,39.1404],[-77.6736,39.137],[-77.6728,39.1325],[-77.6706,39.1318],[-77.668,39.1336],[-77.6602,39.1319],[-77.6588,39.134],[-77.645,39.1288],[-77.6426,39.1326],[-77.636,39.1352],[-77.6298,39.1315],[-77.6234,39.1316],[-77.6192,39.1375],[-77.6054,39.1412],[-77.6032,39.1498],[-77.6047,39.1507],[-77.5995,39.1634],[-77.594,39.1644],[-77.5896,39.162],[-77.5859,39.1739],[-77.573,39.1856],[-77.575,39.1877],[-77.5719,39.191],[-77.5717,39.2052],[-77.5682,39.2104],[-77.5718,39.2163],[-77.5687,39.2194],[-77.567,39.2352],[-77.561,39.2444],[-77.5612,39.2487],[-77.5526,39.2666],[-77.5531,39.2738],[-77.5509,39.2758],[-77.5583,39.2794],[-77.5617,39.2773],[-77.5849,39.2805]]]}},{"type":"Feature","properties":{"huc10":"0207000804","name":"Tuscarora Creek-Potomac River"},"geometry":{"type":"Polygon","coordinates":[[[-77.5038,39.3667],[-77.5133,39.3731],[-77.5184,39.3679],[-77.5194,39.3622],[-77.5169,39.3553],[-77.5201,39.3534],[-77.5195,39.3466],[-77.5342,39.3087],[-77.5365,39.296],[-77.5427,39.2909],[-77.5439,39.2784],[-77.5531,39.2738],[-77.5526,39.2666],[-77.5612,39.2487],[-77.561,39.2444],[-77.567,39.2352],[-77.5667,39.2255],[-77.5718,39.2163],[-77.5682,39.2104],[-77.5717,39.2052],[-77.5719,39.191],[-77.575,39.1877],[-77.573,39.1856],[-77.5859,39.1739],[-77.5896,39.162],[-77.594,39.1644],[-77.5995,39.1634],[-77.6047,39.1507],[-77.6032,39.1498],[-77.6054,39.1412],[-77.6028,39.1387],[-77.6031,39.1346],[-77.5941,39.1374],[-77.5901,39.1349],[-77.591,39.1324],[-77.5848,39.1294],[-77.5827,39.1243],[-77.5739,39.1217],[-77.5695,39.1237],[-77.5619,39.1211],[-77.5361,39.1295],[-77.5304,39.1223],[-77.5231,39.1179],[-77.5069,39.1108],[-77.5046,39.1121],[-77.4976,39.1076],[-77.4886,39.1077],[-77.4775,39.1013],[-77.4677,39.1025],[-77.4694,39.1109],[-77.4652,39.1129],[-77.4622,39.118],[-77.4504,39.1119],[-77.4465,39.1155],[-77.4359,39.1176],[-77.4289,39.132],[-77.4205,39.1371],[-77.416,39.1437],[-77.4159,39.1506],[-77.4216,39.1579],[-77.4215,39.1619],[-77.4154,39.1688],[-77.4157,39.1742],[-77.4019,39.1931],[-77.3906,39.2025],[-77.3831,39.2002],[-77.3752,39.2064],[-77.3611,39.2125],[-77.356,39.2176],[-77.3519,39.2178],[-77.328,39.2407],[-77.3461,39.2427],[-77.3515,39.2453],[-77.3474,39.2516],[-77.3676,39.2541],[-77.3704,39.2578],[-77.3828,39.2641],[-77.3933,39.2625],[-77.3965,39.2516],[-77.3952,39.2498],[-77.4078,39.2391],[-77.4084,39.2342],[-77.4179,39.2264],[-77.4233,39.2259],[-77.4315,39.2293],[-77.4389,39.2256],[-77.4411,39.2213],[-77.4542,39.2218],[-77.4498,39.231],[-77.4565,39.2427],[-77.4543,39.2509],[-77.4559,39.2562],[-77.4616,39.2563],[-77.4735,39.2628],[-77.47,39.2802],[-77.4646,39.2856],[-77.4646,39.2916],[-77.4615,39.2965],[-77.4659,39.3044],[-77.4614,39.3106],[-77.4613,39.319],[-77.4583,39.3244],[-77.4628,39.3323],[-77.4639,39.3552],[-77.4713,39.3618],[-77.4817,39.3574],[-77.4875,39.3602],[-77.496,39.3602],[-77.5038,39.3667]]]}}]}