{"type":"FeatureCollection","features":[{"type":"Feature","id":118,"geometry":{"type":"Polygon","coordinates":[[[-77.5139,39.6309],[-77.5097,39.6341],[-77.5101,39.6374],[-77.5066,39.6448],[-77.5133,39.6502],[-77.52,39.641],[-77.5262,39.6374],[-77.5267,39.635],[-77.5322,39.6308],[-77.5403,39.6336],[-77.5456,39.6333],[-77.5482,39.6321],[-77.5482,39.6289],[-77.5519,39.6244],[-77.5587,39.6232],[-77.5683,39.6242],[-77.5753,39.6108],[-77.5783,39.5976],[-77.5854,39.5835],[-77.5868,39.572],[-77.5889,39.5678],[-77.5948,39.5629],[-77.5948,39.5531],[-77.5992,39.5493],[-77.597,39.5419],[-77.6032,39.5387],[-77.608,39.5346],[-77.6104,39.5303],[-77.6125,39.5299],[-77.6148,39.5253],[-77.6143,39.5225],[-77.6175,39.5193],[-77.6194,39.5117],[-77.6217,39.5096],[-77.6208,39.5053],[-77.6232,39.4998],[-77.6144,39.4911],[-77.6222,39.4817],[-77.6163,39.4686],[-77.6213,39.4648],[-77.6233,39.4593],[-77.6272,39.4566],[-77.6286,39.4518],[-77.6265,39.4483],[-77.6305,39.4484],[-77.6351,39.4454],[-77.6381,39.4354],[-77.6379,39.425],[-77.64,39.4166],[-77.6568,39.4178],[-77.6675,39.4111],[-77.6763,39.4114],[-77.6843,39.4097],[-77.683,39.3994],[-77.6876,39.3898],[-77.6931,39.3843],[-77.7018,39.3711],[-77.7075,39.3587],[-77.7156,39.3501],[-77.7163,39.342],[-77.7195,39.334],[-77.7244,39.3295],[-77.7287,39.3163],[-77.7351,39.3124],[-77.7481,39.294],[-77.7531,39.2823],[-77.7532,39.2767],[-77.758,39.2718],[-77.7577,39.2649],[-77.7613,39.2637],[-77.7626,39.2586],[-77.7679,39.2578],[-77.7703,39.2558],[-77.771,39.2493],[-77.7672,39.2494],[-77.7714,39.2367],[-77.7781,39.2293],[-77.7813,39.2281],[-77.7864,39.2215],[-77.7861,39.2195],[-77.789,39.2147],[-77.7935,39.2103],[-77.7931,39.2081],[-77.7984,39.1998],[-77.7979,39.1929],[-77.8047,39.1794],[-77.8051,39.1743],[-77.8134,39.1648],[-77.8216,39.1522],[-77.823,39.1456],[-77.8223,39.1398],[-77.839,39.1216],[-77.8462,39.1184],[-77.8482,39.1113],[-77.8538,39.1011],[-77.8546,39.0952],[-77.8625,39.081],[-77.8731,39.0802],[-77.8771,39.0784],[-77.886,39.0679],[-77.894,39.0542],[-77.898,39.054],[-77.9007,39.0505],[-77.9066,39.0479],[-77.9075,39.045],[-77.912,39.0419],[-77.9264,39.0355],[-77.9284,39.0339],[-77.9277,39.0321],[-77.9347,39.0285],[-77.9369,39.0226],[-77.9422,39.0235],[-77.9553,39.0207],[-77.9569,39.0157],[-77.9612,39.0147],[-77.9651,39.009],[-77.9749,39.0028],[-77.9805,39.0026],[-77.9892,38.9973],[-77.9907,38.9958],[-77.99,38.9934],[-78.0012,38.9843],[-78.0052,38.9783],[-78.0175,38.97],[-78.0173,38.9658],[-78.02,38.9641],[-78.0273,38.9518],[-78.029,38.9501],[-78.0344,38.9497],[-78.0375,38.9462],[-78.0398,38.9391],[-78.0494,38.9366],[-78.0558,38.9328],[-78.0616,38.9322],[-78.0647,38.927],[-78.0639,38.9238],[-78.0746,38.9128],[-78.0758,38.9083],[-78.072,38.905],[-78.0715,38.9023],[-78.0622,38.8999],[-78.0626,38.897],[-78.0597,38.8946],[-78.0591,38.8905],[-78.0565,38.8891],[-78.0569,38.8866],[-78.046,38.8867],[-78.0441,38.8886],[-78.038,38.89],[-78.0364,38.8935],[-78.0286,38.8957],[-78.0208,38.8947],[-78.0179,38.8907],[-78.0082,38.8861],[-77.9961,38.8885],[-77.9974,38.883],[-77.9955,38.8807],[-77.9817,38.8796],[-77.9841,38.8739],[-77.9812,38.8701],[-77.9726,38.8677],[-77.9658,38.8684],[-77.9669,38.8633],[-77.9647,38.8564],[-77.9659,38.8513],[-77.9627,38.8488],[-77.9584,38.8484],[-77.959,38.8437],[-77.9523,38.8404],[-77.9511,38.8426],[-77.9572,38.8545],[-77.9509,38.8584],[-77.9446,38.8677],[-77.9395,38.8632],[-77.9421,38.8606],[-77.9396,38.8581],[-77.9279,38.8547],[-77.9226,38.8602],[-77.9165,38.8588],[-77.9116,38.8623],[-77.9105,38.865],[-77.8993,38.8635],[-77.8993,38.8675],[-77.8952,38.8696],[-77.8951,38.8715],[-77.8887,38.8663],[-77.8814,38.8666],[-77.8768,38.8649],[-77.8725,38.8597],[-77.8692,38.8585],[-77.8646,38.8602],[-77.8603,38.8595],[-77.8585,38.8643],[-77.8524,38.8659],[-77.8507,38.8682],[-77.8368,38.868],[-77.8346,38.8709],[-77.8294,38.873],[-77.8277,38.8778],[-77.8234,38.8795],[-77.8204,38.877],[-77.8192,38.872],[-77.814,38.8702],[-77.8147,38.8676],[-77.8094,38.8666],[-77.8078,38.8633],[-77.7986,38.8667],[-77.791,38.8667],[-77.7838,38.8628],[-77.7764,38.8631],[-77.772,38.8595],[-77.7696,38.865],[-77.7613,38.8731],[-77.756,38.8746],[-77.7488,38.8861],[-77.7427,38.8921],[-77.7311,38.8926],[-77.7287,38.889],[-77.7246,38.889],[-77.7225,38.8909],[-77.7195,38.8908],[-77.7143,38.8989],[-77.7034,38.9005],[-77.6965,38.8983],[-77.6952,38.8958],[-77.6886,38.8946],[-77.6875,38.897],[-77.6804,38.8934],[-77.6655,38.9164],[-77.6626,38.9254],[-77.6638,38.9269],[-77.6598,38.9336],[-77.6576,38.9346],[-77.6547,38.9449],[-77.6509,38.9464],[-77.6461,38.9566],[-77.6426,38.9593],[-77.642,38.9561],[-77.6357,38.9522],[-77.6353,38.9489],[-77.6325,38.9452],[-77.6218,38.9443],[-77.6175,38.9417],[-77.6146,38.9446],[-77.6102,38.9434],[-77.6058,38.9444],[-77.6074,38.9394],[-77.6099,38.9372],[-77.6075,38.9304],[-77.6047,38.9306],[-77.6,38.9264],[-77.5891,38.9259],[-77.5875,38.9275],[-77.5801,38.924],[-77.5724,38.9245],[-77.5659,38.9269],[-77.5603,38.9246],[-77.552,38.9292],[-77.5448,38.9264],[-77.5341,38.9364],[-77.5223,38.9334],[-77.5189,38.9271],[-77.5121,38.9288],[-77.5111,38.9273],[-77.504,38.9285],[-77.4962,38.9313],[-77.496,38.9421],[-77.4903,38.9437],[-77.4776,38.9399],[-77.455,38.9393],[-77.4522,38.9443],[-77.4444,38.9437],[-77.4411,38.9397],[-77.4383,38.9415],[-77.4357,38.939],[-77.4272,38.9369],[-77.4237,38.9317],[-77.4249,38.9288],[-77.4241,38.9248],[-77.4186,38.9223],[-77.4188,38.9194],[-77.4176,38.9189],[-77.4196,38.914],[-77.4172,38.9126],[-77.4177,38.9101],[-77.4109,38.9073],[-77.4092,38.9043],[-77.4072,38.9065],[-77.4012,38.9084],[-77.3942,38.9036],[-77.3845,38.9038],[-77.3814,38.9012],[-77.3795,38.8959],[-77.3803,38.8921],[-77.3756,38.885],[-77.3697,38.8815],[-77.3655,38.8715],[-77.3646,38.8678],[-77.3657,38.8626],[-77.3636,38.8609],[-77.3657,38.8542],[-77.3601,38.8487],[-77.3513,38.8481],[-77.3488,38.8468],[-77.3474,38.8434],[-77.3445,38.8431],[-77.3395,38.8474],[-77.3388,38.8516],[-77.3355,38.8517],[-77.3322,38.856],[-77.3273,38.8581],[-77.3244,38.8621],[-77.3246,38.8643],[-77.3228,38.8646],[-77.3229,38.8679],[-77.3155,38.8735],[-77.3097,38.8733],[-77.3037,38.8804],[-77.2857,38.8836],[-77.2841,38.8874],[-77.2805,38.8899],[-77.2826,38.8937],[-77.278,38.8984],[-77.274,38.8972],[-77.2723,38.8982],[-77.2629,38.8921],[-77.2529,38.8989],[-77.2482,38.8985],[-77.2436,38.9024],[-77.2357,38.8984],[-77.2325,38.8994],[-77.228,38.8983],[-77.2229,38.9037],[-77.2208,38.9112],[-77.2218,38.9126],[-77.2187,38.9132],[-77.2183,38.9116],[-77.2174,38.9131],[-77.2158,38.9094],[-77.2115,38.9089],[-77.2114,38.9114],[-77.2044,38.9161],[-77.2041,38.9198],[-77.2003,38.9221],[-77.2,38.9268],[-77.1978,38.927],[-77.1971,38.9299],[-77.1941,38.9309],[-77.1859,38.9294],[-77.1799,38.9318],[-77.1778,38.9311],[-77.1796,38.9344],[-77.1755,38.9375],[-77.175,38.9408],[-77.1718,38.9426],[-77.1643,38.9436],[-77.1595,38.9467],[-77.16,38.9445],[-77.1556,38.9436],[-77.1544,38.9455],[-77.1504,38.9447],[-77.1491,38.946],[-77.1453,38.9438],[-77.1441,38.9455],[-77.1405,38.943],[-77.1391,38.944],[-77.1371,38.943],[-77.1381,38.9411],[-77.1358,38.9387],[-77.1328,38.9398],[-77.1273,38.9349],[-77.1242,38.9359],[-77.1224,38.9349],[-77.1184,38.9318],[-77.1177,38.9291],[-77.1134,38.93],[-77.1147,38.9339],[-77.1179,38.937],[-77.1155,38.9391],[-77.1146,38.937],[-77.1118,38.9388],[-77.0934,38.932],[-77.0886,38.9339],[-77.0831,38.9404],[-77.0814,38.9433],[-77.0822,38.9458],[-77.0769,38.952],[-77.0772,38.9577],[-77.0824,38.9632],[-77.0762,38.9684],[-77.0753,38.9734],[-77.0729,38.9749],[-77.0764,38.9773],[-77.0791,38.9763],[-77.0887,38.9776],[-77.0893,38.9802],[-77.0932,38.9823],[-77.0922,38.985],[-77.0942,38.9853],[-77.0961,38.9882],[-77.104,38.9859],[-77.1059,38.9892],[-77.1095,38.9901],[-77.1088,38.9944],[-77.1108,38.9974],[-77.1079,38.9993],[-77.1082,39.001],[-77.1106,39.0051],[-77.1147,39.0074],[-77.115,39.0095],[-77.1187,39.0103],[-77.1173,39.0116],[-77.1175,39.0156],[-77.1269,39.0228],[-77.1275,39.025],[-77.1268,39.0302],[-77.1251,39.0302],[-77.1265,39.0319],[-77.1238,39.0367],[-77.123,39.0356],[-77.1212,39.0425],[-77.1183,39.0463],[-77.115,39.0473],[-77.1141,39.0456],[-77.1124,39.0461],[-77.1138,39.0494],[-77.1123,39.0506],[-77.1146,39.0513],[-77.1184,39.0573],[-77.1239,39.0618],[-77.1266,39.0677],[-77.1315,39.0709],[-77.1372,39.0716],[-77.1367,39.075],[-77.1416,39.0799],[-77.141,39.0821],[-77.1489,39.0865],[-77.1537,39.0934],[-77.1521,39.0952],[-77.1529,39.0981],[-77.1588,39.1027],[-77.1586,39.1064],[-77.1613,39.1089],[-77.1603,39.1114],[-77.1613,39.1139],[-77.1663,39.1164],[-77.1748,39.1169],[-77.1788,39.1201],[-77.1776,39.1275],[-77.1756,39.13],[-77.1778,39.1357],[-77.1769,39.138],[-77.1698,39.1483],[-77.1625,39.156],[-77.1597,39.1568],[-77.161,39.1625],[-77.1553,39.1654],[-77.1552,39.1711],[-77.1514,39.1752],[-77.1517,39.1848],[-77.1493,39.1968],[-77.1444,39.1975],[-77.138,39.2062],[-77.1417,39.2089],[-77.1426,39.2223],[-77.1377,39.2334],[-77.1435,39.2384],[-77.1454,39.2486],[-77.1431,39.2543],[-77.1495,39.2597],[-77.1485,39.2638],[-77.1551,39.2748],[-77.1651,39.2786],[-77.171,39.2789],[-77.1765,39.2823],[-77.179,39.2816],[-77.1825,39.2847],[-77.1895,39.2827],[-77.2054,39.289],[-77.2106,39.2847],[-77.2104,39.2818],[-77.2133,39.2765],[-77.2175,39.2743],[-77.2216,39.2691],[-77.2181,39.264],[-77.2212,39.2625],[-77.2283,39.2532],[-77.2347,39.2541],[-77.2472,39.2471],[-77.2508,39.2491],[-77.2643,39.2458],[-77.2772,39.2487],[-77.2822,39.2435],[-77.2864,39.2473],[-77.3016,39.2467],[-77.3084,39.2489],[-77.3109,39.2454],[-77.3151,39.2438],[-77.3151,39.2414],[-77.326,39.2423],[-77.3298,39.2403],[-77.3334,39.242],[-77.3461,39.2427],[-77.3513,39.245],[-77.3472,39.2515],[-77.3676,39.2541],[-77.3704,39.2578],[-77.3745,39.2592],[-77.3804,39.264],[-77.3933,39.2625],[-77.3965,39.2516],[-77.3952,39.2498],[-77.4002,39.244],[-77.4078,39.2391],[-77.4069,39.2363],[-77.4084,39.2342],[-77.4151,39.2301],[-77.4179,39.2264],[-77.4233,39.2259],[-77.4315,39.2293],[-77.4324,39.2274],[-77.4389,39.2256],[-77.4385,39.2241],[-77.4411,39.2213],[-77.4544,39.2219],[-77.4498,39.231],[-77.4544,39.2417],[-77.4565,39.2427],[-77.4543,39.2509],[-77.4559,39.2562],[-77.4616,39.2563],[-77.4735,39.2628],[-77.4711,39.2673],[-77.47,39.2802],[-77.4646,39.2856],[-77.4646,39.2916],[-77.4615,39.2965],[-77.4659,39.3044],[-77.4614,39.3106],[-77.4613,39.319],[-77.4583,39.3244],[-77.4594,39.3292],[-77.4628,39.3323],[-77.4639,39.3552],[-77.4713,39.3618],[-77.4744,39.3615],[-77.4809,39.3574],[-77.4875,39.3602],[-77.496,39.3602],[-77.4991,39.3616],[-77.5017,39.3667],[-77.5038,39.3667],[-77.5063,39.37],[-77.5141,39.373],[-77.5144,39.3744],[-77.5122,39.3822],[-77.509,39.384],[-77.5122,39.3873],[-77.5125,39.3933],[-77.509,39.3965],[-77.5039,39.4247],[-77.5,39.4303],[-77.4999,39.4331],[-77.4955,39.4356],[-77.5005,39.439],[-77.5006,39.4511],[-77.4986,39.4587],[-77.4955,39.4625],[-77.4956,39.4687],[-77.4937,39.471],[-77.4925,39.4778],[-77.4926,39.4805],[-77.4993,39.4832],[-77.5007,39.4862],[-77.4982,39.4894],[-77.4981,39.4929],[-77.4997,39.4947],[-77.4987,39.5001],[-77.5015,39.5039],[-77.5014,39.5081],[-77.4986,39.5119],[-77.5003,39.5155],[-77.4973,39.5215],[-77.5013,39.549],[-77.4985,39.5562],[-77.4991,39.5637],[-77.5024,39.5608],[-77.5077,39.5611],[-77.5066,39.5741],[-77.5114,39.5786],[-77.5084,39.5815],[-77.5096,39.5881],[-77.5067,39.5882],[-77.5037,39.5924],[-77.503,39.601],[-77.5074,39.6038],[-77.5011,39.6128],[-77.511,39.6197],[-77.5167,39.6199],[-77.5139,39.6309]]]},"properties":{"objectid":118,"tnmid":"{792C2AD7-54D3-40D2-BAD4-863C12292986}","metasourceid":"{511D2AC8-11BA-45FC-AB98-F69D693D4C44}","sourcedatadesc":"Watershed Boundary Dataset (WBD)","sourceoriginator":"Natural Resources and Conservation Service and U.S. Geological Survey","sourcefeatureid":null,"loaddate":1723803860000,"referencegnis_ids":"597915,1464547","areaacres":792457.32,"areasqkm":3206.96,"states":"DC,MD,VA,WV","huc8":"02070008","name":"Middle Potomac-Catoctin","globalid":"{6FC0D8D8-A8D3-46BB-B840-82B01128BBCA}","shape_Length":542415.1155764936,"shape_Area":5335646511.231075}},{"type":"Feature","id":119,"geometry":{"type":"Polygon","coordinates":[[[-77.132,39.1977],[-77.1398,39.2036],[-77.1444,39.1975],[-77.1493,39.1968],[-77.1517,39.1848],[-77.1514,39.1752],[-77.1552,39.1711],[-77.1553,39.1654],[-77.161,39.1625],[-77.1597,39.1568],[-77.1625,39.156],[-77.1698,39.1483],[-77.1769,39.138],[-77.1778,39.1357],[-77.1756,39.13],[-77.1776,39.1275],[-77.1788,39.1201],[-77.1748,39.1169],[-77.1663,39.1164],[-77.1613,39.1139],[-77.1603,39.1114],[-77.1613,39.1089],[-77.1586,39.1064],[-77.1588,39.1027],[-77.1529,39.0981],[-77.1521,39.0952],[-77.1537,39.0934],[-77.1489,39.0865],[-77.141,39.0821],[-77.1416,39.0799],[-77.1367,39.075],[-77.1372,39.0716],[-77.1315,39.0709],[-77.1266,39.0677],[-77.1239,39.0618],[-77.1184,39.0573],[-77.1146,39.0513],[-77.1123,39.0506],[-77.1138,39.0494],[-77.1124,39.0461],[-77.1141,39.0456],[-77.115,39.0473],[-77.1199,39.0446],[-77.123,39.0356],[-77.1238,39.0367],[-77.1265,39.0319],[-77.1252,39.0301],[-77.1267,39.0303],[-77.1263,39.0273],[-77.1276,39.0263],[-77.1269,39.0228],[-77.1175,39.0156],[-77.1173,39.0116],[-77.1187,39.0103],[-77.115,39.0095],[-77.1147,39.0074],[-77.1106,39.0051],[-77.1082,39.001],[-77.1079,38.9993],[-77.1108,38.9974],[-77.1088,38.9944],[-77.1096,38.9901],[-77.1059,38.9892],[-77.104,38.9859],[-77.0961,38.9882],[-77.0942,38.9853],[-77.0922,38.985],[-77.0932,38.9823],[-77.0893,38.9802],[-77.0887,38.9776],[-77.0791,38.9763],[-77.0764,38.9773],[-77.0729,38.9749],[-77.0753,38.9734],[-77.0762,38.9684],[-77.0824,38.9632],[-77.0772,38.9577],[-77.0769,38.9519],[-77.0803,38.9491],[-77.0822,38.9458],[-77.0814,38.9433],[-77.0886,38.9339],[-77.0939,38.932],[-77.0988,38.9332],[-77.1019,38.9362],[-77.1064,38.9359],[-77.1118,38.9388],[-77.1146,38.937],[-77.1155,38.9391],[-77.1179,38.937],[-77.1147,38.9339],[-77.1134,38.93],[-77.1177,38.9291],[-77.1184,38.9318],[-77.1224,38.9349],[-77.1242,38.9359],[-77.1273,38.9349],[-77.1328,38.9398],[-77.1358,38.9387],[-77.1381,38.9411],[-77.1371,38.943],[-77.1391,38.944],[-77.1405,38.943],[-77.1441,38.9455],[-77.1453,38.9438],[-77.1491,38.946],[-77.1504,38.9447],[-77.1544,38.9455],[-77.1556,38.9436],[-77.16,38.9445],[-77.1595,38.9467],[-77.1643,38.9436],[-77.1718,38.9426],[-77.175,38.9408],[-77.1755,38.9375],[-77.1796,38.9344],[-77.1778,38.9311],[-77.1799,38.9318],[-77.1859,38.9294],[-77.1941,38.9309],[-77.1971,38.9299],[-77.1978,38.927],[-77.2,38.9268],[-77.2003,38.9221],[-77.2041,38.9198],[-77.2044,38.9161],[-77.2114,38.9114],[-77.2115,38.9089],[-77.2158,38.9094],[-77.2174,38.9131],[-77.2183,38.9116],[-77.2187,38.9132],[-77.2218,38.9126],[-77.2208,38.9112],[-77.2229,38.9037],[-77.228,38.8983],[-77.2325,38.8994],[-77.2357,38.8984],[-77.2436,38.9024],[-77.2482,38.8985],[-77.2529,38.8989],[-77.2629,38.8921],[-77.2723,38.8982],[-77.274,38.8972],[-77.278,38.8984],[-77.2826,38.8937],[-77.2805,38.8899],[-77.2841,38.8874],[-77.2857,38.8836],[-77.3037,38.8804],[-77.3097,38.8733],[-77.3155,38.8735],[-77.3229,38.8679],[-77.3228,38.8646],[-77.3246,38.8643],[-77.3244,38.8621],[-77.3273,38.8581],[-77.3322,38.856],[-77.3355,38.8517],[-77.3388,38.8516],[-77.3395,38.8474],[-77.3445,38.8431],[-77.3474,38.8434],[-77.3488,38.8468],[-77.3513,38.8481],[-77.3601,38.8487],[-77.3657,38.8542],[-77.3636,38.8609],[-77.3657,38.8626],[-77.3646,38.8678],[-77.3655,38.8715],[-77.3697,38.8815],[-77.3756,38.885],[-77.3803,38.8921],[-77.3795,38.8959],[-77.3814,38.9012],[-77.3845,38.9038],[-77.3942,38.9036],[-77.4012,38.9084],[-77.4072,38.9065],[-77.4092,38.9043],[-77.4109,38.9073],[-77.4177,38.9101],[-77.4172,38.9126],[-77.4196,38.914],[-77.4176,38.9189],[-77.4188,38.9194],[-77.4186,38.9223],[-77.4241,38.9248],[-77.4249,38.9288],[-77.4237,38.9317],[-77.4272,38.9369],[-77.4357,38.939],[-77.4383,38.9415],[-77.4411,38.9397],[-77.4444,38.9437],[-77.4522,38.9443],[-77.455,38.9393],[-77.4776,38.9399],[-77.4903,38.9437],[-77.496,38.9421],[-77.4962,38.9313],[-77.504,38.9285],[-77.5111,38.9273],[-77.5121,38.9288],[-77.5189,38.9271],[-77.5223,38.9334],[-77.5341,38.9364],[-77.5448,38.9264],[-77.552,38.9292],[-77.5603,38.9246],[-77.5659,38.9269],[-77.5724,38.9245],[-77.5801,38.924],[-77.5875,38.9275],[-77.5891,38.9259],[-77.6,38.9264],[-77.6047,38.9306],[-77.6075,38.9304],[-77.6099,38.9372],[-77.6074,38.9394],[-77.6058,38.9444],[-77.6102,38.9434],[-77.6146,38.9446],[-77.6175,38.9417],[-77.6218,38.9443],[-77.6325,38.9452],[-77.6361,38.9526],[-77.642,38.9561],[-77.6417,38.9592],[-77.6436,38.9591],[-77.6509,38.9464],[-77.6547,38.9449],[-77.6576,38.9346],[-77.6598,38.9336],[-77.6638,38.9269],[-77.6626,38.9254],[-77.6655,38.9164],[-77.6804,38.8934],[-77.6875,38.897],[-77.6886,38.8946],[-77.6952,38.8958],[-77.6965,38.8983],[-77.7034,38.9005],[-77.7143,38.8989],[-77.7195,38.8908],[-77.7225,38.8909],[-77.7246,38.889],[-77.7287,38.889],[-77.7311,38.8926],[-77.7427,38.8921],[-77.7488,38.8861],[-77.756,38.8746],[-77.7613,38.8731],[-77.7696,38.865],[-77.772,38.8595],[-77.7764,38.8631],[-77.7838,38.8628],[-77.791,38.8667],[-77.7986,38.8667],[-77.8078,38.8633],[-77.8094,38.8666],[-77.8147,38.8676],[-77.814,38.8702],[-77.8192,38.872],[-77.8204,38.877],[-77.8234,38.8795],[-77.8277,38.8778],[-77.8294,38.873],[-77.8346,38.8709],[-77.8368,38.868],[-77.8424,38.8671],[-77.8479,38.8686],[-77.8519,38.8671],[-77.8524,38.8659],[-77.8461,38.862],[-77.8464,38.8602],[-77.8388,38.8565],[-77.8369,38.8532],[-77.8285,38.8473],[-77.8285,38.8418],[-77.8254,38.841],[-77.8214,38.8338],[-77.8183,38.8338],[-77.8154,38.8309],[-77.8125,38.8305],[-77.8168,38.8234],[-77.816,38.8194],[-77.8178,38.817],[-77.826,38.8151],[-77.8317,38.8158],[-77.8365,38.8109],[-77.84,38.811],[-77.8448,38.8077],[-77.8429,38.8008],[-77.8397,38.7975],[-77.8388,38.7925],[-77.8456,38.7887],[-77.8462,38.7865],[-77.8405,38.777],[-77.8351,38.7736],[-77.8335,38.7703],[-77.834,38.768],[-77.8308,38.763],[-77.8327,38.759],[-77.8317,38.7554],[-77.8339,38.7502],[-77.8333,38.744],[-77.8355,38.7405],[-77.8358,38.7337],[-77.8317,38.7331],[-77.8306,38.731],[-77.8249,38.7288],[-77.8169,38.7297],[-77.8137,38.7287],[-77.8131,38.7248],[-77.8049,38.7237],[-77.7978,38.7206],[-77.7984,38.7171],[-77.7953,38.7138],[-77.8006,38.7079],[-77.8071,38.7067],[-77.81,38.7042],[-77.8076,38.7008],[-77.8075,38.6931],[-77.8037,38.6829],[-77.804,38.6781],[-77.8066,38.6783],[-77.8022,38.6702],[-77.8013,38.6656],[-77.8033,38.6626],[-77.8009,38.6589],[-77.8025,38.6457],[-77.8082,38.6425],[-77.8119,38.6367],[-77.8155,38.6359],[-77.8156,38.6335],[-77.8084,38.6275],[-77.8091,38.6225],[-77.8012,38.6219],[-77.7961,38.6197],[-77.7966,38.6175],[-77.7932,38.6117],[-77.7761,38.6168],[-77.7718,38.6144],[-77.7697,38.6107],[-77.761,38.6135],[-77.7531,38.6181],[-77.7491,38.6144],[-77.7382,38.6145],[-77.7345,38.6099],[-77.7321,38.6026],[-77.7277,38.6044],[-77.7275,38.6025],[-77.723,38.5998],[-77.7234,38.5972],[-77.7201,38.5949],[-77.7155,38.5957],[-77.7063,38.5875],[-77.7033,38.5888],[-77.6987,38.5868],[-77.7011,38.5821],[-77.699,38.5764],[-77.6889,38.5679],[-77.6931,38.5628],[-77.6916,38.5561],[-77.6946,38.5506],[-77.6905,38.5454],[-77.6846,38.5427],[-77.6819,38.5434],[-77.6813,38.5408],[-77.6709,38.5327],[-77.6684,38.5268],[-77.6645,38.5248],[-77.6611,38.526],[-77.659,38.5291],[-77.656,38.529],[-77.6533,38.531],[-77.6516,38.5357],[-77.6441,38.5334],[-77.6419,38.5349],[-77.6389,38.5318],[-77.6352,38.5316],[-77.6336,38.527],[-77.6259,38.527],[-77.6224,38.5203],[-77.6096,38.5132],[-77.6084,38.5183],[-77.5992,38.5198],[-77.5953,38.5232],[-77.5908,38.5245],[-77.5892,38.528],[-77.5856,38.5274],[-77.5843,38.5256],[-77.5778,38.5294],[-77.5744,38.5292],[-77.5733,38.5311],[-77.5743,38.5335],[-77.571,38.5346],[-77.5676,38.5398],[-77.5621,38.544],[-77.5367,38.5545],[-77.5306,38.5537],[-77.5264,38.5562],[-77.5299,38.5574],[-77.5325,38.5618],[-77.5322,38.5637],[-77.5284,38.5661],[-77.5278,38.5701],[-77.5168,38.5742],[-77.5151,38.5776],[-77.505,38.5796],[-77.4992,38.5879],[-77.4995,38.591],[-77.4969,38.5911],[-77.4899,38.5972],[-77.4902,38.6013],[-77.4808,38.601],[-77.4785,38.6045],[-77.4798,38.6073],[-77.477,38.6098],[-77.4781,38.6114],[-77.4751,38.6151],[-77.4712,38.6148],[-77.4688,38.6191],[-77.4647,38.6224],[-77.4649,38.6348],[-77.4614,38.6376],[-77.4595,38.6343],[-77.4564,38.6344],[-77.4556,38.6377],[-77.4466,38.6392],[-77.4439,38.6423],[-77.4445,38.6495],[-77.4403,38.6584],[-77.4352,38.6558],[-77.4307,38.6601],[-77.4275,38.6604],[-77.4237,38.6582],[-77.4147,38.6641],[-77.4143,38.6619],[-77.4122,38.6614],[-77.4043,38.6634],[-77.4011,38.6605],[-77.3972,38.6604],[-77.3952,38.6579],[-77.3955,38.655],[-77.3902,38.6538],[-77.3905,38.6526],[-77.3855,38.6498],[-77.3837,38.6464],[-77.3845,38.6422],[-77.3789,38.6364],[-77.3742,38.6342],[-77.3718,38.6356],[-77.3663,38.6332],[-77.3617,38.6341],[-77.3591,38.6321],[-77.3562,38.6325],[-77.3551,38.6351],[-77.3519,38.6354],[-77.3493,38.63],[-77.3465,38.6289],[-77.346,38.6243],[-77.3418,38.6215],[-77.3356,38.6224],[-77.3294,38.617],[-77.3245,38.6158],[-77.3172,38.6154],[-77.3085,38.6174],[-77.3046,38.6117],[-77.3005,38.6101],[-77.297,38.6043],[-77.2945,38.6044],[-77.2876,38.6001],[-77.2823,38.6008],[-77.2802,38.5982],[-77.2773,38.5997],[-77.2687,38.5971],[-77.2601,38.5969],[-77.2592,38.5949],[-77.2537,38.5923],[-77.2465,38.5926],[-77.2102,38.5677],[-77.1922,38.5838],[-77.1888,38.5902],[-77.1843,38.593],[-77.1842,38.595],[-77.1801,38.5951],[-77.1733,38.5989],[-77.146,38.6015],[-77.1439,38.6049],[-77.1384,38.6063],[-77.1283,38.6046],[-77.1184,38.6136],[-77.1052,38.6135],[-77.0978,38.6203],[-77.0946,38.6264],[-77.0837,38.6336],[-77.077,38.6343],[-77.0654,38.6323],[-77.0549,38.6352],[-77.0518,38.6398],[-77.0455,38.6418],[-77.0405,38.6491],[-77.0349,38.6504],[-77.0333,38.6527],[-77.0336,38.6559],[-77.0293,38.6588],[-77.0289,38.6615],[-77.0315,38.665],[-77.0279,38.6698],[-77.0155,38.6724],[-77.0089,38.6697],[-76.978,38.669],[-76.9716,38.6742],[-76.9453,38.6734],[-76.9403,38.6765],[-76.9422,38.6849],[-76.9414,38.688],[-76.9384,38.6899],[-76.9261,38.6824],[-76.922,38.6829],[-76.9188,38.6856],[-76.9013,38.687],[-76.8984,38.6894],[-76.8928,38.6858],[-76.8867,38.6864],[-76.8845,38.684],[-76.8772,38.6827],[-76.8733,38.687],[-76.8689,38.7009],[-76.8648,38.7037],[-76.8605,38.7112],[-76.8544,38.7149],[-76.8439,38.7116],[-76.8369,38.7166],[-76.8298,38.7237],[-76.8292,38.7286],[-76.8321,38.7308],[-76.8319,38.7326],[-76.8222,38.7387],[-76.8172,38.7379],[-76.8119,38.7407],[-76.8104,38.7422],[-76.8111,38.7465],[-76.8084,38.7467],[-76.8051,38.751],[-76.8109,38.7532],[-76.8106,38.7581],[-76.8177,38.7594],[-76.8208,38.763],[-76.821,38.7643],[-76.8167,38.7662],[-76.8184,38.7727],[-76.8228,38.7744],[-76.8282,38.7721],[-76.8327,38.7755],[-76.8293,38.7798],[-76.8294,38.7842],[-76.8273,38.786],[-76.8383,38.7901],[-76.8415,38.7954],[-76.84,38.7979],[-76.8412,38.8034],[-76.8505,38.8052],[-76.8551,38.8095],[-76.8553,38.8158],[-76.8606,38.8188],[-76.8607,38.8251],[-76.858,38.8292],[-76.8619,38.8331],[-76.8633,38.8397],[-76.8735,38.8443],[-76.8811,38.8458],[-76.8869,38.8523],[-76.8984,38.8502],[-76.901,38.8555],[-76.9035,38.8567],[-76.9019,38.8627],[-76.8919,38.8652],[-76.8916,38.8683],[-76.888,38.8716],[-76.8837,38.8728],[-76.8804,38.8812],[-76.8771,38.8834],[-76.8765,38.8876],[-76.8786,38.8887],[-76.8766,38.8937],[-76.8797,38.8981],[-76.8768,38.8998],[-76.8768,38.9013],[-76.8746,38.9004],[-76.8728,38.9024],[-76.8736,38.9037],[-76.8707,38.9053],[-76.8637,38.9071],[-76.8565,38.9064],[-76.8557,38.9083],[-76.8569,38.9093],[-76.8534,38.9118],[-76.856,38.917],[-76.8523,38.9198],[-76.8505,38.9188],[-76.8518,38.9206],[-76.8458,38.9245],[-76.8485,38.9259],[-76.8502,38.9292],[-76.8465,38.9315],[-76.8477,38.9363],[-76.855,38.9378],[-76.8555,38.9397],[-76.8552,38.9444],[-76.8511,38.9463],[-76.8541,38.9463],[-76.8571,38.9536],[-76.8604,38.9537],[-76.8604,38.9564],[-76.8649,38.9587],[-76.8636,38.9676],[-76.8598,38.9693],[-76.8613,38.9727],[-76.8584,38.9754],[-76.8597,38.9819],[-76.8636,38.9838],[-76.8633,38.9878],[-76.8654,38.9917],[-76.8553,38.9926],[-76.8504,38.9979],[-76.843,38.9955],[-76.833,38.9957],[-76.8263,39.0006],[-76.8189,39.001],[-76.8106,39.0055],[-76.8123,39.0089],[-76.8177,39.0113],[-76.8189,39.0145],[-76.8149,39.0194],[-76.814,39.023],[-76.8181,39.0289],[-76.8153,39.0329],[-76.8197,39.0381],[-76.8211,39.045],[-76.8294,39.0501],[-76.8313,39.0496],[-76.8407,39.0535],[-76.8459,39.0531],[-76.8501,39.0562],[-76.8594,39.055],[-76.8687,39.0586],[-76.8713,39.0655],[-76.8773,39.0664],[-76.8812,39.0725],[-76.8835,39.0733],[-76.8821,39.0832],[-76.8971,39.0847],[-76.9088,39.0907],[-76.9087,39.0929],[-76.9109,39.0949],[-76.905,39.0998],[-76.9101,39.1062],[-76.9213,39.1044],[-76.9226,39.1101],[-76.9323,39.1131],[-76.9387,39.107],[-76.943,39.1063],[-76.9497,39.1113],[-76.9536,39.1168],[-76.9589,39.1158],[-76.9693,39.118],[-76.9703,39.1198],[-76.9744,39.121],[-76.981,39.1202],[-76.9846,39.1215],[-76.9893,39.1253],[-76.9926,39.1308],[-76.9947,39.1356],[-76.9934,39.1389],[-76.9968,39.142],[-77.0075,39.1443],[-77.0072,39.1459],[-77.0118,39.1483],[-77.0124,39.1505],[-77.022,39.1488],[-77.0341,39.1506],[-77.0386,39.149],[-77.0434,39.1422],[-77.0476,39.1423],[-77.0495,39.1451],[-77.0569,39.1414],[-77.061,39.1421],[-77.0607,39.1433],[-77.0666,39.1434],[-77.0692,39.1564],[-77.0762,39.1624],[-77.0823,39.1637],[-77.0859,39.1725],[-77.0891,39.1735],[-77.094,39.1718],[-77.0996,39.1785],[-77.0986,39.1808],[-77.0995,39.1835],[-77.1156,39.1853],[-77.117,39.1884],[-77.1204,39.1891],[-77.1265,39.1968],[-77.132,39.1977]]]},"properties":{"objectid":119,"tnmid":"{7F6043D5-8A98-4A23-A444-48ADE72D47AC}","metasourceid":"{511D2AC8-11BA-45FC-AB98-F69D693D4C44}","sourcedatadesc":"Watershed Boundary Dataset (WBD)","sourceoriginator":"Natural Resources and Conservation Service and U.S. Geological Survey","sourcefeatureid":null,"loaddate":1723803860000,"referencegnis_ids":"597915,532032,1471810","areaacres":833866.82,"areasqkm":3374.54,"states":"DC,MD,VA","huc8":"02070010","name":"Middle Potomac-Anacostia-Occoquan","globalid":"{C6C6B1E1-B48C-4455-AEDD-F6C417D0B9C6}","shape_Length":583131.7286228902,"shape_Area":5565181631.909875}},{"type":"Feature","id":120,"geometry":{"type":"Polygon","coordinates":[[[-77.0791,39.3523],[-77.0814,39.3537],[-77.0883,39.3517],[-77.0928,39.3477],[-77.0934,39.3422],[-77.0971,39.3375],[-77.1028,39.3374],[-77.1068,39.3346],[-77.108,39.3351],[-77.1077,39.3382],[-77.1198,39.3415],[-77.1337,39.3482],[-77.1381,39.3465],[-77.141,39.3411],[-77.1486,39.3389],[-77.1528,39.3396],[-77.1584,39.3462],[-77.169,39.3438],[-77.175,39.3502],[-77.18,39.3505],[-77.1881,39.347],[-77.1935,39.3419],[-77.1928,39.3379],[-77.1943,39.334],[-77.196,39.332],[-77.2007,39.3309],[-77.2029,39.3262],[-77.2021,39.3221],[-77.1969,39.3166],[-77.1986,39.3112],[-77.1969,39.3087],[-77.1982,39.3066],[-77.1973,39.3026],[-77.198,39.3008],[-77.2043,39.298],[-77.2039,39.2927],[-77.2054,39.289],[-77.1895,39.2827],[-77.1825,39.2847],[-77.179,39.2816],[-77.1765,39.2823],[-77.171,39.2789],[-77.1654,39.2787],[-77.1556,39.2751],[-77.1485,39.2638],[-77.1495,39.2597],[-77.1431,39.2543],[-77.1454,39.2486],[-77.1436,39.2388],[-77.1377,39.2334],[-77.1426,39.2229],[-77.1417,39.2089],[-77.138,39.2065],[-77.1398,39.2036],[-77.132,39.1977],[-77.1265,39.1968],[-77.1204,39.1891],[-77.117,39.1884],[-77.1156,39.1853],[-77.0995,39.1835],[-77.0986,39.1808],[-77.0996,39.1785],[-77.094,39.1718],[-77.0891,39.1735],[-77.0859,39.1725],[-77.0823,39.1637],[-77.0762,39.1624],[-77.0692,39.1564],[-77.0666,39.1434],[-77.0607,39.1433],[-77.061,39.1421],[-77.0569,39.1414],[-77.0495,39.1451],[-77.0476,39.1423],[-77.0434,39.1422],[-77.0386,39.149],[-77.0341,39.1506],[-77.022,39.1488],[-77.0124,39.1505],[-77.0118,39.1483],[-77.0072,39.1459],[-77.0075,39.1443],[-76.9968,39.142],[-76.9934,39.1389],[-76.9947,39.1356],[-76.9926,39.1308],[-76.9893,39.1253],[-76.9846,39.1215],[-76.981,39.1202],[-76.9744,39.121],[-76.9703,39.1198],[-76.9693,39.118],[-76.9589,39.1158],[-76.9536,39.1168],[-76.9497,39.1113],[-76.943,39.1063],[-76.9387,39.107],[-76.9323,39.1131],[-76.9226,39.1101],[-76.9213,39.1044],[-76.9101,39.1062],[-76.905,39.0998],[-76.9109,39.0949],[-76.9087,39.0929],[-76.9088,39.0907],[-76.8971,39.0847],[-76.8821,39.0832],[-76.8835,39.0733],[-76.8812,39.0725],[-76.8773,39.0664],[-76.8713,39.0655],[-76.869,39.0588],[-76.8594,39.055],[-76.8501,39.0562],[-76.8459,39.0531],[-76.8407,39.0535],[-76.8287,39.0498],[-76.8211,39.045],[-76.8197,39.0381],[-76.8154,39.0333],[-76.8181,39.0289],[-76.8141,39.0217],[-76.8189,39.0145],[-76.8177,39.0113],[-76.8123,39.0089],[-76.8109,39.0053],[-76.8189,39.001],[-76.8263,39.0006],[-76.833,38.9957],[-76.843,38.9955],[-76.8504,38.9979],[-76.8553,38.9926],[-76.8654,38.9917],[-76.8633,38.9878],[-76.8636,38.9838],[-76.8597,38.9819],[-76.8584,38.9754],[-76.8613,38.9727],[-76.8598,38.9693],[-76.8636,38.9676],[-76.8649,38.9587],[-76.8604,38.9564],[-76.8604,38.9537],[-76.8571,38.9536],[-76.8541,38.9463],[-76.8511,38.9463],[-76.8552,38.9444],[-76.8555,38.9397],[-76.855,38.9378],[-76.8477,38.9363],[-76.8465,38.9315],[-76.8502,38.9292],[-76.8485,38.9259],[-76.8458,38.9245],[-76.8518,38.9206],[-76.8505,38.9188],[-76.8523,38.9198],[-76.856,38.917],[-76.8534,38.9118],[-76.8569,38.9093],[-76.8557,38.9083],[-76.8565,38.9064],[-76.8637,38.9071],[-76.8707,38.9053],[-76.8736,38.9037],[-76.8728,38.9024],[-76.8746,38.9004],[-76.8768,38.9013],[-76.8768,38.8998],[-76.8797,38.8981],[-76.8766,38.8937],[-76.8786,38.8887],[-76.8765,38.8876],[-76.8771,38.8834],[-76.8804,38.8812],[-76.8837,38.8728],[-76.888,38.8716],[-76.8916,38.8683],[-76.8919,38.8652],[-76.9019,38.8627],[-76.9035,38.8567],[-76.901,38.8555],[-76.8984,38.8502],[-76.8869,38.8523],[-76.8811,38.8458],[-76.8735,38.8443],[-76.8633,38.8397],[-76.8619,38.8331],[-76.858,38.8292],[-76.8607,38.8251],[-76.8606,38.8188],[-76.8553,38.8158],[-76.8551,38.8095],[-76.8505,38.8052],[-76.8412,38.8034],[-76.84,38.7979],[-76.8415,38.7954],[-76.8383,38.7901],[-76.8273,38.786],[-76.8294,38.7842],[-76.8293,38.7798],[-76.8327,38.7755],[-76.8282,38.7721],[-76.8228,38.7744],[-76.8184,38.7727],[-76.8167,38.7662],[-76.821,38.7643],[-76.8208,38.763],[-76.8177,38.7594],[-76.8106,38.7581],[-76.8109,38.7532],[-76.8051,38.751],[-76.8084,38.7467],[-76.8111,38.7465],[-76.8104,38.7422],[-76.8119,38.7407],[-76.8172,38.7379],[-76.8222,38.7387],[-76.8319,38.7326],[-76.8321,38.7308],[-76.8292,38.7286],[-76.8298,38.7237],[-76.8369,38.7166],[-76.845,38.7116],[-76.8453,38.7052],[-76.843,38.7011],[-76.838,38.696],[-76.829,38.6916],[-76.8178,38.6904],[-76.815,38.6837],[-76.8094,38.6779],[-76.803,38.6767],[-76.7962,38.6713],[-76.7887,38.6706],[-76.7786,38.6607],[-76.7727,38.6595],[-76.7715,38.6503],[-76.7663,38.6425],[-76.7675,38.633],[-76.7717,38.6332],[-76.7755,38.6307],[-76.7816,38.6315],[-76.7859,38.6294],[-76.7855,38.626],[-76.7815,38.6232],[-76.7819,38.618],[-76.7803,38.6143],[-76.7711,38.6038],[-76.7833,38.6009],[-76.7919,38.5959],[-76.7911,38.5919],[-76.7874,38.5867],[-76.7949,38.5786],[-76.7991,38.5763],[-76.796,38.5672],[-76.8002,38.5641],[-76.8018,38.5586],[-76.8008,38.5524],[-76.7982,38.5506],[-76.7979,38.5483],[-76.7871,38.5386],[-76.784,38.5374],[-76.7853,38.5342],[-76.7801,38.5291],[-76.7816,38.5263],[-76.7729,38.5214],[-76.773,38.5186],[-76.7766,38.5165],[-76.7776,38.5101],[-76.7765,38.5067],[-76.7725,38.5046],[-76.7694,38.4997],[-76.7759,38.4975],[-76.7781,38.4908],[-76.7839,38.4863],[-76.7795,38.4821],[-76.7757,38.4701],[-76.7555,38.4514],[-76.7517,38.443],[-76.7462,38.4409],[-76.7398,38.4445],[-76.7306,38.4421],[-76.7296,38.4349],[-76.725,38.4293],[-76.7204,38.4266],[-76.7161,38.4263],[-76.7149,38.4242],[-76.7169,38.422],[-76.7153,38.4188],[-76.7123,38.4181],[-76.7056,38.4206],[-76.7018,38.4195],[-76.6966,38.4207],[-76.6929,38.4154],[-76.6896,38.4165],[-76.6842,38.4141],[-76.6798,38.4161],[-76.6635,38.402],[-76.662,38.399],[-76.6522,38.3964],[-76.6515,38.3935],[-76.6389,38.3936],[-76.6384,38.3885],[-76.6345,38.3854],[-76.6316,38.3858],[-76.6218,38.3799],[-76.6119,38.3806],[-76.6082,38.377],[-76.6092,38.3747],[-76.6061,38.3723],[-76.5943,38.3684],[-76.5885,38.3685],[-76.5896,38.3659],[-76.5839,38.356],[-76.5684,38.3463],[-76.5657,38.3411],[-76.5602,38.3372],[-76.5593,38.3328],[-76.5543,38.3297],[-76.5516,38.3298],[-76.5523,38.3246],[-76.5448,38.3211],[-76.5434,38.3223],[-76.534,38.3146],[-76.5328,38.3082],[-76.5258,38.308],[-76.5228,38.3052],[-76.5181,38.3053],[-76.5197,38.3035],[-76.516,38.3012],[-76.502,38.2975],[-76.4968,38.2923],[-76.4922,38.2907],[-76.49,38.2867],[-76.4759,38.2855],[-76.4657,38.279],[-76.4605,38.2712],[-76.4563,38.2705],[-76.4564,38.2676],[-76.4542,38.2668],[-76.4512,38.2671],[-76.4501,38.2692],[-76.4432,38.2728],[-76.4366,38.2724],[-76.4359,38.2756],[-76.4325,38.2788],[-76.425,38.2788],[-76.424,38.2803],[-76.4259,38.2812],[-76.425,38.2834],[-76.4267,38.2874],[-76.423,38.2912],[-76.4212,38.2947],[-76.4219,38.2969],[-76.4181,38.3012],[-76.4223,38.3048],[-76.4217,38.3207],[-76.4268,38.3237],[-76.4249,38.3301],[-76.4223,38.3326],[-76.4237,38.336],[-76.4186,38.3388],[-76.4196,38.3416],[-76.4156,38.3441],[-76.4198,38.3515],[-76.4151,38.355],[-76.4136,38.3583],[-76.4034,38.36],[-76.4008,38.3633],[-76.4063,38.3687],[-76.4048,38.3757],[-76.41,38.3779],[-76.4061,38.3807],[-76.4072,38.3821],[-76.4122,38.384],[-76.4215,38.3843],[-76.4247,38.3877],[-76.4275,38.3867],[-76.4375,38.3931],[-76.4375,38.3985],[-76.4348,38.4037],[-76.4381,38.4085],[-76.4278,38.4146],[-76.4299,38.4156],[-76.4334,38.4229],[-76.4446,38.4284],[-76.4463,38.4312],[-76.4518,38.4321],[-76.4457,38.4347],[-76.4456,38.4378],[-76.457,38.4459],[-76.463,38.4479],[-76.4646,38.4509],[-76.4635,38.4521],[-76.4672,38.457],[-76.4724,38.4557],[-76.4822,38.4565],[-76.4835,38.4603],[-76.4875,38.4604],[-76.4874,38.4639],[-76.4941,38.4651],[-76.4976,38.4674],[-76.499,38.47],[-76.4979,38.4727],[-76.501,38.4749],[-76.5038,38.4743],[-76.5088,38.4764],[-76.5092,38.4783],[-76.5076,38.4793],[-76.5097,38.4853],[-76.5191,38.4979],[-76.528,38.5004],[-76.5382,38.5001],[-76.5474,38.5023],[-76.564,38.5091],[-76.5659,38.5122],[-76.5789,38.5141],[-76.587,38.5209],[-76.589,38.5241],[-76.5885,38.5268],[-76.5909,38.5288],[-76.5927,38.5335],[-76.5826,38.5474],[-76.5838,38.5495],[-76.5829,38.5533],[-76.5693,38.5539],[-76.5621,38.5516],[-76.556,38.5569],[-76.5411,38.5558],[-76.54,38.5629],[-76.5369,38.5647],[-76.538,38.5711],[-76.5354,38.5747],[-76.5458,38.5882],[-76.5585,38.5889],[-76.5628,38.5964],[-76.5691,38.6005],[-76.5677,38.6038],[-76.5632,38.6053],[-76.5657,38.6107],[-76.5647,38.6123],[-76.5585,38.6157],[-76.5482,38.6137],[-76.5482,38.6175],[-76.5438,38.6233],[-76.5491,38.627],[-76.5526,38.6259],[-76.5636,38.6286],[-76.5707,38.6244],[-76.5864,38.6275],[-76.5963,38.626],[-76.5988,38.627],[-76.6049,38.6352],[-76.6035,38.6461],[-76.6015,38.6489],[-76.6054,38.6528],[-76.607,38.6609],[-76.6034,38.6661],[-76.5998,38.6676],[-76.5984,38.6697],[-76.5992,38.6727],[-76.5962,38.6745],[-76.5977,38.677],[-76.5972,38.6821],[-76.6018,38.682],[-76.5995,38.687],[-76.6033,38.6888],[-76.6022,38.6925],[-76.6043,38.6943],[-76.6035,38.6982],[-76.5995,38.6977],[-76.5901,38.7014],[-76.5839,38.7008],[-76.5725,38.7043],[-76.5717,38.7104],[-76.5647,38.7125],[-76.5678,38.715],[-76.5666,38.717],[-76.5675,38.7204],[-76.5639,38.7233],[-76.563,38.7261],[-76.5716,38.7305],[-76.5744,38.7294],[-76.5804,38.7359],[-76.586,38.7385],[-76.5882,38.7352],[-76.5905,38.7374],[-76.5884,38.7453],[-76.593,38.7486],[-76.5938,38.7511],[-76.5877,38.7545],[-76.5935,38.7586],[-76.5937,38.7616],[-76.5962,38.7623],[-76.5994,38.7682],[-76.5981,38.7724],[-76.5909,38.7792],[-76.5917,38.7818],[-76.5898,38.7858],[-76.5936,38.7901],[-76.594,38.7927],[-76.5892,38.7942],[-76.5972,38.8017],[-76.5941,38.8058],[-76.5971,38.8116],[-76.6027,38.8115],[-76.6066,38.8132],[-76.6041,38.8173],[-76.6046,38.8202],[-76.6077,38.8233],[-76.6136,38.8246],[-76.6137,38.827],[-76.6162,38.8295],[-76.6151,38.8315],[-76.6113,38.8299],[-76.6109,38.8327],[-76.6076,38.8347],[-76.6084,38.8377],[-76.6049,38.8433],[-76.6081,38.8491],[-76.6059,38.8538],[-76.6102,38.8585],[-76.6149,38.8586],[-76.6183,38.8612],[-76.6204,38.866],[-76.6018,38.8808],[-76.6023,38.8823],[-76.5968,38.8922],[-76.5876,38.9006],[-76.5996,38.901],[-76.6033,38.9031],[-76.6031,38.9061],[-76.6073,38.9098],[-76.6162,38.9045],[-76.6196,38.9084],[-76.6216,38.9086],[-76.6254,38.9121],[-76.6264,38.9167],[-76.6293,38.917],[-76.6298,38.9192],[-76.6319,38.9202],[-76.628,38.924],[-76.6325,38.9304],[-76.6374,38.9335],[-76.6389,38.9375],[-76.6435,38.939],[-76.6424,38.9422],[-76.6441,38.9455],[-76.6394,38.9477],[-76.6409,38.9532],[-76.6508,38.9565],[-76.6592,38.9637],[-76.6619,38.9707],[-76.6706,38.9761],[-76.6707,38.9789],[-76.6682,38.9826],[-76.6636,38.9843],[-76.6695,38.9889],[-76.6693,38.9909],[-76.673,38.9962],[-76.665,38.9986],[-76.6603,39.0062],[-76.6648,39.012],[-76.6742,39.0195],[-76.6651,39.0337],[-76.6704,39.0373],[-76.6682,39.0397],[-76.6637,39.0401],[-76.6608,39.0449],[-76.6628,39.0474],[-76.6586,39.0489],[-76.6623,39.0531],[-76.6686,39.0552],[-76.6684,39.0584],[-76.6723,39.0636],[-76.6716,39.0667],[-76.6814,39.0685],[-76.6837,39.0729],[-76.6828,39.075],[-76.6915,39.0801],[-76.7023,39.0786],[-76.7061,39.0845],[-76.7101,39.087],[-76.7131,39.0943],[-76.7207,39.0978],[-76.7243,39.1139],[-76.7389,39.1273],[-76.7365,39.1342],[-76.7397,39.139],[-76.746,39.1386],[-76.7505,39.1407],[-76.7507,39.1434],[-76.7541,39.1473],[-76.7538,39.1499],[-76.7593,39.1517],[-76.7595,39.1551],[-76.7674,39.1558],[-76.7741,39.1603],[-76.7793,39.1603],[-76.7794,39.165],[-76.7836,39.1681],[-76.7874,39.1846],[-76.7934,39.1905],[-76.7953,39.2042],[-76.7981,39.2064],[-76.8009,39.2131],[-76.8068,39.2171],[-76.8081,39.2204],[-76.8079,39.2238],[-76.8007,39.2277],[-76.7958,39.2358],[-76.8019,39.2413],[-76.8063,39.2504],[-76.8134,39.251],[-76.8243,39.2579],[-76.8243,39.2626],[-76.8311,39.2697],[-76.8284,39.2759],[-76.8247,39.2774],[-76.8287,39.2845],[-76.8273,39.289],[-76.8335,39.2937],[-76.8403,39.2975],[-76.8516,39.2967],[-76.8611,39.3014],[-76.8635,39.3006],[-76.8715,39.3096],[-76.8807,39.3071],[-76.8924,39.3093],[-76.8968,39.3145],[-76.8972,39.3177],[-76.9037,39.3176],[-76.9056,39.3229],[-76.9086,39.3219],[-76.9159,39.324],[-76.9217,39.3212],[-76.9267,39.3238],[-76.9336,39.3223],[-76.9355,39.3234],[-76.9401,39.3183],[-76.9441,39.3183],[-76.9478,39.3198],[-76.9485,39.3229],[-76.9686,39.3262],[-76.9762,39.3243],[-76.9798,39.3277],[-76.983,39.3285],[-76.9899,39.3231],[-77.0045,39.3211],[-77.0091,39.3231],[-77.0145,39.3299],[-77.0266,39.3294],[-77.0288,39.3328],[-77.0375,39.3392],[-77.0452,39.3391],[-77.0462,39.3416],[-77.0511,39.3448],[-77.0606,39.3486],[-77.0651,39.3468],[-77.0733,39.3527],[-77.0761,39.3513],[-77.0791,39.3523]]]},"properties":{"objectid":120,"tnmid":"{D9E92E07-709F-4314-86B0-1D7E465CFEF2}","metasourceid":"{511D2AC8-11BA-45FC-AB98-F69D693D4C44}","sourcedatadesc":"Watershed Boundary Dataset (WBD)","sourceoriginator":"Natural Resources and Conservation Service and U.S. Geological Survey","sourcefeatureid":null,"loaddate":1723803860000,"referencegnis_ids":"586437","areaacres":593239.81,"areasqkm":2400.76,"states":"MD","huc8":"02060006","name":"Patuxent","globalid":"{EB3024BF-3957-4CAC-A998-BD76AB460530}","shape_Length":567804.9870769321,"shape_Area":3964190020.7711287}},{"type":"Feature","id":309,"geometry":{"type":"Polygon","coordinates":[[[-78.0238,38.8955],[-78.0337,38.8946],[-78.0364,38.8935],[-78.038,38.89],[-78.0441,38.8886],[-78.046,38.8867],[-78.0558,38.886],[-78.0565,38.8891],[-78.0677,38.887],[-78.0767,38.8813],[-78.0808,38.8862],[-78.0906,38.8858],[-78.105,38.8778],[-78.107,38.8784],[-78.1076,38.8818],[-78.1119,38.8868],[-78.1303,38.8698],[-78.1306,38.8617],[-78.1389,38.8592],[-78.1427,38.8595],[-78.1454,38.8509],[-78.1488,38.8503],[-78.1571,38.8447],[-78.1609,38.839],[-78.1602,38.8362],[-78.1632,38.8363],[-78.1685,38.8335],[-78.1708,38.8292],[-78.1695,38.8266],[-78.1708,38.8191],[-78.18,38.818],[-78.1785,38.8151],[-78.1819,38.804],[-78.1817,38.7995],[-78.1833,38.7985],[-78.1846,38.7929],[-78.1887,38.7905],[-78.189,38.7888],[-78.1933,38.7873],[-78.1951,38.7814],[-78.2008,38.7766],[-78.2066,38.7741],[-78.2127,38.7749],[-78.2183,38.7731],[-78.2246,38.7681],[-78.2306,38.769],[-78.235,38.7672],[-78.2386,38.7619],[-78.2442,38.7633],[-78.2531,38.757],[-78.2569,38.7593],[-78.2642,38.7584],[-78.2711,38.7616],[-78.2793,38.762],[-78.2844,38.7597],[-78.2905,38.7503],[-78.2959,38.7511],[-78.2992,38.7485],[-78.2996,38.7449],[-78.3043,38.7386],[-78.3188,38.7379],[-78.3237,38.7217],[-78.3323,38.705],[-78.3316,38.7027],[-78.3249,38.7015],[-78.3202,38.6982],[-78.3166,38.6918],[-78.3143,38.6829],[-78.3213,38.678],[-78.3239,38.673],[-78.3174,38.6696],[-78.3201,38.6596],[-78.3157,38.652],[-78.3195,38.6468],[-78.3196,38.643],[-78.3241,38.6336],[-78.3282,38.6287],[-78.3357,38.6286],[-78.3402,38.6262],[-78.3445,38.6229],[-78.345,38.619],[-78.3528,38.6153],[-78.3553,38.6119],[-78.3603,38.6137],[-78.3644,38.6098],[-78.368,38.6021],[-78.3746,38.5942],[-78.3833,38.5884],[-78.3858,38.5827],[-78.3827,38.5757],[-78.3843,38.5713],[-78.3813,38.5677],[-78.381,38.5613],[-78.3892,38.5548],[-78.395,38.5557],[-78.4076,38.5516],[-78.4094,38.549],[-78.4135,38.5475],[-78.4197,38.5345],[-78.4286,38.5297],[-78.4301,38.5269],[-78.4329,38.5264],[-78.438,38.5308],[-78.4429,38.5277],[-78.4362,38.5216],[-78.4391,38.5167],[-78.4412,38.5165],[-78.4406,38.5134],[-78.4432,38.5112],[-78.4426,38.5052],[-78.447,38.4993],[-78.4443,38.4951],[-78.4423,38.4946],[-78.4416,38.4902],[-78.4449,38.4888],[-78.4471,38.4837],[-78.4556,38.4725],[-78.4578,38.4647],[-78.4627,38.4595],[-78.4619,38.4554],[-78.465,38.4523],[-78.465,38.447],[-78.4728,38.4476],[-78.4744,38.4457],[-78.4779,38.4385],[-78.4766,38.432],[-78.4824,38.4298],[-78.4843,38.4236],[-78.4869,38.4208],[-78.4868,38.4159],[-78.49,38.4146],[-78.4942,38.4095],[-78.4931,38.4066],[-78.4985,38.4037],[-78.4996,38.3993],[-78.5076,38.3936],[-78.5152,38.3938],[-78.5184,38.3816],[-78.5225,38.3797],[-78.5264,38.3725],[-78.5196,38.3673],[-78.5099,38.3682],[-78.5032,38.3648],[-78.5035,38.3619],[-78.5003,38.3569],[-78.5008,38.3421],[-78.4974,38.3368],[-78.4923,38.3348],[-78.4861,38.3365],[-78.4801,38.3316],[-78.4709,38.329],[-78.4696,38.3252],[-78.4655,38.3223],[-78.4618,38.316],[-78.4597,38.3143],[-78.4534,38.3137],[-78.4537,38.3108],[-78.4517,38.309],[-78.4343,38.3081],[-78.4331,38.3033],[-78.4277,38.301],[-78.4289,38.2965],[-78.4264,38.2945],[-78.427,38.2925],[-78.4201,38.2901],[-78.4202,38.2836],[-78.4108,38.2772],[-78.4115,38.2721],[-78.4086,38.268],[-78.4086,38.2621],[-78.3976,38.2563],[-78.3986,38.2503],[-78.395,38.2496],[-78.3951,38.2466],[-78.3914,38.2442],[-78.3883,38.238],[-78.3743,38.2324],[-78.3624,38.2347],[-78.3554,38.2316],[-78.3529,38.2283],[-78.3477,38.228],[-78.3449,38.2252],[-78.3466,38.2238],[-78.3448,38.2216],[-78.3464,38.2161],[-78.3432,38.2157],[-78.3389,38.2124],[-78.3396,38.2096],[-78.3208,38.2042],[-78.3115,38.1945],[-78.3017,38.1962],[-78.3005,38.1914],[-78.2978,38.189],[-78.3031,38.1822],[-78.3039,38.1799],[-78.3022,38.1774],[-78.304,38.1778],[-78.3041,38.1765],[-78.3,38.1745],[-78.2909,38.1631],[-78.2975,38.1569],[-78.306,38.1545],[-78.3099,38.1497],[-78.3081,38.1447],[-78.3091,38.1399],[-78.3056,38.1354],[-78.3084,38.132],[-78.3068,38.1286],[-78.3079,38.1258],[-78.3053,38.1222],[-78.2912,38.1219],[-78.2867,38.1257],[-78.2838,38.1326],[-78.2763,38.1335],[-78.2696,38.1372],[-78.2651,38.1421],[-78.2611,38.1422],[-78.257,38.1449],[-78.2564,38.1468],[-78.2508,38.1503],[-78.2478,38.1589],[-78.2459,38.1602],[-78.2296,38.1603],[-78.2249,38.1661],[-78.2234,38.1709],[-78.2166,38.1724],[-78.2142,38.1713],[-78.2141,38.1687],[-78.2116,38.1678],[-78.2057,38.1692],[-78.2031,38.1719],[-78.1981,38.1682],[-78.1967,38.1634],[-78.193,38.1631],[-78.1681,38.1781],[-78.1653,38.1829],[-78.1572,38.1878],[-78.1609,38.1939],[-78.1641,38.1941],[-78.166,38.1969],[-78.1646,38.1995],[-78.1544,38.2055],[-78.1573,38.2136],[-78.1508,38.2165],[-78.1458,38.2158],[-78.1406,38.2221],[-78.1289,38.2277],[-78.1259,38.2316],[-78.1257,38.2389],[-78.1235,38.2402],[-78.1231,38.2442],[-78.105,38.245],[-78.1068,38.2507],[-78.1061,38.2578],[-78.0969,38.2623],[-78.0976,38.2642],[-78.0866,38.2666],[-78.0837,38.2688],[-78.0784,38.2701],[-78.0692,38.2658],[-78.0645,38.2657],[-78.0638,38.2638],[-78.0662,38.259],[-78.0536,38.2518],[-78.0476,38.2457],[-78.0404,38.2468],[-78.0271,38.2559],[-78.0177,38.2551],[-78.0157,38.2583],[-78.0111,38.2598],[-78.0003,38.2575],[-77.993,38.2589],[-77.9924,38.2616],[-77.9854,38.2634],[-77.9758,38.2577],[-77.9724,38.2584],[-77.9701,38.2569],[-77.9542,38.2681],[-77.9513,38.2694],[-77.9471,38.2679],[-77.942,38.2718],[-77.9288,38.2743],[-77.9239,38.2711],[-77.915,38.2686],[-77.905,38.2728],[-77.9018,38.2705],[-77.8939,38.2713],[-77.8885,38.2686],[-77.8867,38.2671],[-77.8871,38.2651],[-77.8838,38.2644],[-77.8827,38.2609],[-77.8711,38.2595],[-77.8695,38.249],[-77.8646,38.2477],[-77.863,38.2492],[-77.8565,38.2442],[-77.8501,38.2457],[-77.8438,38.2411],[-77.84,38.2451],[-77.8409,38.2506],[-77.8354,38.255],[-77.8357,38.2584],[-77.8282,38.2607],[-77.8269,38.2625],[-77.8231,38.2613],[-77.8217,38.2634],[-77.8193,38.2637],[-77.8175,38.2623],[-77.8042,38.2682],[-77.8025,38.2739],[-77.8034,38.2756],[-77.8,38.2771],[-77.8013,38.2798],[-77.7971,38.2831],[-77.7988,38.2844],[-77.7938,38.2873],[-77.7904,38.2926],[-77.7813,38.2911],[-77.7813,38.2896],[-77.7742,38.2856],[-77.7683,38.2773],[-77.7545,38.276],[-77.7475,38.2833],[-77.7468,38.2867],[-77.7432,38.2907],[-77.7403,38.2902],[-77.7385,38.2928],[-77.7358,38.2928],[-77.7304,38.2895],[-77.7264,38.2895],[-77.7208,38.2917],[-77.7158,38.2968],[-77.7096,38.3],[-77.7113,38.3034],[-77.7072,38.308],[-77.7087,38.3113],[-77.707,38.3144],[-77.7077,38.3162],[-77.7016,38.3172],[-77.6965,38.3221],[-77.6907,38.322],[-77.6855,38.3171],[-77.6855,38.3153],[-77.6801,38.3115],[-77.676,38.3123],[-77.675,38.3105],[-77.6668,38.3097],[-77.6557,38.3116],[-77.6501,38.3106],[-77.6503,38.3128],[-77.647,38.3136],[-77.6462,38.3157],[-77.6373,38.317],[-77.641,38.321],[-77.6403,38.3345],[-77.6297,38.3428],[-77.628,38.3497],[-77.6247,38.3505],[-77.6222,38.3612],[-77.6134,38.3778],[-77.611,38.3784],[-77.6048,38.3754],[-77.5962,38.3782],[-77.5953,38.3817],[-77.5881,38.3862],[-77.5864,38.3902],[-77.5773,38.399],[-77.5735,38.3991],[-77.572,38.401],[-77.574,38.4042],[-77.5698,38.4059],[-77.574,38.409],[-77.5705,38.4126],[-77.5681,38.4127],[-77.5728,38.42],[-77.5753,38.4291],[-77.5776,38.4283],[-77.5804,38.4307],[-77.5849,38.4294],[-77.5869,38.4307],[-77.5923,38.4304],[-77.5872,38.4379],[-77.5912,38.4428],[-77.5916,38.4468],[-77.5896,38.4482],[-77.5855,38.448],[-77.5819,38.4545],[-77.5782,38.4547],[-77.5766,38.4592],[-77.5791,38.4695],[-77.5777,38.474],[-77.5811,38.4775],[-77.5788,38.481],[-77.5795,38.4879],[-77.5911,38.4916],[-77.5944,38.4944],[-77.6017,38.494],[-77.6014,38.4965],[-77.6039,38.5001],[-77.601,38.5018],[-77.6006,38.5055],[-77.6044,38.5107],[-77.6204,38.5187],[-77.6259,38.527],[-77.6336,38.527],[-77.6352,38.5316],[-77.6389,38.5318],[-77.6419,38.5349],[-77.6441,38.5334],[-77.6516,38.5357],[-77.6533,38.531],[-77.656,38.529],[-77.659,38.5291],[-77.6611,38.526],[-77.6645,38.5248],[-77.6684,38.5268],[-77.6709,38.5327],[-77.6813,38.5408],[-77.6819,38.5434],[-77.6846,38.5427],[-77.6905,38.5454],[-77.6946,38.5506],[-77.6916,38.5561],[-77.6931,38.5628],[-77.6889,38.5679],[-77.699,38.5764],[-77.7011,38.5821],[-77.6987,38.5868],[-77.7033,38.5888],[-77.7063,38.5875],[-77.7155,38.5957],[-77.7201,38.5949],[-77.7234,38.5972],[-77.723,38.5998],[-77.7275,38.6025],[-77.7277,38.6044],[-77.7321,38.6026],[-77.7345,38.6099],[-77.7382,38.6145],[-77.7491,38.6144],[-77.7531,38.6181],[-77.761,38.6135],[-77.7697,38.6107],[-77.7718,38.6144],[-77.7761,38.6168],[-77.7932,38.6117],[-77.7966,38.6175],[-77.7961,38.6197],[-77.8012,38.6219],[-77.8087,38.6222],[-77.8084,38.6275],[-77.8156,38.6335],[-77.8155,38.6359],[-77.8115,38.637],[-77.8082,38.6425],[-77.8025,38.6457],[-77.8015,38.6486],[-77.8009,38.6589],[-77.8033,38.6635],[-77.8014,38.6665],[-77.8066,38.6783],[-77.804,38.6781],[-77.8037,38.6829],[-77.8075,38.6931],[-77.8076,38.7008],[-77.81,38.7042],[-77.8071,38.7067],[-77.8006,38.7079],[-77.7953,38.7138],[-77.7984,38.7171],[-77.7978,38.7206],[-77.8049,38.7237],[-77.8131,38.7248],[-77.8137,38.7287],[-77.8169,38.7297],[-77.8249,38.7288],[-77.8306,38.731],[-77.8317,38.7331],[-77.8358,38.7337],[-77.8355,38.7405],[-77.8333,38.744],[-77.8339,38.7502],[-77.8317,38.7554],[-77.8327,38.759],[-77.8308,38.763],[-77.834,38.768],[-77.8335,38.7703],[-77.8351,38.7736],[-77.8405,38.777],[-77.8462,38.7865],[-77.8456,38.7887],[-77.8388,38.7925],[-77.8397,38.7975],[-77.8429,38.8008],[-77.8448,38.8077],[-77.84,38.811],[-77.8365,38.8109],[-77.8317,38.8158],[-77.826,38.8151],[-77.8178,38.817],[-77.816,38.8194],[-77.8168,38.8234],[-77.8126,38.8308],[-77.8214,38.8338],[-77.8254,38.841],[-77.8285,38.8418],[-77.8285,38.8473],[-77.8369,38.8532],[-77.8388,38.8565],[-77.8464,38.8602],[-77.8461,38.862],[-77.8498,38.8651],[-77.8558,38.8655],[-77.8588,38.8639],[-77.8603,38.8595],[-77.8646,38.8602],[-77.8696,38.8585],[-77.8725,38.8597],[-77.8768,38.8649],[-77.8814,38.8666],[-77.8887,38.8663],[-77.8946,38.8715],[-77.8952,38.8696],[-77.8993,38.8675],[-77.8993,38.8635],[-77.9105,38.865],[-77.9116,38.8623],[-77.9165,38.8588],[-77.9226,38.8602],[-77.9271,38.8569],[-77.9276,38.8547],[-77.9396,38.8581],[-77.9421,38.8606],[-77.9395,38.8632],[-77.9446,38.8677],[-77.9509,38.8584],[-77.9572,38.8545],[-77.9511,38.8426],[-77.9523,38.8404],[-77.959,38.8437],[-77.9584,38.8484],[-77.9627,38.8488],[-77.9659,38.8513],[-77.9647,38.8564],[-77.9669,38.8633],[-77.9658,38.8684],[-77.9726,38.8677],[-77.9812,38.8701],[-77.9841,38.8739],[-77.9817,38.8796],[-77.9955,38.8807],[-77.9974,38.883],[-77.9961,38.8885],[-78.0082,38.8861],[-78.0179,38.8907],[-78.0208,38.8947],[-78.0238,38.8955]]]},"properties":{"objectid":309,"tnmid":"{C9D75D0D-34F2-465F-AC19-067838ED7FBA}","metasourceid":"{511D2AC8-11BA-45FC-AB98-F69D693D4C44}","sourcedatadesc":"Watershed Boundary Dataset (WBD)","sourceoriginator":"Natural Resources and Conservation Service and U.S. Geological Survey","sourcefeatureid":null,"loaddate":1723803860000,"referencegnis_ids":"1472976,1479404","areaacres":996348.3,"areasqkm":4032.08,"states":"VA","huc8":"02080103","name":"Rapidan-Upper Rappahannock","globalid":"{D03EF646-6760-4B48-9A33-4DFDA69D0DBF}","shape_Length":466160.6702451812,"shape_Area":6594198852.533158}},{"type":"Feature","id":1955,"geometry":{"type":"Polygon","coordinates":[[[-77.8682,39.3369],[-77.8679,39.3397],[-77.8803,39.3422],[-77.8832,39.3434],[-77.8825,39.3446],[-77.8884,39.3464],[-77.8923,39.3378],[-77.8988,39.3369],[-77.9068,39.3302],[-77.9122,39.3137],[-77.917,39.3078],[-77.9227,39.3075],[-77.9268,39.3052],[-77.9324,39.2962],[-77.9347,39.2951],[-77.9402,39.2773],[-77.9493,39.2619],[-77.9488,39.2607],[-77.9519,39.2575],[-77.9581,39.2559],[-77.9604,39.2531],[-77.9588,39.2484],[-77.9609,39.2437],[-77.9633,39.2436],[-77.962,39.2394],[-77.9638,39.2365],[-77.973,39.2342],[-77.9801,39.2212],[-77.9821,39.2203],[-77.9852,39.2099],[-77.9913,39.2089],[-77.992,39.2048],[-77.9961,39.2018],[-77.9972,39.1984],[-78.0011,39.1948],[-78.0003,39.1925],[-78.0028,39.1885],[-77.9984,39.1868],[-77.9968,39.1838],[-77.9982,39.181],[-77.9944,39.1768],[-77.9977,39.1712],[-77.9945,39.1683],[-77.9962,39.1598],[-77.9994,39.1584],[-78.0082,39.1595],[-78.009,39.1577],[-78.0202,39.1557],[-78.025,39.1508],[-78.0315,39.151],[-78.0362,39.1459],[-78.0395,39.1457],[-78.0422,39.143],[-78.0497,39.144],[-78.0588,39.1329],[-78.0676,39.1354],[-78.0722,39.1296],[-78.0755,39.1303],[-78.083,39.1167],[-78.0812,39.1151],[-78.0855,39.1125],[-78.0874,39.1153],[-78.0907,39.1155],[-78.0989,39.1045],[-78.0969,39.1029],[-78.1014,39.0957],[-78.1017,39.0829],[-78.107,39.083],[-78.1089,39.0791],[-78.1141,39.0748],[-78.1189,39.0774],[-78.125,39.0765],[-78.1345,39.0706],[-78.1415,39.0628],[-78.149,39.0639],[-78.1538,39.0651],[-78.1568,39.0709],[-78.1645,39.0748],[-78.1801,39.074],[-78.1817,39.0744],[-78.182,39.077],[-78.1897,39.0792],[-78.2022,39.0791],[-78.203,39.0823],[-78.2095,39.0876],[-78.2083,39.0906],[-78.2143,39.095],[-78.2121,39.0997],[-78.2159,39.1021],[-78.2208,39.1025],[-78.2247,39.1059],[-78.2323,39.106],[-78.2342,39.1035],[-78.2419,39.1029],[-78.2431,39.101],[-78.2454,39.1038],[-78.2515,39.106],[-78.2524,39.108],[-78.2554,39.108],[-78.2576,39.105],[-78.2581,39.1011],[-78.253,39.0975],[-78.2541,39.0917],[-78.2483,39.0902],[-78.249,39.0885],[-78.2476,39.0876],[-78.2526,39.0802],[-78.2555,39.0738],[-78.2546,39.072],[-78.2573,39.0688],[-78.2542,39.064],[-78.2555,39.0617],[-78.2537,39.0609],[-78.2554,39.0556],[-78.2537,39.0563],[-78.251,39.0544],[-78.2526,39.0507],[-78.2558,39.0491],[-78.2551,39.0475],[-78.2602,39.0391],[-78.268,39.0383],[-78.2743,39.0302],[-78.2689,39.0276],[-78.2665,39.0234],[-78.2642,39.0229],[-78.2625,39.018],[-78.2575,39.0165],[-78.2551,39.0111],[-78.2521,39.0087],[-78.2562,39.0047],[-78.2586,38.9962],[-78.2548,38.9947],[-78.2542,38.9921],[-78.2508,38.9891],[-78.2386,38.9838],[-78.2355,38.9773],[-78.2263,38.9754],[-78.2206,38.9764],[-78.2175,38.9736],[-78.2185,38.9716],[-78.2136,38.9659],[-78.2107,38.9649],[-78.2105,38.9628],[-78.2029,38.9597],[-78.203,38.9574],[-78.1999,38.9556],[-78.2001,38.9536],[-78.1923,38.9505],[-78.1882,38.9437],[-78.1851,38.9427],[-78.1786,38.95],[-78.1733,38.9461],[-78.1696,38.9455],[-78.168,38.9442],[-78.1695,38.9405],[-78.1678,38.9398],[-78.171,38.9354],[-78.1707,38.9316],[-78.1649,38.9307],[-78.164,38.9269],[-78.16,38.9226],[-78.1511,38.9182],[-78.1469,38.918],[-78.1438,38.9156],[-78.142,38.9109],[-78.1395,38.9103],[-78.1383,38.9076],[-78.1406,38.9029],[-78.1404,38.8982],[-78.1387,38.8953],[-78.1305,38.8897],[-78.1236,38.8902],[-78.1119,38.8868],[-78.1054,38.8778],[-78.0906,38.8858],[-78.0808,38.8862],[-78.0767,38.8813],[-78.068,38.8868],[-78.0566,38.889],[-78.0591,38.8905],[-78.0599,38.8948],[-78.0617,38.8951],[-78.0622,38.8999],[-78.0715,38.9023],[-78.072,38.905],[-78.0758,38.9083],[-78.0746,38.9128],[-78.0639,38.9238],[-78.0647,38.927],[-78.0616,38.9322],[-78.0558,38.9328],[-78.0494,38.9366],[-78.0398,38.9391],[-78.0375,38.9462],[-78.0344,38.9497],[-78.029,38.9501],[-78.0273,38.9518],[-78.02,38.9641],[-78.0173,38.9658],[-78.0175,38.97],[-78.0052,38.9783],[-78.0012,38.9843],[-77.99,38.9934],[-77.9907,38.9958],[-77.9892,38.9973],[-77.9805,39.0026],[-77.9749,39.0028],[-77.9651,39.009],[-77.9612,39.0147],[-77.9569,39.0157],[-77.9553,39.0207],[-77.9422,39.0235],[-77.9369,39.0226],[-77.9347,39.0285],[-77.9277,39.0321],[-77.9284,39.0339],[-77.9264,39.0355],[-77.912,39.0419],[-77.9075,39.045],[-77.9066,39.0479],[-77.9007,39.0505],[-77.898,39.054],[-77.894,39.0542],[-77.886,39.0679],[-77.8771,39.0784],[-77.8731,39.0802],[-77.8625,39.081],[-77.8546,39.0952],[-77.8538,39.1011],[-77.8482,39.1113],[-77.8462,39.1184],[-77.839,39.1216],[-77.8223,39.1398],[-77.823,39.1456],[-77.8216,39.1522],[-77.8134,39.1648],[-77.8051,39.1743],[-77.8047,39.1794],[-77.7979,39.1929],[-77.7984,39.1998],[-77.7931,39.2081],[-77.7935,39.2103],[-77.789,39.2147],[-77.7861,39.2195],[-77.7864,39.2215],[-77.7813,39.2281],[-77.7781,39.2293],[-77.7714,39.2367],[-77.7672,39.2494],[-77.771,39.2493],[-77.7703,39.2558],[-77.7679,39.2578],[-77.7626,39.2586],[-77.7613,39.2637],[-77.7577,39.2649],[-77.758,39.2718],[-77.7532,39.2767],[-77.7531,39.2823],[-77.7488,39.2927],[-77.7351,39.3124],[-77.7287,39.3163],[-77.7268,39.3218],[-77.7411,39.3242],[-77.7437,39.3263],[-77.7482,39.3258],[-77.7564,39.3225],[-77.7609,39.3236],[-77.7684,39.3139],[-77.7739,39.3139],[-77.7805,39.3158],[-77.7785,39.3253],[-77.7816,39.3251],[-77.7846,39.3282],[-77.7877,39.3236],[-77.7963,39.3244],[-77.8091,39.3297],[-77.8109,39.3286],[-77.8112,39.3242],[-77.8205,39.321],[-77.8228,39.3227],[-77.8355,39.3244],[-77.8409,39.3213],[-77.8455,39.3208],[-77.8461,39.3267],[-77.8486,39.329],[-77.8586,39.3298],[-77.8621,39.3327],[-77.8693,39.3334],[-77.8682,39.3369]]]},"properties":{"objectid":1955,"tnmid":"{CACA7270-67C0-44DA-9482-8C992394BF55}","metasourceid":"{511D2AC8-11BA-45FC-AB98-F69D693D4C44}","sourcedatadesc":"Watershed Boundary Dataset (WBD)","sourceoriginator":"Natural Resources and Conservation Service and U.S. Geological Survey","sourcefeatureid":null,"loaddate":1723803860000,"referencegnis_ids":"1761078","areaacres":225173.75,"areasqkm":911.25,"states":"MD,VA,WV","huc8":"02070007","name":"Shenandoah","globalid":"{8757E86C-875B-429D-8353-CF86224A0D1A}","shape_Length":252037.73789049787,"shape_Area":1515597590.7173665}},{"type":"Feature","id":1985,"geometry":{"type":"Polygon","coordinates":[[[-76.8235,38.6901],[-76.8401,38.6976],[-76.8453,38.7052],[-76.845,38.7116],[-76.8549,38.7149],[-76.8605,38.7112],[-76.8648,38.7037],[-76.8689,38.7009],[-76.8733,38.687],[-76.8772,38.6827],[-76.8845,38.684],[-76.8867,38.6864],[-76.8928,38.6858],[-76.8984,38.6894],[-76.9013,38.687],[-76.9188,38.6856],[-76.922,38.6829],[-76.9261,38.6824],[-76.9384,38.6899],[-76.9414,38.688],[-76.9422,38.6849],[-76.9403,38.6765],[-76.9453,38.6734],[-76.9716,38.6742],[-76.978,38.669],[-77.0089,38.6697],[-77.0155,38.6724],[-77.0274,38.67],[-77.0315,38.665],[-77.0289,38.6615],[-77.0293,38.6588],[-77.0336,38.6559],[-77.0333,38.6527],[-77.0349,38.6504],[-77.0405,38.6491],[-77.0455,38.6418],[-77.0518,38.6398],[-77.0549,38.6352],[-77.0654,38.6323],[-77.077,38.6343],[-77.0837,38.6336],[-77.0946,38.6264],[-77.0978,38.6203],[-77.1052,38.6135],[-77.1184,38.6136],[-77.1283,38.6046],[-77.1384,38.6063],[-77.1439,38.6049],[-77.146,38.6015],[-77.1733,38.5989],[-77.1801,38.5951],[-77.1842,38.595],[-77.1843,38.593],[-77.1888,38.5902],[-77.1922,38.5838],[-77.2102,38.5677],[-77.2465,38.5926],[-77.2537,38.5923],[-77.2592,38.5949],[-77.2601,38.5969],[-77.2687,38.5971],[-77.2773,38.5997],[-77.2802,38.5982],[-77.2823,38.6008],[-77.2876,38.6001],[-77.2945,38.6044],[-77.297,38.6043],[-77.3005,38.6101],[-77.3046,38.6117],[-77.3085,38.6174],[-77.3172,38.6154],[-77.3245,38.6158],[-77.3294,38.617],[-77.3356,38.6224],[-77.3418,38.6215],[-77.346,38.6243],[-77.3465,38.6289],[-77.3493,38.63],[-77.3519,38.6354],[-77.3551,38.6351],[-77.3562,38.6325],[-77.3591,38.6321],[-77.3617,38.6341],[-77.3663,38.6332],[-77.3718,38.6356],[-77.3742,38.6342],[-77.3789,38.6364],[-77.3845,38.6422],[-77.3837,38.6464],[-77.3855,38.6498],[-77.3905,38.6526],[-77.3902,38.6538],[-77.3955,38.655],[-77.3952,38.6579],[-77.3972,38.6604],[-77.4011,38.6605],[-77.4043,38.6634],[-77.4122,38.6614],[-77.4143,38.6619],[-77.4147,38.6641],[-77.4237,38.6582],[-77.4275,38.6604],[-77.4307,38.6601],[-77.4352,38.6558],[-77.4403,38.6584],[-77.4445,38.6495],[-77.4439,38.6423],[-77.4466,38.6392],[-77.4556,38.6377],[-77.4564,38.6344],[-77.4595,38.6343],[-77.4614,38.6376],[-77.4649,38.6348],[-77.4647,38.6224],[-77.4688,38.6191],[-77.4712,38.6148],[-77.4751,38.6151],[-77.4781,38.6114],[-77.477,38.6098],[-77.4798,38.6073],[-77.4785,38.6045],[-77.4808,38.601],[-77.4902,38.6013],[-77.4899,38.5972],[-77.4969,38.5911],[-77.4995,38.591],[-77.4992,38.5879],[-77.505,38.5796],[-77.5151,38.5776],[-77.5168,38.5742],[-77.5278,38.5701],[-77.5284,38.5661],[-77.5322,38.5637],[-77.5325,38.5618],[-77.5299,38.5574],[-77.5264,38.5562],[-77.5306,38.5537],[-77.5367,38.5545],[-77.5621,38.544],[-77.5676,38.5398],[-77.571,38.5346],[-77.5743,38.5335],[-77.5733,38.5311],[-77.5744,38.5292],[-77.5778,38.5294],[-77.5843,38.5256],[-77.5856,38.5274],[-77.5892,38.528],[-77.5908,38.5245],[-77.5953,38.5232],[-77.5992,38.5198],[-77.6084,38.5183],[-77.6096,38.5132],[-77.605,38.5112],[-77.6006,38.5055],[-77.601,38.5018],[-77.6039,38.5001],[-77.6014,38.4965],[-77.6017,38.494],[-77.5944,38.4944],[-77.5911,38.4916],[-77.579,38.4873],[-77.5788,38.481],[-77.5811,38.4775],[-77.5777,38.474],[-77.5791,38.4695],[-77.5766,38.4592],[-77.5782,38.4547],[-77.5819,38.4545],[-77.5855,38.448],[-77.5896,38.4482],[-77.5916,38.4468],[-77.5912,38.4428],[-77.5872,38.4379],[-77.5923,38.4304],[-77.5869,38.4307],[-77.5849,38.4294],[-77.5804,38.4307],[-77.5776,38.4283],[-77.5753,38.4291],[-77.5728,38.42],[-77.5681,38.4127],[-77.5705,38.4126],[-77.574,38.409],[-77.5697,38.4062],[-77.574,38.4042],[-77.572,38.401],[-77.5702,38.4003],[-77.559,38.4061],[-77.5395,38.4111],[-77.5369,38.4096],[-77.5382,38.4078],[-77.535,38.4038],[-77.5346,38.4006],[-77.5349,38.396],[-77.5402,38.3927],[-77.5397,38.3884],[-77.532,38.3821],[-77.5217,38.3766],[-77.5121,38.378],[-77.5076,38.3741],[-77.5029,38.3734],[-77.4992,38.3709],[-77.4906,38.3719],[-77.4866,38.3681],[-77.4829,38.3701],[-77.4832,38.3722],[-77.4816,38.373],[-77.4717,38.3684],[-77.4641,38.3676],[-77.4639,38.3656],[-77.4581,38.3622],[-77.4584,38.3571],[-77.4536,38.3541],[-77.4535,38.3503],[-77.4487,38.3486],[-77.4466,38.3493],[-77.4413,38.3439],[-77.4375,38.3434],[-77.4351,38.3319],[-77.4279,38.3297],[-77.4192,38.3304],[-77.405,38.3282],[-77.398,38.3319],[-77.3931,38.3279],[-77.3881,38.3272],[-77.3867,38.3237],[-77.378,38.3235],[-77.3756,38.3255],[-77.3747,38.3229],[-77.3676,38.3217],[-77.3746,38.3089],[-77.3724,38.3075],[-77.3729,38.3055],[-77.3661,38.3046],[-77.3546,38.306],[-77.3482,38.3042],[-77.3458,38.3015],[-77.3429,38.3053],[-77.34,38.3039],[-77.3382,38.3049],[-77.3332,38.3025],[-77.3334,38.2956],[-77.327,38.2957],[-77.3246,38.2997],[-77.3208,38.2991],[-77.3188,38.3015],[-77.3149,38.2972],[-77.3124,38.297],[-77.3119,38.2989],[-77.3106,38.2988],[-77.3065,38.2965],[-77.3034,38.2969],[-77.2968,38.293],[-77.2923,38.2952],[-77.2914,38.2927],[-77.2872,38.2913],[-77.2833,38.2946],[-77.2753,38.2976],[-77.2705,38.2932],[-77.27,38.2897],[-77.2669,38.2893],[-77.264,38.2942],[-77.2566,38.2949],[-77.2523,38.2983],[-77.2494,38.2983],[-77.246,38.2937],[-77.2375,38.297],[-77.2315,38.2942],[-77.2317,38.291],[-77.2294,38.288],[-77.2253,38.286],[-77.2238,38.2821],[-77.2171,38.279],[-77.2161,38.2766],[-77.1998,38.2766],[-77.1905,38.2692],[-77.1846,38.2686],[-77.1649,38.2606],[-77.1631,38.258],[-77.1633,38.2465],[-77.1607,38.2462],[-77.1598,38.2448],[-77.1613,38.2435],[-77.157,38.2402],[-77.1528,38.2394],[-77.1496,38.2412],[-77.1501,38.239],[-77.142,38.2368],[-77.1359,38.2389],[-77.1301,38.233],[-77.1168,38.2295],[-77.1141,38.2268],[-77.1152,38.2266],[-77.1135,38.2244],[-77.1141,38.2216],[-77.1051,38.2189],[-77.09,38.2095],[-77.0874,38.2043],[-77.0892,38.2005],[-77.0861,38.1945],[-77.0704,38.1907],[-77.0663,38.1842],[-77.0616,38.1861],[-77.0434,38.184],[-77.0402,38.1796],[-77.0379,38.1791],[-77.0384,38.175],[-77.0362,38.1743],[-77.036,38.1725],[-77.0277,38.1747],[-77.0249,38.1719],[-77.0236,38.1673],[-77.0195,38.1671],[-77.0151,38.1611],[-77.0074,38.1604],[-77.0037,38.1578],[-77.0029,38.1569],[-77.0053,38.1544],[-77.0055,38.1503],[-77.0016,38.1496],[-77.0001,38.1472],[-76.9931,38.1463],[-76.9868,38.1406],[-76.9794,38.139],[-76.9815,38.1347],[-76.9732,38.1333],[-76.969,38.1354],[-76.9653,38.1307],[-76.9597,38.1354],[-76.9453,38.1375],[-76.9463,38.1411],[-76.9452,38.143],[-76.9359,38.1439],[-76.9354,38.1425],[-76.9323,38.1422],[-76.9293,38.1442],[-76.9228,38.1435],[-76.9211,38.1475],[-76.9178,38.1501],[-76.9105,38.1451],[-76.9083,38.1406],[-76.9016,38.1421],[-76.8991,38.1398],[-76.8886,38.1469],[-76.8864,38.1525],[-76.879,38.1467],[-76.8683,38.1444],[-76.8646,38.1446],[-76.8612,38.1472],[-76.856,38.1484],[-76.8548,38.1465],[-76.8486,38.1458],[-76.8394,38.1484],[-76.8346,38.1446],[-76.8302,38.1459],[-76.8287,38.1501],[-76.8226,38.1514],[-76.8195,38.1503],[-76.8149,38.1544],[-76.8098,38.1541],[-76.8106,38.1521],[-76.8067,38.1491],[-76.8035,38.1491],[-76.8039,38.1439],[-76.7993,38.1435],[-76.7982,38.1415],[-76.7945,38.1421],[-76.7912,38.1399],[-76.7974,38.1372],[-76.7998,38.1341],[-76.803,38.1341],[-76.803,38.1289],[-76.7946,38.126],[-76.7931,38.1241],[-76.7882,38.124],[-76.7834,38.1184],[-76.7842,38.116],[-76.7914,38.1156],[-76.798,38.1093],[-76.8015,38.1091],[-76.8009,38.1072],[-76.8029,38.1048],[-76.8013,38.1031],[-76.803,38.1019],[-76.7999,38.0962],[-76.7999,38.0929],[-76.7932,38.0929],[-76.7923,38.0868],[-76.7873,38.0833],[-76.7871,38.0787],[-76.7782,38.0749],[-76.7768,38.0755],[-76.7754,38.0675],[-76.78,38.0597],[-76.7728,38.0568],[-76.761,38.0547],[-76.7616,38.0504],[-76.7585,38.0507],[-76.7645,38.0392],[-76.7596,38.0352],[-76.7554,38.0358],[-76.7529,38.033],[-76.7494,38.0329],[-76.7451,38.0297],[-76.7457,38.027],[-76.7421,38.0264],[-76.7398,38.0204],[-76.7356,38.0168],[-76.7375,38.0151],[-76.7263,38.0059],[-76.7261,37.9996],[-76.7276,37.998],[-76.717,37.9937],[-76.7082,37.9961],[-76.7066,37.9927],[-76.7007,37.9918],[-76.6968,37.988],[-76.6932,37.9885],[-76.6903,37.9919],[-76.6843,37.9913],[-76.6803,37.9926],[-76.6783,37.9945],[-76.6802,37.9979],[-76.6774,37.998],[-76.6705,38.0029],[-76.6687,38.0071],[-76.6666,38.0057],[-76.6618,38.0081],[-76.6591,38.0061],[-76.6618,38.0001],[-76.6579,37.9957],[-76.6591,37.994],[-76.6574,37.9894],[-76.6551,37.9877],[-76.651,37.989],[-76.6418,37.9865],[-76.6404,37.9847],[-76.6412,37.9812],[-76.6382,37.9797],[-76.6386,37.9775],[-76.6349,37.9739],[-76.626,37.9753],[-76.62,37.973],[-76.6162,37.9641],[-76.609,37.9591],[-76.6037,37.9518],[-76.6055,37.9491],[-76.5954,37.9492],[-76.5871,37.9466],[-76.5798,37.9431],[-76.5793,37.9403],[-76.5737,37.936],[-76.5666,37.9373],[-76.5564,37.9318],[-76.5535,37.9284],[-76.5532,37.9266],[-76.5553,37.9256],[-76.5546,37.9239],[-76.5494,37.9203],[-76.5478,37.9151],[-76.546,37.9144],[-76.5476,37.9098],[-76.5447,37.9074],[-76.5429,37.9023],[-76.5367,37.9022],[-76.5303,37.8982],[-76.5167,37.9023],[-76.5041,37.891],[-76.5006,37.8931],[-76.5004,37.8948],[-76.4968,37.8935],[-76.4892,37.8994],[-76.4907,37.9046],[-76.4889,37.9094],[-76.482,37.9131],[-76.4864,37.9193],[-76.4855,37.9223],[-76.4835,37.9208],[-76.474,37.9203],[-76.4744,37.9174],[-76.4696,37.9153],[-76.4588,37.9167],[-76.4542,37.9146],[-76.4526,37.9171],[-76.4452,37.9197],[-76.4434,37.9192],[-76.4406,37.9147],[-76.4352,37.9146],[-76.4292,37.9096],[-76.4244,37.9088],[-76.4207,37.9061],[-76.4193,37.9036],[-76.4249,37.9003],[-76.4212,37.8974],[-76.4195,37.8911],[-76.4073,37.8896],[-76.3992,37.8915],[-76.3954,37.8901],[-76.3927,37.8924],[-76.3884,37.8917],[-76.3838,37.8933],[-76.379,37.8901],[-76.3798,37.8885],[-76.377,37.8876],[-76.3746,37.8895],[-76.3668,37.8881],[-76.3623,37.8918],[-76.3633,37.8935],[-76.3611,37.8956],[-76.3624,37.8993],[-76.353,37.9013],[-76.3441,37.9062],[-76.3433,37.9129],[-76.342,37.9139],[-76.3252,37.9175],[-76.3228,37.9207],[-76.3099,37.9237],[-76.305,37.9172],[-76.2995,37.9153],[-76.2745,37.9149],[-76.2605,37.902],[-76.2554,37.9013],[-76.2531,37.8966],[-76.2412,37.89],[-76.2373,37.8899],[-76.2333,37.8923],[-76.2273,37.8905],[-76.2259,37.8869],[-76.2223,37.8863],[-76.2074,37.889],[-76.2021,37.8917],[-76.1997,37.897],[-76.3212,38.0353],[-76.3224,38.0403],[-76.3212,38.044],[-76.3269,38.0623],[-76.3348,38.0636],[-76.342,38.0736],[-76.3553,38.0789],[-76.3579,38.0816],[-76.3603,38.0931],[-76.3672,38.0948],[-76.3647,38.1087],[-76.3726,38.117],[-76.3715,38.1212],[-76.3672,38.1232],[-76.3651,38.1282],[-76.3622,38.1438],[-76.364,38.1484],[-76.3694,38.1523],[-76.3756,38.1598],[-76.3783,38.1664],[-76.3813,38.1687],[-76.3789,38.1723],[-76.3848,38.179],[-76.3851,38.1865],[-76.3946,38.1938],[-76.3949,38.1962],[-76.3928,38.1978],[-76.3937,38.2015],[-76.3974,38.2039],[-76.4013,38.2136],[-76.4057,38.2137],[-76.4059,38.2178],[-76.4091,38.2198],[-76.4102,38.2243],[-76.4088,38.2339],[-76.4114,38.2373],[-76.4179,38.2399],[-76.4187,38.2442],[-76.4296,38.2507],[-76.4384,38.2601],[-76.4483,38.2622],[-76.4562,38.2674],[-76.4563,38.2705],[-76.4602,38.2708],[-76.4657,38.279],[-76.4759,38.2855],[-76.49,38.2867],[-76.4922,38.2907],[-76.4968,38.2923],[-76.502,38.2975],[-76.516,38.3012],[-76.5197,38.3035],[-76.5181,38.3053],[-76.5228,38.3052],[-76.5258,38.308],[-76.5328,38.3082],[-76.534,38.3146],[-76.5434,38.3223],[-76.5448,38.3211],[-76.5523,38.3246],[-76.5516,38.3298],[-76.5543,38.3297],[-76.5593,38.3328],[-76.5602,38.3372],[-76.5657,38.3411],[-76.5684,38.3463],[-76.5839,38.356],[-76.5896,38.3659],[-76.5885,38.3685],[-76.5943,38.3684],[-76.6061,38.3723],[-76.6092,38.3747],[-76.6082,38.377],[-76.6119,38.3806],[-76.6218,38.3799],[-76.6316,38.3858],[-76.6345,38.3854],[-76.6384,38.3885],[-76.6389,38.3936],[-76.6515,38.3935],[-76.6522,38.3964],[-76.662,38.399],[-76.6635,38.402],[-76.6798,38.4161],[-76.6842,38.4141],[-76.6896,38.4165],[-76.6929,38.4154],[-76.6966,38.4207],[-76.7018,38.4195],[-76.7056,38.4206],[-76.7123,38.4181],[-76.7153,38.4188],[-76.7169,38.422],[-76.7149,38.4242],[-76.7161,38.4263],[-76.7204,38.4266],[-76.725,38.4293],[-76.7296,38.4349],[-76.7306,38.4421],[-76.7398,38.4445],[-76.7462,38.4409],[-76.7517,38.443],[-76.7555,38.4514],[-76.7757,38.4701],[-76.7795,38.4821],[-76.7839,38.4863],[-76.7781,38.4908],[-76.7759,38.4975],[-76.7694,38.4997],[-76.7725,38.5046],[-76.7765,38.5067],[-76.7776,38.5101],[-76.7766,38.5165],[-76.773,38.5186],[-76.7729,38.5214],[-76.7816,38.5263],[-76.7801,38.5291],[-76.7853,38.5342],[-76.784,38.5374],[-76.7871,38.5386],[-76.7979,38.5483],[-76.7982,38.5506],[-76.8008,38.5524],[-76.8018,38.5586],[-76.8002,38.5641],[-76.796,38.5672],[-76.7991,38.5763],[-76.7949,38.5786],[-76.7874,38.5867],[-76.7911,38.5919],[-76.7919,38.5959],[-76.7833,38.6009],[-76.7711,38.6038],[-76.7803,38.6143],[-76.7819,38.618],[-76.7815,38.6232],[-76.7855,38.626],[-76.7859,38.6294],[-76.7816,38.6315],[-76.7755,38.6307],[-76.7717,38.6332],[-76.7675,38.633],[-76.7663,38.6425],[-76.7715,38.6503],[-76.7727,38.6595],[-76.7786,38.6607],[-76.7887,38.6706],[-76.7962,38.6713],[-76.803,38.6767],[-76.8094,38.6779],[-76.815,38.6837],[-76.8178,38.6904],[-76.8235,38.6901]]]},"properties":{"objectid":1985,"tnmid":"{A13DD60A-D35F-41D0-B0DB-438B0D0DD1CE}","metasourceid":"{511D2AC8-11BA-45FC-AB98-F69D693D4C44}","sourcedatadesc":"Watershed Boundary Dataset (WBD)","sourceoriginator":"Natural Resources and Conservation Service and U.S. Geological Survey","sourcefeatureid":null,"loaddate":1723803860000,"referencegnis_ids":"597915","areaacres":1155746.9,"areasqkm":4677.15,"states":"MD,VA","huc8":"02070011","name":"Lower Potomac","globalid":"{DD6BB416-812E-4806-B807-5E66AD2A7362}","shape_Length":592847.6823397593,"shape_Area":7611226295.147268}}]}