{"type":"FeatureCollection","features":[{"type":"Feature","properties":{"name":"Aligned Salt Lake City Campus","operator":"Aligned Data Centers","city":"West Jordan","state":"UT","status":"Active"},"geometry":{"type":"Point","coordinates":[-111.97022,40.587675]}},{"type":"Feature","properties":{"name":"B+F Timpanogos Provo Data Center","operator":"Unknown Company","city":"Provo","state":"UT","status":"Active"},"geometry":{"type":"Point","coordinates":[-111.655832,40.214216]}},{"type":"Feature","properties":{"name":"DataBank Granite Point Campus","operator":"DataBank","city":"Bluffdale","state":"UT","status":"Active"},"geometry":{"type":"Point","coordinates":[-111.903304,40.48055]}},{"type":"Feature","properties":{"name":"DataBank SLC1 - Downtown Salt Lake City","operator":"DataBank","city":"Salt Lake City","state":"UT","status":"Active"},"geometry":{"type":"Point","coordinates":[-111.885994,40.768287]}},{"type":"Feature","properties":{"name":"EdgeConneX Salt Lake City-EDCSLC01","operator":"EdgeConneX","city":"West Valley City","state":"UT","status":"Active"},"geometry":{"type":"Point","coordinates":[-111.98331,40.720179]}},{"type":"Feature","properties":{"name":"FiberState SLC1","operator":"FiberState","city":"Draper","state":"UT","status":"Active"},"geometry":{"type":"Point","coordinates":[-111.8883,40.511731]}},{"type":"Feature","properties":{"name":"Flexential Salt Lake City - Downtown Data Center","operator":"Flexential","city":"Salt Lake City","state":"UT","status":"Active"},"geometry":{"type":"Point","coordinates":[-111.953433,40.757112]}},{"type":"Feature","properties":{"name":"Flexential Salt Lake City - Millcreek Data Center","operator":"Flexential","city":"Salt Lake City","state":"UT","status":"Active"},"geometry":{"type":"Point","coordinates":[-111.885426,40.686673]}},{"type":"Feature","properties":{"name":"Flexential Salt Lake City - South Valley Data Center","operator":"Flexential","city":"West Jordan","state":"UT","status":"Active"},"geometry":{"type":"Point","coordinates":[-111.985014,40.618997]}},{"type":"Feature","properties":{"name":"Lumen Ogden 1","operator":"Lumen","city":"Ogden","state":"UT","status":"Active"},"geometry":{"type":"Point","coordinates":[-111.989746,41.236836]}},{"type":"Feature","properties":{"name":"Lumen Salt Lake City 2","operator":"Lumen","city":"Salt Lake City","state":"UT","status":"Active"},"geometry":{"type":"Point","coordinates":[-112.013282,40.781295]}},{"type":"Feature","properties":{"name":"Novva Salt Lake City","operator":"Novva","city":"West Jordan","state":"UT","status":"Active"},"geometry":{"type":"Point","coordinates":[-112.043464,40.57695]}},{"type":"Feature","properties":{"name":"Oracle Salt Lake City","operator":"Oracle","city":"Salt Lake City","state":"UT","status":"Active"},"geometry":{"type":"Point","coordinates":[-112.005741,40.736391]}},{"type":"Feature","properties":{"name":"Oracle West Jordan","operator":"Oracle","city":"West Jordan","state":"UT","status":"Active"},"geometry":{"type":"Point","coordinates":[-112.039205,40.567335]}},{"type":"Feature","properties":{"name":"Stratos Hyperscale Campus","operator":"Bitzero Blockchain Inc.","city":"Snowville","state":"UT","status":"Proposed (Phase 1)"},"geometry":{"type":"Point","coordinates":[-112.611,41.797]}},{"type":"Feature","properties":{"name":"Syringa Networks West Valley","operator":"Syringa Networks","city":"West Valley City","state":"UT","status":"Active"},"geometry":{"type":"Point","coordinates":[-111.931208,40.723637]}},{"type":"Feature","properties":{"name":"Voonami Salt Lake City Data Center","operator":"Voonami Inc","city":"West Valley City","state":"UT","status":"Active"},"geometry":{"type":"Point","coordinates":[-111.98331,40.720179]}},{"type":"Feature","properties":{"name":"WebNX Ogden","operator":"WebNX Internet Services","city":"Ogden","state":"UT","status":"Active"},"geometry":{"type":"Point","coordinates":[-111.992463,41.261894]}},{"type":"Feature","properties":{"name":"XMission Data Center","operator":"XMission","city":"Salt Lake City","state":"UT","status":"Active"},"geometry":{"type":"Point","coordinates":[-111.889392,40.760709]}}]}