{"type":"FeatureCollection","features":[{"type":"Feature","properties":{"name":"Stratos Parcel — Hansel Valley Cluster","kind":"parcel","lead":"~307 acres","precision":"digitized boundary, not surveyed"},"geometry":{"type":"Polygon","coordinates":[[[-112.642347,41.809257],[-112.642678,41.803187],[-112.63522,41.80263],[-112.635634,41.785907],[-112.628093,41.785412],[-112.627762,41.779899],[-112.604475,41.779652],[-112.603729,41.785412],[-112.597514,41.78535],[-112.597265,41.781262],[-112.595028,41.781076],[-112.592459,41.785288],[-112.587072,41.785474],[-112.58094,41.791419],[-112.58094,41.797303],[-112.588647,41.798975],[-112.585663,41.808451],[-112.610939,41.808823],[-112.611602,41.814645],[-112.611768,41.808204],[-112.586575,41.807832],[-112.589558,41.798418],[-112.58152,41.796374],[-112.581769,41.791791],[-112.58815,41.786031],[-112.593288,41.785969],[-112.595608,41.781634],[-112.596602,41.785907],[-112.604558,41.786031],[-112.605304,41.780271],[-112.627182,41.780395],[-112.627347,41.786279],[-112.634971,41.786403],[-112.634308,41.803497],[-112.641435,41.803682],[-112.641601,41.808513],[-112.626684,41.808451],[-112.626104,41.814211],[-112.614005,41.814769],[-112.627182,41.814893],[-112.627513,41.809133],[-112.642347,41.809257]]]}},{"type":"Feature","properties":{"name":"Stratos Parcel — West Cluster (near Locomotive Springs Rd)","kind":"parcel","lead":"~596 acres","precision":"digitized boundary, not surveyed"},"geometry":{"type":"Polygon","coordinates":[[[-112.742372,41.816069],[-112.74262,41.81],[-112.734499,41.809442],[-112.73483,41.804426],[-112.742123,41.804116],[-112.74204,41.79241],[-112.719251,41.791853],[-112.718919,41.786217],[-112.703008,41.786031],[-112.697041,41.790428],[-112.697041,41.797179],[-112.688671,41.797303],[-112.688257,41.785845],[-112.67997,41.785783],[-112.67997,41.79817],[-112.687263,41.798542],[-112.687594,41.803559],[-112.687263,41.808699],[-112.679639,41.808885],[-112.679887,41.820838],[-112.688589,41.820715],[-112.680467,41.820033],[-112.680384,41.809566],[-112.688257,41.809009],[-112.68834,41.798046],[-112.697787,41.797861],[-112.697787,41.791048],[-112.703505,41.789375],[-112.703754,41.786588],[-112.718091,41.786898],[-112.718339,41.792348],[-112.741294,41.793215],[-112.741377,41.80362],[-112.733422,41.80554],[-112.73367,41.810371],[-112.741626,41.810619],[-112.741543,41.815326],[-112.730438,41.815202],[-112.730024,41.821086],[-112.719748,41.820838],[-112.71751,41.809442],[-112.711378,41.809071],[-112.711378,41.803435],[-112.69787,41.803125],[-112.692069,41.817432],[-112.698036,41.803682],[-112.710549,41.804054],[-112.710632,41.809628],[-112.716765,41.81],[-112.718671,41.821458],[-112.73077,41.821705],[-112.731184,41.816069],[-112.742372,41.816069]]]}},{"type":"Feature","properties":{"name":"Stratos Parcel — North Sliver (I-84 frontage)","kind":"parcel","lead":"~143 acres","precision":"digitized boundary, not surveyed"},"geometry":{"type":"Polygon","coordinates":[[[-112.579531,41.843568],[-112.58268,41.843692],[-112.586575,41.843321],[-112.587072,41.843507],[-112.589393,41.84363],[-112.590056,41.843321],[-112.595442,41.843073],[-112.595691,41.842144],[-112.595691,41.840038],[-112.595359,41.839729],[-112.591547,41.839543],[-112.580111,41.839357],[-112.57978,41.839605],[-112.579531,41.843568]]]}},{"type":"Feature","properties":{"name":"Salt Wells Spring","kind":"source","lead":"1,900 ac-ft requested, withdrawn","precision":"coordinates approximate","source_url":"https://utahnewsdispatch.com/2026/05/07/company-withdraws-bid-for-box-elder-data-center-water/"},"geometry":{"type":"Point","coordinates":[-112.55,41.7]}}]}