{"type":"FeatureCollection","features":[{"type":"Feature","properties":{"OBJECTID_1":217,"ROCK_NAME":null,"ROCK_TYPE":999,"AQ_NAME":"Other rocks","AQ_CODE":999,"Shape_Leng":352.582128536,"Shape_Area":55.2796660627,"metro":"nyc"},"geometry":{"type":"Polygon","coordinates":[[[-73.85,40.9],[-73.85,40.815008446290086],[-73.85037225218616,40.81491464326609],[-73.85274525218824,40.817214643268244],[-73.85752125219278,40.82089964327179],[-73.86541725220013,40.82100264327187],[-73.86550925220013,40.81692164326796],[-73.86740125220194,40.813773643264994],[-73.87108625220526,40.812003643263324],[-73.87409925220823,40.812953643264336],[-73.87651025221044,40.81389264326526],[-73.88011925221372,40.81529964326637],[-73.88557425221893,40.81582264326698],[-73.8886182522217,40.81540264326645],[-73.89046525222352,40.814517643265845],[-73.89291425222564,40.81364064326499],[-73.89475225222736,40.812763643264134],[-73.89846025223096,40.81008564326157],[-73.90091725223306,40.80875364326039],[-73.9033662522354,40.80787664325953],[-73.9076312522393,40.80702564325884],[-73.91308625224451,40.807544643259234],[-73.91493225224622,40.80666364325839],[-73.91739625224841,40.80487464325665],[-73.92174525225255,40.800395643252614],[-73.9297862522601,40.79368964324635],[-73.93229725226229,40.79009264324304],[-73.93668325226645,40.783790643237126],[-73.94043725226993,40.778846643232555],[-73.9435802522728,40.773898643227994],[-73.949127252278,40.769882643224264],[-73.95348325228201,40.764942643219456],[-73.95660425228493,40.760902643215786],[-73.95971725228787,40.757305643212476],[-73.96408825229196,40.7514646432071],[-73.96414225229205,40.74919864320486],[-73.96543125229323,40.74558264320149],[-73.96611825229388,40.74196264319812],[-73.96743025229512,40.737438643193855],[-73.96810925229579,40.733821643190595],[-73.96940625229695,40.73020164318723],[-73.97067225229807,40.72750064318461],[-73.97193925229931,40.72524664318257],[-73.97381625230105,40.72254964318017],[-73.97570825230287,40.718940643176666],[-73.97817225230506,40.71715564317515],[-73.98062925230738,40.715823643173735],[-73.98307825230972,40.71494664317311],[-73.98551925231186,40.71406964317225],[-73.98857925231482,40.71274564317105],[-73.99103525231703,40.711410643169756],[-73.99286625231889,40.71052964316891],[-73.99532325232099,40.70919764316773],[-73.99780225232348,40.706954643165545],[-74.00025925232558,40.7051696431638],[-74.0033262523284,40.703845643162595],[-74.00564625233073,40.7050746431637],[-74.00564625233073,40.71278764317094],[-74.00625625233124,40.71686964317473],[-74.00625625233124,40.72095064317864],[-74.00685925233188,40.724582643181975],[-74.00686625233175,40.73047664318756],[-74.00625625233124,40.73773564319413],[-74.00383025232895,40.7413636431977],[-74.00261725232781,40.74589964320194],[-74.001632252327,40.75080464320649],[-74.00080125232626,40.75361264320895],[-74.00006825232549,40.756339643211504],[-73.9991222523247,40.75895264321389],[-73.99776425232335,40.7613186432161],[-73.9959412523217,40.76494964321955],[-73.99351525231941,40.76948964322378],[-73.99230225231827,40.773113643227134],[-73.99108925231712,40.77856064323214],[-73.98683925231308,40.785362643238614],[-73.9807662523076,40.79170964324453],[-73.97834025230532,40.795337643247876],[-73.97590625230305,40.79941964325167],[-73.9740832523014,40.80531664325713],[-73.97287025230025,40.809852643261365],[-73.96983325229735,40.813934643265156],[-73.9680102522957,40.81756164326862],[-73.96557625229343,40.822097643272855],[-73.96071625228888,40.82572964327619],[-73.95889325228723,40.82708764327754],[-73.95347625228214,40.83378564328359],[-73.95106525227993,40.8365786432862],[-73.94916525227814,40.839782643289254],[-73.94673925227585,40.843864643293045],[-73.94490825227422,40.8483996432974],[-73.94368725227287,40.852031643300734],[-73.9411162522706,40.85587664330433],[-73.93911725226872,40.85862364330683],[-73.93639325226627,40.862006643309996],[-73.93396025226389,40.86563464331334],[-73.93152625226162,40.86971664331713],[-73.92848225225885,40.87515664332227],[-73.92604825225658,40.87923764332595],[-73.92238625225309,40.88785564333398],[-73.91934225225032,40.89102964333688],[-73.91725925224841,40.894584643340295],[-73.91519925224634,40.899482643344754],[-73.91504366265241,40.9],[-73.85,40.9]],[[-73.85791025219305,40.88328164332984],[-73.85,40.885898663273004],[-73.85,40.9],[-73.87768150675903,40.9],[-73.87071225220507,40.89167064333765],[-73.85791025219305,40.88328164332984]]]}},{"type":"Feature","properties":{"OBJECTID_1":1684,"ROCK_NAME":"Sandstone aquifers","ROCK_TYPE":300,"AQ_NAME":"Early Mesozoic basin aquifers","AQ_CODE":308,"Shape_Leng":9.83660287195,"Shape_Area":1.09473563786,"metro":"nyc"},"geometry":{"type":"Polygon","coordinates":[[[-74.0033262523284,40.703845643162595],[-74.00885025233356,40.700282643159426],[-74.01248925233699,40.70032464315932],[-74.01549525233986,40.70172164316068],[-74.02701525235057,40.70268664316154],[-74.03459125235759,40.70377364316255],[-74.0364382523594,40.701057643160084],[-74.03765825236042,40.69924964315828],[-74.04314425236566,40.69563664315501],[-74.04557025236795,40.69428664315387],[-74.04863025237069,40.690669643150386],[-74.05229225237417,40.68614564314612],[-74.0559232523774,40.68570664314575],[-74.06259925238373,40.6857266431457],[-74.06563525238653,40.684829643144894],[-74.06747425238837,40.681663643141974],[-74.06871825238932,40.67622364313684],[-74.07540125239575,40.672618643133546],[-74.08146625240124,40.67263764313361],[-74.0863192524057,40.67084164313201],[-74.08331325240306,40.667201643128465],[-74.07846825239858,40.665370643126835],[-74.07122025239164,40.66307864312466],[-74.068214252389,40.65853464312045],[-74.07125825239177,40.65673064311886],[-74.07489025239511,40.65764664311973],[-74.07851425239846,40.65856964312047],[-74.08214525240192,40.65948864312145],[-74.0918272524109,40.66223864312383],[-74.0966642524154,40.66316264312468],[-74.09972425241835,40.65909164312097],[-74.09791525241667,40.65636464311842],[-74.09308625241215,40.6536256431159],[-74.09128525241044,40.65044364311302],[-74.0923327430939,40.65],[-74.1,40.65],[-74.1,40.69340998916332],[-74.09890725241758,40.6958276431551],[-74.0988922524175,40.699001643158226],[-74.1,40.70723812841528],[-74.1,40.9],[-73.91504366265241,40.9],[-73.91519925224634,40.899482643344754],[-73.91725925224841,40.894584643340295],[-73.91934225225032,40.89102964333688],[-73.92238625225309,40.88785564333398],[-73.92604825225658,40.87923764332595],[-73.92848225225885,40.87515664332227],[-73.93152625226162,40.86971664331713],[-73.93396025226389,40.86563464331334],[-73.93639325226627,40.862006643309996],[-73.93911725226872,40.85862364330683],[-73.9411162522706,40.85587664330433],[-73.94368725227287,40.852031643300734],[-73.94490825227422,40.8483996432974],[-73.94673925227585,40.843864643293045],[-73.94916525227814,40.839782643289254],[-73.95106525227993,40.8365786432862],[-73.95347625228214,40.83378564328359],[-73.95889325228723,40.82708764327754],[-73.96071625228888,40.82572964327619],[-73.96557625229343,40.822097643272855],[-73.9680102522957,40.81756164326862],[-73.96983325229735,40.813934643265156],[-73.97287025230025,40.809852643261365],[-73.9740832523014,40.80531664325713],[-73.97590625230305,40.79941964325167],[-73.97834025230532,40.795337643247876],[-73.9807662523076,40.79170964324453],[-73.98683925231308,40.785362643238614],[-73.99108925231712,40.77856064323214],[-73.99230225231827,40.773113643227134],[-73.99351525231941,40.76948964322378],[-73.9959412523217,40.76494964321955],[-73.99776425232335,40.7613186432161],[-73.9991222523247,40.75895264321389],[-74.00006825232549,40.756339643211504],[-74.00080125232626,40.75361264320895],[-74.001632252327,40.75080464320649],[-74.00261725232781,40.74589964320194],[-74.00383025232895,40.7413636431977],[-74.00625625233124,40.73773564319413],[-74.00686625233175,40.73047664318756],[-74.00685925233188,40.724582643181975],[-74.00625625233124,40.72095064317864],[-74.00625625233124,40.71686964317473],[-74.00564525233062,40.71278764317094],[-74.00564525233062,40.7050746431637],[-74.0033262523284,40.703845643162595]]]}},{"type":"Feature","properties":{"OBJECTID_1":1689,"ROCK_NAME":"Carbonate-rock aquifers","ROCK_TYPE":400,"AQ_NAME":"New York and New England carbonate-rock aquifers","AQ_CODE":416,"Shape_Leng":1.27845011515,"Shape_Area":0.0154759839918,"metro":"nyc"},"geometry":{"type":"Polygon","coordinates":[[[-73.85791025219305,40.88328164332984],[-73.87071225220507,40.89167064333765],[-73.87768150675903,40.9],[-73.85,40.9],[-73.85,40.885898663273004],[-73.85791025219305,40.88328164332984]]]}},{"type":"Feature","properties":{"OBJECTID_1":1699,"ROCK_NAME":"Semiconsolidated sand aquifers","ROCK_TYPE":200,"AQ_NAME":"Northern Atlantic Coastal Plain aquifer system","AQ_CODE":205,"Shape_Leng":9.51861316188,"Shape_Area":0.369046856527,"metro":"nyc"},"geometry":{"type":"Polygon","coordinates":[[[-73.85,40.65],[-73.85,40.65],[-73.85,40.6506435050009],[-73.85088844379763,40.65],[-74.02119036659407,40.65],[-74.01583825234025,40.65636464311842],[-73.99988525232538,40.66569864312714],[-74.01013925233497,40.66809064312929],[-74.0142902523387,40.67221864313319],[-74.01658625234086,40.678596643139144],[-74.0097882523346,40.68441364314458],[-74.0011982523265,40.68975864314962],[-73.99438525232017,40.69602964315527],[-73.98637425231277,40.70273964316152],[-73.98330725230994,40.704063643162954],[-73.9667742522945,40.71157864316979],[-73.95994525228821,40.71875364317657],[-73.9573822522857,40.725070643182335],[-73.95403325228267,40.73954764319592],[-73.9508442522797,40.746764643202596],[-73.94821925227711,40.75580964321102],[-73.94140625227078,40.76207364321681],[-73.93520325226518,40.76835264322267],[-73.92637625225689,40.78321464323653],[-73.91525225224655,40.7921486432449],[-73.89875025223114,40.79692864324943],[-73.89451625222728,40.796420643248894],[-73.8909382522238,40.7936596432462],[-73.88556625221895,40.78950464324248],[-73.88312525221659,40.789928643242774],[-73.87886025221269,40.790778643243584],[-73.87152125220587,40.79295364324571],[-73.86486825219959,40.791965643244794],[-73.86190825219683,40.78875364324176],[-73.86022225219517,40.782832643236134],[-73.85553025219087,40.77596664322982],[-73.85,40.77677770366257],[-73.85,40.785190675295155],[-73.85102825218678,40.786796643239995],[-73.85212725218776,40.791801643244526],[-73.85,40.79244975933166],[-73.85,40.65]]]}}]}