{"type":"FeatureCollection","features":[{"type":"Feature","properties":{"name":"365 Data Centers - New York 1","operator":"365 Data Centers","city":"New York","state":"NY","status":"Active"},"geometry":{"type":"Point","coordinates":[-74.012481,40.706907]}},{"type":"Feature","properties":{"name":"365 Data Centers - New York 2","operator":"365 Data Centers","city":"New York","state":"NY","status":"Active"},"geometry":{"type":"Point","coordinates":[-74.007478,40.72682]}},{"type":"Feature","properties":{"name":"365 Data Centers - New York 3","operator":"365 Data Centers","city":"New York","state":"NY","status":"Active"},"geometry":{"type":"Point","coordinates":[-74.005994,40.724935]}},{"type":"Feature","properties":{"name":"365 Data Centers - New York 4","operator":"365 Data Centers","city":"New York","state":"NY","status":"Active"},"geometry":{"type":"Point","coordinates":[-74.005111,40.719893]}},{"type":"Feature","properties":{"name":"Arbinet 75 Broad St","operator":"Arbinet (Zenfi Networks)","city":"New York","state":"NY","status":"Active"},"geometry":{"type":"Point","coordinates":[-74.01149,40.704435]}},{"type":"Feature","properties":{"name":"AT&T New York","operator":"AT&T","city":"New York","state":"NY","status":"Active"},"geometry":{"type":"Point","coordinates":[-73.990069,40.767161]}},{"type":"Feature","properties":{"name":"CherryRoad NYC3","operator":"CherryRoad Technologies","city":"New York","state":"NY","status":"Active"},"geometry":{"type":"Point","coordinates":[-74.000694,40.710859]}},{"type":"Feature","properties":{"name":"Cogent Data Center - New York","operator":"Cogent Communications, Inc.","city":"New York","state":"NY","status":"Active"},"geometry":{"type":"Point","coordinates":[-74.014037,40.705047]}},{"type":"Feature","properties":{"name":"Colocation America NYDC1","operator":"Colocation America","city":"New York","state":"NY","status":"Active"},"geometry":{"type":"Point","coordinates":[-74.008819,40.718205]}},{"type":"Feature","properties":{"name":"Colocation America NYDC2","operator":"Colocation America","city":"New York","state":"NY","status":"Active"},"geometry":{"type":"Point","coordinates":[-74.001768,40.740907]}},{"type":"Feature","properties":{"name":"CoreSite New York (NY1)","operator":"CoreSite","city":"New York","state":"NY","status":"Active"},"geometry":{"type":"Point","coordinates":[-74.005111,40.719893]}},{"type":"Feature","properties":{"name":"Crown Castle New York - 60 Hudson St","operator":"Crown Castle","city":"New York","state":"NY","status":"Active"},"geometry":{"type":"Point","coordinates":[-74.008819,40.718205]}},{"type":"Feature","properties":{"name":"Crown Castle New York (NY1)","operator":"Crown Castle","city":"New York","state":"NY","status":"Active"},"geometry":{"type":"Point","coordinates":[-74.001768,40.740907]}},{"type":"Feature","properties":{"name":"DataBank LGA1 - Downtown New York City","operator":"DataBank","city":"New York","state":"NY","status":"Active"},"geometry":{"type":"Point","coordinates":[-74.008819,40.718205]}},{"type":"Feature","properties":{"name":"DataBank LGA2 - Downtown New York City","operator":"DataBank","city":"New York","state":"NY","status":"Active"},"geometry":{"type":"Point","coordinates":[-74.001768,40.740907]}},{"type":"Feature","properties":{"name":"Dataverge NY","operator":"Dataverge","city":"Brooklyn","state":"NY","status":"Active"},"geometry":{"type":"Point","coordinates":[-74.004628,40.657626]}},{"type":"Feature","properties":{"name":"Digital Realty 111 Eighth Avenue (JFK10)","operator":"Digital Realty","city":"New York","state":"NY","status":"Active"},"geometry":{"type":"Point","coordinates":[-74.001768,40.740907]}},{"type":"Feature","properties":{"name":"Digital Realty 32 Avenue of the Americas (JFK13)","operator":"Digital Realty","city":"New York","state":"NY","status":"Active"},"geometry":{"type":"Point","coordinates":[-74.005111,40.719893]}},{"type":"Feature","properties":{"name":"Digital Realty 60 Hudson Street (JFK12)","operator":"Digital Realty","city":"New York","state":"NY","status":"Active"},"geometry":{"type":"Point","coordinates":[-74.008819,40.718205]}},{"type":"Feature","properties":{"name":"Epsilon Global Hubs - New York","operator":"Epsilon","city":"New York","state":"NY","status":"Active"},"geometry":{"type":"Point","coordinates":[-74.008819,40.718205]}},{"type":"Feature","properties":{"name":"Equinix NY9","operator":"Equinix","city":"New York","state":"NY","status":"Active"},"geometry":{"type":"Point","coordinates":[-74.001768,40.740907]}},{"type":"Feature","properties":{"name":"EXA DC New York","operator":"EXA Infrastructure","city":"New York","state":"NY","status":"Active"},"geometry":{"type":"Point","coordinates":[-74.008819,40.718205]}},{"type":"Feature","properties":{"name":"H5 Data Centers New York","operator":"H5 Data Centers","city":"New York","state":"NY","status":"Active"},"geometry":{"type":"Point","coordinates":[-74.007478,40.72682]}},{"type":"Feature","properties":{"name":"Hudson InterXchange","operator":"Hudson InterXchange","city":"New York","state":"NY","status":"Active"},"geometry":{"type":"Point","coordinates":[-74.008819,40.718205]}},{"type":"Feature","properties":{"name":"Lumen New York 1","operator":"Lumen","city":"New York","state":"NY","status":"Active"},"geometry":{"type":"Point","coordinates":[-74.001768,40.740907]}},{"type":"Feature","properties":{"name":"Lumen New York 2","operator":"Lumen","city":"New York","state":"NY","status":"Active"},"geometry":{"type":"Point","coordinates":[-74.00566,40.750864]}},{"type":"Feature","properties":{"name":"Lumen New York 3","operator":"Lumen","city":"New York","state":"NY","status":"Active"},"geometry":{"type":"Point","coordinates":[-74.005592,40.726368]}},{"type":"Feature","properties":{"name":"Metanet Chelsea","operator":"Metanet","city":"New York","state":"NY","status":"Active"},"geometry":{"type":"Point","coordinates":[-74.00734,40.743446]}},{"type":"Feature","properties":{"name":"Metanet New York","operator":"Metanet","city":"New York","state":"NY","status":"Active"},"geometry":{"type":"Point","coordinates":[-74.001768,40.740907]}},{"type":"Feature","properties":{"name":"NaviSite New York","operator":"NaviSite, Inc.","city":"New York","state":"NY","status":"Active"},"geometry":{"type":"Point","coordinates":[-74.007154,40.728836]}},{"type":"Feature","properties":{"name":"New York Connect Data Center","operator":"New York Connect","city":"New York","state":"NY","status":"Active"},"geometry":{"type":"Point","coordinates":[-74.001768,40.740907]}},{"type":"Feature","properties":{"name":"NYI - NY2","operator":"New York Internet (NYI)","city":"New York","state":"NY","status":"Active"},"geometry":{"type":"Point","coordinates":[-74.008819,40.718205]}},{"type":"Feature","properties":{"name":"QTD Systems","operator":"QTD Systems","city":"New York","state":"NY","status":"Active"},"geometry":{"type":"Point","coordinates":[-74.008819,40.718205]}},{"type":"Feature","properties":{"name":"SDC Manhattan","operator":"Sabey Data Center Properties LLC","city":"New York","state":"NY","status":"Active"},"geometry":{"type":"Point","coordinates":[-74.000694,40.710859]}},{"type":"Feature","properties":{"name":"Tata Communications New York","operator":"Tata Communications","city":"New York","state":"NY","status":"Active"},"geometry":{"type":"Point","coordinates":[-74.005111,40.719893]}},{"type":"Feature","properties":{"name":"TELEHOUSE Briad Financial Center","operator":"KDDI (Telehouse)","city":"New York","state":"NY","status":"Active"},"geometry":{"type":"Point","coordinates":[-74.012972,40.70332]}},{"type":"Feature","properties":{"name":"TELEHOUSE New York Chelsea","operator":"KDDI (Telehouse)","city":"New York","state":"NY","status":"Active"},"geometry":{"type":"Point","coordinates":[-74.00734,40.743446]}},{"type":"Feature","properties":{"name":"TeliaSonera NYKE","operator":"Telia Company","city":"New York","state":"NY","status":"Active"},"geometry":{"type":"Point","coordinates":[-74.001768,40.740907]}},{"type":"Feature","properties":{"name":"Uniti New York 2","operator":"Uniti Group","city":"New York","state":"NY","status":"Active"},"geometry":{"type":"Point","coordinates":[-74.00566,40.750864]}}]}