{"type":"FeatureCollection","features":[{"type":"Feature","properties":{"huc12":"020301040203","name":"Newark Bay"},"geometry":{"type":"Polygon","coordinates":[[[-74.1159,40.7173],[-74.1231,40.7135],[-74.1307,40.7133],[-74.1395,40.7158],[-74.1417,40.7185],[-74.1377,40.7243],[-74.1376,40.7261],[-74.1395,40.7274],[-74.1452,40.7278],[-74.1527,40.7247],[-74.1556,40.7248],[-74.1769,40.7386],[-74.1854,40.7416],[-74.1952,40.7417],[-74.2057,40.7392],[-74.2106,40.7326],[-74.2108,40.7275],[-74.2097,40.7209],[-74.2029,40.7112],[-74.204,40.7086],[-74.2115,40.7022],[-74.2113,40.6983],[-74.2102,40.6974],[-74.2127,40.6948],[-74.2146,40.6876],[-74.209,40.6844],[-74.2023,40.6661],[-74.2011,40.6562],[-74.1956,40.6516],[-74.185,40.6529],[-74.1807,40.6507],[-74.1455,40.6446],[-74.1325,40.6529],[-74.1217,40.6639],[-74.1189,40.6705],[-74.1119,40.6756],[-74.1071,40.6814],[-74.105,40.6871],[-74.0996,40.6912],[-74.099,40.6932],[-74.0922,40.6996],[-74.0912,40.7041],[-74.0924,40.7052],[-74.1075,40.712],[-74.1159,40.7173]]]}},{"type":"Feature","properties":{"huc12":"020301040505","name":"Town of Coney Island-Frontal Gravesend Bay"},"geometry":{"type":"Polygon","coordinates":[[[-73.9918,40.6503],[-73.9931,40.6515],[-73.9948,40.6503],[-73.9967,40.6509],[-74.0048,40.6471],[-74.0123,40.6398],[-74.0183,40.6397],[-74.0225,40.6381],[-74.0227,40.6361],[-74.0275,40.632],[-74.0278,40.6277],[-74.033,40.6217],[-74.0302,40.6186],[-74.0313,40.6158],[-74.035,40.6097],[-74.0384,40.6086],[-74.0319,40.6036],[-74.0165,40.601],[-74.0093,40.5985],[-74.0046,40.5948],[-74.0035,40.593],[-74.0039,40.5898],[-74.0007,40.5896],[-74.0016,40.5876],[-74.006,40.5855],[-74.0079,40.5825],[-74.0143,40.5788],[-74.0141,40.5755],[-74.0095,40.5703],[-73.9917,40.5697],[-73.9891,40.5675],[-73.9866,40.5671],[-73.9858,40.5687],[-73.9803,40.5694],[-73.9739,40.5659],[-73.9555,40.5662],[-73.9617,40.5772],[-73.9601,40.5824],[-73.9605,40.5909],[-73.9587,40.5978],[-73.9614,40.6024],[-73.9686,40.6242],[-73.9706,40.626],[-73.9802,40.6281],[-73.9903,40.6424],[-73.9927,40.6478],[-73.9918,40.6503]]]}},{"type":"Feature","properties":{"huc12":"020301020105","name":"Westchester Creek-East River"},"geometry":{"type":"Polygon","coordinates":[[[-73.853,40.8817],[-73.8554,40.8827],[-73.8625,40.8803],[-73.8661,40.8759],[-73.8657,40.8728],[-73.8629,40.8695],[-73.8594,40.8664],[-73.8568,40.866],[-73.8568,40.8564],[-73.8585,40.853],[-73.8565,40.8501],[-73.8582,40.848],[-73.8587,40.8423],[-73.8702,40.8395],[-73.8792,40.8338],[-73.8771,40.8249],[-73.8616,40.8171],[-73.8593,40.8138],[-73.8558,40.8127],[-73.8549,40.8094],[-73.8558,40.8065],[-73.8587,40.8058],[-73.8741,40.8073],[-73.8849,40.8143],[-73.8883,40.8173],[-73.8899,40.8207],[-73.8894,40.8394],[-73.8946,40.8422],[-73.8867,40.8524],[-73.8862,40.858],[-73.885,40.8581],[-73.8792,40.8657],[-73.8807,40.8745],[-73.8782,40.8782],[-73.8796,40.8816],[-73.9006,40.8685],[-73.9032,40.8623],[-73.9006,40.856],[-73.902,40.8507],[-73.9048,40.8461],[-73.9159,40.8345],[-73.9256,40.8191],[-73.9258,40.8138],[-73.9231,40.8062],[-73.917,40.7985],[-73.9128,40.7969],[-73.9097,40.7906],[-73.9092,40.7838],[-73.9108,40.78],[-73.9127,40.7787],[-73.9108,40.7771],[-73.9113,40.7735],[-73.9093,40.7694],[-73.914,40.7627],[-73.9112,40.7513],[-73.9128,40.749],[-73.9104,40.7464],[-73.9104,40.7441],[-73.9056,40.7447],[-73.8961,40.7422],[-73.8909,40.7421],[-73.8886,40.7445],[-73.8829,40.7469],[-73.8815,40.7511],[-73.8785,40.7542],[-73.8724,40.7559],[-73.8666,40.7593],[-73.865,40.7617],[-73.8716,40.7672],[-73.8764,40.7686],[-73.8771,40.7717],[-73.8765,40.7788],[-73.8698,40.7853],[-73.8531,40.785],[-73.8498,40.7876],[-73.8456,40.7873],[-73.8422,40.7853],[-73.8214,40.787],[-73.8184,40.7804],[-73.8145,40.7786],[-73.8128,40.7756],[-73.8103,40.7751],[-73.8107,40.7693],[-73.8097,40.7674],[-73.8015,40.7639],[-73.7976,40.7641],[-73.7948,40.7696],[-73.7909,40.7719],[-73.7831,40.7725],[-73.7841,40.7801],[-73.7795,40.7855],[-73.7793,40.7896],[-73.7809,40.7909],[-73.7787,40.7947],[-73.7907,40.805],[-73.8067,40.8108],[-73.8092,40.8135],[-73.8095,40.8165],[-73.8158,40.821],[-73.8208,40.8266],[-73.8258,40.8273],[-73.8276,40.8326],[-73.8329,40.8355],[-73.8351,40.8394],[-73.835,40.8417],[-73.8328,40.8445],[-73.8328,40.8472],[-73.83,40.8485],[-73.8325,40.8554],[-73.8435,40.8633],[-73.8442,40.8717],[-73.8485,40.8795],[-73.853,40.8817]]]}},{"type":"Feature","properties":{"huc12":"020301020201","name":"Hutchinson River-Eastchester Bay"},"geometry":{"type":"Polygon","coordinates":[[[-73.7796,40.9873],[-73.7806,40.9896],[-73.7821,40.99],[-73.7874,40.9873],[-73.7919,40.9878],[-73.7976,40.9849],[-73.7987,40.9825],[-73.7973,40.9775],[-73.7979,40.9753],[-73.8001,40.9737],[-73.8033,40.9735],[-73.8075,40.9694],[-73.8149,40.9537],[-73.8174,40.953],[-73.8169,40.9484],[-73.8207,40.9459],[-73.8206,40.9382],[-73.8227,40.9357],[-73.8203,40.931],[-73.82,40.9272],[-73.8296,40.9201],[-73.8297,40.9183],[-73.8343,40.9142],[-73.8337,40.9063],[-73.8347,40.9049],[-73.8331,40.9017],[-73.8351,40.8961],[-73.8388,40.8935],[-73.8383,40.8902],[-73.8415,40.8891],[-73.8414,40.8873],[-73.8475,40.884],[-73.8536,40.8846],[-73.8549,40.8826],[-73.8485,40.8795],[-73.844,40.8713],[-73.8435,40.8633],[-73.8325,40.8554],[-73.83,40.8485],[-73.8328,40.8472],[-73.8328,40.8445],[-73.835,40.8417],[-73.8351,40.8394],[-73.8329,40.8355],[-73.8276,40.8326],[-73.8258,40.8273],[-73.8208,40.8266],[-73.8158,40.821],[-73.8095,40.8165],[-73.8092,40.8135],[-73.8067,40.8108],[-73.7907,40.805],[-73.7914,40.8128],[-73.7898,40.8155],[-73.7874,40.8359],[-73.7839,40.8373],[-73.788,40.8457],[-73.7861,40.8497],[-73.7897,40.8542],[-73.7984,40.8588],[-73.7988,40.8644],[-73.8046,40.8653],[-73.8109,40.8687],[-73.8098,40.874],[-73.8118,40.8842],[-73.81,40.8874],[-73.8129,40.8945],[-73.8047,40.8971],[-73.8014,40.9001],[-73.8031,40.901],[-73.803,40.9028],[-73.8046,40.9045],[-73.7982,40.9105],[-73.7986,40.9131],[-73.797,40.9144],[-73.7983,40.9214],[-73.7972,40.9272],[-73.7979,40.931],[-73.7946,40.9337],[-73.7962,40.9378],[-73.7943,40.9401],[-73.795,40.945],[-73.7972,40.9479],[-73.7938,40.9495],[-73.7964,40.9612],[-73.7925,40.9652],[-73.784,40.967],[-73.7827,40.9705],[-73.7862,40.9814],[-73.7817,40.9842],[-73.7796,40.9873]]]}},{"type":"Feature","properties":{"huc12":"020301040503","name":"Island Channel-Jamaica Bay"},"geometry":{"type":"Polygon","coordinates":[[[-73.8349,40.7079],[-73.836,40.7085],[-73.8379,40.7061],[-73.8432,40.7052],[-73.8448,40.7019],[-73.848,40.7032],[-73.8542,40.7032],[-73.8607,40.6996],[-73.8605,40.6976],[-73.8723,40.6956],[-73.8796,40.6915],[-73.8842,40.6922],[-73.8893,40.6904],[-73.891,40.6851],[-73.8943,40.6851],[-73.8992,40.6817],[-73.9028,40.6823],[-73.9059,40.6795],[-73.9129,40.6773],[-73.9146,40.6753],[-73.9206,40.6741],[-73.9305,40.6685],[-73.9476,40.6669],[-73.9546,40.6697],[-73.964,40.6714],[-73.9681,40.6702],[-73.9698,40.6682],[-73.9688,40.6651],[-73.9709,40.664],[-73.9702,40.6628],[-73.9715,40.6612],[-73.9815,40.6614],[-73.9827,40.6578],[-73.9873,40.6548],[-73.9922,40.6498],[-73.9927,40.6478],[-73.9855,40.6349],[-73.9792,40.6273],[-73.9636,40.6241],[-73.9579,40.6241],[-73.9476,40.619],[-73.9407,40.6181],[-73.9367,40.6157],[-73.9265,40.6035],[-73.9154,40.6034],[-73.8908,40.581],[-73.8943,40.5791],[-73.8949,40.5767],[-73.8916,40.5662],[-73.8854,40.5618],[-73.8802,40.5634],[-73.8779,40.5668],[-73.8741,40.567],[-73.8684,40.5694],[-73.8626,40.5679],[-73.8285,40.5814],[-73.8194,40.5827],[-73.8151,40.5844],[-73.8192,40.59],[-73.8209,40.5961],[-73.8192,40.6113],[-73.825,40.6193],[-73.8295,40.6339],[-73.8357,40.6427],[-73.8383,40.653],[-73.8437,40.6552],[-73.8475,40.659],[-73.8486,40.662],[-73.8452,40.6662],[-73.8412,40.6743],[-73.8424,40.6855],[-73.8401,40.6887],[-73.8344,40.6913],[-73.8326,40.6973],[-73.8287,40.704],[-73.8297,40.7065],[-73.8349,40.7079]]]}},{"type":"Feature","properties":{"huc12":"020301020103","name":"Lower Bronx River"},"geometry":{"type":"Polygon","coordinates":[[[-73.8145,40.9627],[-73.8163,40.9629],[-73.822,40.9518],[-73.8306,40.945],[-73.8314,40.9391],[-73.8372,40.9374],[-73.8385,40.9341],[-73.8433,40.9349],[-73.8503,40.9401],[-73.851,40.9424],[-73.8558,40.9452],[-73.8627,40.9346],[-73.8652,40.9336],[-73.8644,40.9289],[-73.8702,40.9234],[-73.87,40.9218],[-73.8723,40.9185],[-73.8729,40.9126],[-73.8762,40.9081],[-73.8788,40.9069],[-73.8788,40.9056],[-73.8739,40.9043],[-73.8727,40.9026],[-73.8733,40.898],[-73.8784,40.896],[-73.8821,40.886],[-73.88,40.8837],[-73.8782,40.8782],[-73.8807,40.8745],[-73.8792,40.8657],[-73.885,40.8581],[-73.8862,40.858],[-73.8867,40.8524],[-73.8946,40.842],[-73.8894,40.8394],[-73.8888,40.8338],[-73.8904,40.8278],[-73.8886,40.8178],[-73.8741,40.8073],[-73.8587,40.8058],[-73.8556,40.8068],[-73.8549,40.8094],[-73.8558,40.8127],[-73.8593,40.8138],[-73.8616,40.8171],[-73.8771,40.8249],[-73.8792,40.8338],[-73.8702,40.8395],[-73.8587,40.8423],[-73.8582,40.848],[-73.8565,40.8501],[-73.8585,40.853],[-73.8568,40.8564],[-73.8568,40.866],[-73.8594,40.8664],[-73.8629,40.8695],[-73.8657,40.8728],[-73.8661,40.8759],[-73.8625,40.8803],[-73.8549,40.8826],[-73.8536,40.8846],[-73.848,40.8838],[-73.8459,40.8857],[-73.8425,40.8864],[-73.8415,40.8891],[-73.8383,40.8902],[-73.8388,40.8935],[-73.8351,40.8961],[-73.8331,40.9017],[-73.8347,40.9049],[-73.8337,40.9063],[-73.8343,40.9142],[-73.8297,40.9183],[-73.8296,40.9201],[-73.82,40.9272],[-73.8227,40.9364],[-73.8206,40.9382],[-73.8207,40.9459],[-73.8169,40.9484],[-73.8174,40.953],[-73.8152,40.9533],[-73.8109,40.9616],[-73.8123,40.9628],[-73.8145,40.9627]]]}},{"type":"Feature","properties":{"huc12":"020301020104","name":"Flushing Creek-Flushing Bay"},"geometry":{"type":"Polygon","coordinates":[[[-73.8486,40.7874],[-73.8506,40.7874],[-73.8531,40.785],[-73.8698,40.7853],[-73.8765,40.7788],[-73.8764,40.7686],[-73.8716,40.7672],[-73.8649,40.7615],[-73.8724,40.7559],[-73.8791,40.7537],[-73.8815,40.7511],[-73.8829,40.7469],[-73.8918,40.7419],[-73.9062,40.7447],[-73.9104,40.7441],[-73.9111,40.7427],[-73.9067,40.7359],[-73.9004,40.7339],[-73.8948,40.7291],[-73.8918,40.7294],[-73.8895,40.727],[-73.8861,40.7273],[-73.8859,40.7257],[-73.8934,40.7209],[-73.8964,40.7169],[-73.8956,40.7152],[-73.89,40.7146],[-73.89,40.713],[-73.8831,40.7103],[-73.8794,40.6977],[-73.8808,40.6956],[-73.8802,40.6943],[-73.8842,40.6922],[-73.8796,40.6915],[-73.8723,40.6956],[-73.8605,40.6976],[-73.8607,40.6996],[-73.8542,40.7032],[-73.848,40.7032],[-73.8448,40.7019],[-73.8435,40.705],[-73.8379,40.7061],[-73.8351,40.7105],[-73.8327,40.7116],[-73.8217,40.7111],[-73.817,40.7134],[-73.8028,40.713],[-73.7959,40.7153],[-73.7919,40.7148],[-73.7897,40.7158],[-73.7891,40.7176],[-73.7792,40.7202],[-73.7706,40.7196],[-73.7632,40.7253],[-73.7537,40.7273],[-73.7473,40.732],[-73.7486,40.7349],[-73.7443,40.7391],[-73.744,40.7413],[-73.7473,40.7419],[-73.7508,40.7405],[-73.7591,40.7424],[-73.7615,40.7476],[-73.7668,40.7519],[-73.7658,40.7544],[-73.7676,40.7569],[-73.7702,40.7593],[-73.7775,40.7616],[-73.7831,40.7725],[-73.7909,40.7719],[-73.7948,40.7696],[-73.7976,40.7641],[-73.8022,40.764],[-73.8097,40.7674],[-73.8107,40.7693],[-73.8103,40.7751],[-73.8128,40.7756],[-73.8145,40.7786],[-73.8184,40.7804],[-73.8214,40.787],[-73.8422,40.7853],[-73.8456,40.7873],[-73.8486,40.7874]]]}},{"type":"Feature","properties":{"huc12":"020301030803","name":"Weasel Brook-Passaic River"},"geometry":{"type":"Polygon","coordinates":[[[-74.116,40.9528],[-74.1172,40.9561],[-74.122,40.9611],[-74.1233,40.9665],[-74.1194,40.9724],[-74.1221,40.9763],[-74.1211,40.9848],[-74.1195,40.9878],[-74.1239,40.9928],[-74.1315,40.9947],[-74.1318,40.9912],[-74.135,40.9874],[-74.1392,40.9784],[-74.1462,40.9697],[-74.1453,40.9687],[-74.1483,40.9532],[-74.1507,40.9505],[-74.1543,40.9502],[-74.1616,40.9413],[-74.1628,40.9331],[-74.1598,40.9327],[-74.1576,40.9304],[-74.1513,40.9317],[-74.1537,40.9268],[-74.1584,40.9231],[-74.1612,40.9226],[-74.1608,40.9181],[-74.1579,40.9162],[-74.1596,40.9119],[-74.1612,40.9113],[-74.1623,40.908],[-74.1662,40.9051],[-74.1736,40.9028],[-74.1777,40.894],[-74.1815,40.8895],[-74.1802,40.8855],[-74.1839,40.8822],[-74.1875,40.8757],[-74.186,40.8741],[-74.186,40.8693],[-74.1817,40.8645],[-74.1796,40.8575],[-74.1738,40.8513],[-74.1657,40.8519],[-74.1585,40.8606],[-74.1492,40.8654],[-74.1436,40.862],[-74.1411,40.8589],[-74.1282,40.8542],[-74.1277,40.8579],[-74.125,40.8609],[-74.1225,40.861],[-74.1194,40.859],[-74.1182,40.8617],[-74.1154,40.8626],[-74.1066,40.8627],[-74.1064,40.8654],[-74.1029,40.867],[-74.0937,40.8795],[-74.0912,40.8892],[-74.0918,40.8906],[-74.0967,40.8927],[-74.0955,40.8967],[-74.1063,40.8984],[-74.1055,40.9026],[-74.1093,40.9096],[-74.1082,40.9137],[-74.1089,40.916],[-74.1072,40.9195],[-74.1083,40.926],[-74.115,40.9291],[-74.1156,40.9328],[-74.1193,40.9342],[-74.1212,40.9369],[-74.1293,40.9396],[-74.1267,40.9424],[-74.1176,40.9441],[-74.1176,40.9496],[-74.116,40.9528]]]}},{"type":"Feature","properties":{"huc12":"020301030703","name":"Lower Saddle River"},"geometry":{"type":"Polygon","coordinates":[[[-74.0582,40.9593],[-74.0641,40.9647],[-74.0643,40.9665],[-74.0665,40.9669],[-74.068,40.9653],[-74.0772,40.9706],[-74.0785,40.9765],[-74.0753,40.9878],[-74.0777,40.9918],[-74.0775,40.9943],[-74.0807,40.9924],[-74.0847,40.985],[-74.0927,40.9568],[-74.0971,40.9571],[-74.0987,40.9552],[-74.1062,40.9527],[-74.116,40.9528],[-74.1176,40.9496],[-74.1176,40.9441],[-74.1267,40.9424],[-74.1293,40.94],[-74.1236,40.9369],[-74.1212,40.9369],[-74.1193,40.9342],[-74.1156,40.9328],[-74.115,40.9291],[-74.1083,40.926],[-74.1072,40.9195],[-74.1089,40.916],[-74.1082,40.9137],[-74.1093,40.9096],[-74.1055,40.9026],[-74.1061,40.8981],[-74.0955,40.8967],[-74.0967,40.8927],[-74.0913,40.8898],[-74.0949,40.8776],[-74.1029,40.867],[-74.1065,40.8651],[-74.1056,40.8607],[-74.0995,40.8562],[-74.1035,40.843],[-74.1028,40.8381],[-74.0899,40.8416],[-74.08,40.8543],[-74.077,40.8606],[-74.0709,40.8644],[-74.0638,40.875],[-74.0674,40.8857],[-74.0634,40.8941],[-74.0641,40.897],[-74.0606,40.9048],[-74.0604,40.9089],[-74.066,40.9088],[-74.0706,40.9123],[-74.0709,40.9146],[-74.0671,40.9233],[-74.0654,40.931],[-74.0566,40.9491],[-74.0582,40.9593]]]}},{"type":"Feature","properties":{"huc12":"020301030804","name":"Third River-Passaic River"},"geometry":{"type":"Polygon","coordinates":[[[-74.1806,40.8851],[-74.1848,40.8868],[-74.1891,40.8851],[-74.1919,40.8861],[-74.1928,40.8801],[-74.1968,40.8797],[-74.2011,40.8752],[-74.2014,40.867],[-74.2055,40.8608],[-74.2091,40.8578],[-74.2076,40.8542],[-74.2114,40.8474],[-74.2069,40.8446],[-74.2039,40.8408],[-74.2057,40.8332],[-74.2021,40.8271],[-74.2032,40.8237],[-74.2086,40.8179],[-74.2036,40.8134],[-74.2061,40.8102],[-74.2053,40.8062],[-74.1997,40.8022],[-74.1944,40.801],[-74.1893,40.797],[-74.1814,40.8013],[-74.1797,40.7985],[-74.1739,40.7965],[-74.1698,40.8032],[-74.1678,40.8031],[-74.1607,40.7985],[-74.161,40.7919],[-74.1547,40.7892],[-74.156,40.7866],[-74.1551,40.7836],[-74.1473,40.7794],[-74.1426,40.7785],[-74.1371,40.7859],[-74.1339,40.7868],[-74.1165,40.8116],[-74.1107,40.8153],[-74.1104,40.8208],[-74.113,40.8275],[-74.1118,40.8336],[-74.1078,40.8354],[-74.1067,40.8373],[-74.103,40.8383],[-74.1035,40.843],[-74.0995,40.8565],[-74.105,40.86],[-74.1066,40.8627],[-74.1154,40.8626],[-74.1182,40.8617],[-74.1194,40.859],[-74.1225,40.861],[-74.125,40.8609],[-74.1277,40.8579],[-74.1281,40.8543],[-74.1293,40.8542],[-74.1411,40.8589],[-74.1436,40.862],[-74.1492,40.8654],[-74.1585,40.8606],[-74.1657,40.8519],[-74.1738,40.8513],[-74.1796,40.8575],[-74.1817,40.8645],[-74.186,40.8693],[-74.186,40.8741],[-74.1875,40.8757],[-74.1839,40.8822],[-74.1806,40.8851]]]}},{"type":"Feature","properties":{"huc12":"020301030805","name":"Second River-Passaic River"},"geometry":{"type":"Polygon","coordinates":[[[-74.1418,40.7791],[-74.1471,40.7793],[-74.1548,40.7833],[-74.156,40.7866],[-74.1547,40.7892],[-74.161,40.7919],[-74.1607,40.7985],[-74.1678,40.8031],[-74.1698,40.8032],[-74.1739,40.7965],[-74.1797,40.7985],[-74.1814,40.8013],[-74.1893,40.797],[-74.1944,40.801],[-74.1997,40.8022],[-74.2053,40.8062],[-74.2061,40.8102],[-74.2036,40.8134],[-74.2087,40.8177],[-74.202,40.8263],[-74.2057,40.8332],[-74.2037,40.8399],[-74.2051,40.8428],[-74.2113,40.8473],[-74.2115,40.8489],[-74.2172,40.8432],[-74.2164,40.8397],[-74.2179,40.8373],[-74.2281,40.8253],[-74.2292,40.8202],[-74.233,40.8131],[-74.2367,40.8097],[-74.2378,40.8064],[-74.2433,40.8038],[-74.2485,40.7974],[-74.2506,40.7925],[-74.25,40.7901],[-74.2434,40.7864],[-74.2389,40.7809],[-74.2398,40.777],[-74.233,40.7748],[-74.231,40.7695],[-74.2357,40.763],[-74.2458,40.755],[-74.246,40.7532],[-74.2448,40.7522],[-74.2395,40.7501],[-74.2216,40.7664],[-74.211,40.764],[-74.2106,40.7576],[-74.2071,40.7541],[-74.2091,40.7505],[-74.2061,40.7468],[-74.2057,40.7392],[-74.1906,40.7421],[-74.1837,40.7412],[-74.1769,40.7386],[-74.1556,40.7248],[-74.1527,40.7247],[-74.1452,40.7278],[-74.1385,40.727],[-74.1377,40.7243],[-74.1417,40.7185],[-74.1395,40.7158],[-74.1307,40.7133],[-74.1231,40.7135],[-74.1137,40.7197],[-74.1096,40.7303],[-74.1132,40.7319],[-74.1103,40.7436],[-74.0993,40.7455],[-74.1261,40.7698],[-74.1332,40.7656],[-74.1374,40.7679],[-74.1338,40.7764],[-74.1418,40.7791]]]}},{"type":"Feature","properties":{"huc12":"020301030904","name":"Overpeck Creek"},"geometry":{"type":"Polygon","coordinates":[[[-73.9494,40.9251],[-73.9531,40.9244],[-73.9556,40.9199],[-73.9584,40.9193],[-73.9585,40.915],[-73.961,40.9128],[-73.9768,40.9114],[-73.9806,40.9143],[-73.9822,40.9178],[-73.9777,40.9294],[-73.9751,40.942],[-73.9758,40.945],[-73.978,40.9453],[-73.9798,40.9434],[-73.9824,40.9392],[-73.9831,40.9351],[-73.9856,40.934],[-73.9885,40.9289],[-73.9926,40.9282],[-73.9947,40.9209],[-73.9969,40.9203],[-73.998,40.9089],[-73.9971,40.9059],[-73.9984,40.9014],[-74.0049,40.8973],[-74.0084,40.8911],[-74.0145,40.8901],[-74.0192,40.8787],[-74.0241,40.8748],[-74.0197,40.8714],[-74.0192,40.8697],[-74.0216,40.8654],[-74.0231,40.8578],[-74.0224,40.8528],[-74.0298,40.8477],[-74.0278,40.8448],[-74.0271,40.8391],[-74.0146,40.8346],[-74.0048,40.8342],[-74.0031,40.8394],[-73.9977,40.8427],[-73.9941,40.8477],[-73.9906,40.8476],[-73.9874,40.8495],[-73.9828,40.8562],[-73.9804,40.856],[-73.9753,40.852],[-73.9716,40.855],[-73.9692,40.8623],[-73.9673,40.8641],[-73.9547,40.8706],[-73.953,40.8741],[-73.954,40.8751],[-73.9514,40.8786],[-73.9536,40.8807],[-73.9545,40.8839],[-73.9504,40.8873],[-73.9492,40.8905],[-73.9442,40.8966],[-73.9463,40.9002],[-73.9461,40.9029],[-73.9422,40.9104],[-73.9432,40.9135],[-73.9385,40.9224],[-73.9494,40.9251]]]}},{"type":"Feature","properties":{"huc12":"020301030905","name":"Middle Hackensack River"},"geometry":{"type":"Polygon","coordinates":[[[-73.978,40.9453],[-73.977,40.9543],[-73.9844,40.9557],[-73.984,40.9516],[-73.9907,40.9503],[-73.9935,40.9473],[-73.9961,40.9481],[-74.0053,40.9469],[-74.0045,40.9527],[-74.0257,40.9523],[-74.026,40.9493],[-74.0304,40.9462],[-74.0322,40.9413],[-74.0365,40.9414],[-74.035,40.9489],[-74.0363,40.9534],[-74.034,40.9583],[-74.0328,40.9651],[-74.0342,40.975],[-74.0377,40.9747],[-74.0404,40.971],[-74.0422,40.9632],[-74.0554,40.9612],[-74.0581,40.9596],[-74.058,40.9534],[-74.0566,40.9491],[-74.0654,40.931],[-74.0671,40.9233],[-74.0709,40.9146],[-74.0706,40.9123],[-74.066,40.9088],[-74.0604,40.9089],[-74.0606,40.9048],[-74.0641,40.897],[-74.0634,40.8941],[-74.0669,40.888],[-74.0673,40.8838],[-74.0638,40.875],[-74.0609,40.8765],[-74.0576,40.8825],[-74.0529,40.8825],[-74.0493,40.8811],[-74.0459,40.8695],[-74.0423,40.8664],[-74.0395,40.8661],[-74.0375,40.8628],[-74.043,40.8523],[-74.0398,40.8473],[-74.0286,40.8454],[-74.0298,40.8477],[-74.0225,40.8526],[-74.0231,40.8578],[-74.0193,40.8706],[-74.0241,40.8748],[-74.0192,40.8787],[-74.0145,40.8901],[-74.0084,40.8911],[-74.0049,40.8973],[-73.9984,40.9014],[-73.9971,40.9059],[-73.998,40.9089],[-73.9969,40.9203],[-73.9947,40.9209],[-73.9926,40.9282],[-73.9885,40.9289],[-73.9856,40.934],[-73.9831,40.9351],[-73.9816,40.9409],[-73.978,40.9453]]]}},{"type":"Feature","properties":{"huc12":"020301030906","name":"Lower Hackensack River"},"geometry":{"type":"Polygon","coordinates":[[[-74.0277,40.8415],[-74.0286,40.8454],[-74.0377,40.8463],[-74.0412,40.8484],[-74.043,40.8523],[-74.0375,40.8628],[-74.0395,40.8661],[-74.0423,40.8664],[-74.0459,40.8695],[-74.05,40.8818],[-74.0568,40.8827],[-74.0609,40.8765],[-74.064,40.8748],[-74.0709,40.8644],[-74.077,40.8606],[-74.08,40.8543],[-74.0899,40.8416],[-74.1064,40.8374],[-74.1078,40.8354],[-74.1118,40.8336],[-74.113,40.8275],[-74.1104,40.8208],[-74.1107,40.8153],[-74.1167,40.8113],[-74.1339,40.7868],[-74.1371,40.7859],[-74.1418,40.7791],[-74.1338,40.7764],[-74.1374,40.7679],[-74.1332,40.7656],[-74.1261,40.7698],[-74.0993,40.7455],[-74.1103,40.7436],[-74.1132,40.7319],[-74.1096,40.7303],[-74.1137,40.7197],[-74.1159,40.7173],[-74.0912,40.7041],[-74.0846,40.7075],[-74.0724,40.7255],[-74.0599,40.7329],[-74.0592,40.7387],[-74.0527,40.7456],[-74.0518,40.7517],[-74.0403,40.7552],[-74.0375,40.7599],[-74.0383,40.7611],[-74.037,40.7643],[-74.0293,40.7677],[-74.0216,40.779],[-74.0195,40.7853],[-74.0203,40.7893],[-74.0168,40.7936],[-74.0124,40.7958],[-74.0098,40.8006],[-74.0045,40.8051],[-73.9988,40.8133],[-73.9973,40.8176],[-73.9886,40.8254],[-73.9885,40.8287],[-73.9843,40.833],[-73.9807,40.8396],[-73.981,40.8419],[-73.9753,40.852],[-73.9804,40.856],[-73.9828,40.8562],[-73.9874,40.8495],[-73.9906,40.8476],[-73.9941,40.8477],[-73.9977,40.8427],[-74.0031,40.8394],[-74.0051,40.8341],[-74.015,40.8348],[-74.0268,40.8389],[-74.0277,40.8415]]]}},{"type":"Feature","properties":{"huc12":"020301010404","name":"Sparkill Creek-Hudson River"},"geometry":{"type":"Polygon","coordinates":[[[-73.9234,41.0964],[-73.9294,41.1016],[-73.9382,41.0941],[-73.9322,41.0838],[-73.9291,41.081],[-73.9293,41.0794],[-73.9313,41.0782],[-73.9288,41.0765],[-73.9291,41.0732],[-73.9384,41.0723],[-73.9395,41.0705],[-73.9426,41.0699],[-73.9458,41.0675],[-73.9481,41.0683],[-73.9548,41.0674],[-73.9558,41.0627],[-73.9618,41.0567],[-73.9633,41.0523],[-73.9592,41.0381],[-73.9572,41.0354],[-73.9578,41.0285],[-73.9556,41.0273],[-73.9546,41.0247],[-73.9557,41.0159],[-73.9532,41.0118],[-73.9541,41.0065],[-73.9519,41.0052],[-73.9419,41.004],[-73.9414,41.0022],[-73.9355,40.9985],[-73.9378,40.9925],[-73.9369,40.9891],[-73.9267,40.9856],[-73.9224,40.9812],[-73.9166,40.9787],[-73.9154,40.9738],[-73.9161,40.9714],[-73.9218,40.9703],[-73.923,40.9683],[-73.9236,40.9645],[-73.9204,40.9592],[-73.9229,40.9521],[-73.9229,40.9429],[-73.926,40.939],[-73.9289,40.9304],[-73.9312,40.9301],[-73.9347,40.9327],[-73.9381,40.9304],[-73.9371,40.9239],[-73.9432,40.9135],[-73.9422,40.9104],[-73.9463,40.9017],[-73.9446,40.8961],[-73.9411,40.8962],[-73.9407,40.8951],[-73.9451,40.8862],[-73.9386,40.8824],[-73.9249,40.8792],[-73.9186,40.8824],[-73.9152,40.8816],[-73.9125,40.8834],[-73.9107,40.8806],[-73.907,40.8801],[-73.9028,40.8817],[-73.8979,40.8806],[-73.889,40.8825],[-73.888,40.8848],[-73.8823,40.884],[-73.8784,40.896],[-73.8731,40.8988],[-73.8729,40.9034],[-73.8788,40.9056],[-73.8788,40.9069],[-73.8762,40.9081],[-73.8729,40.9126],[-73.8723,40.9185],[-73.87,40.9218],[-73.8702,40.9234],[-73.8644,40.9289],[-73.8652,40.9336],[-73.8627,40.9346],[-73.8554,40.9461],[-73.8576,40.9469],[-73.8648,40.9462],[-73.872,40.9413],[-73.8739,40.9429],[-73.8775,40.9421],[-73.878,40.9389],[-73.8818,40.9339],[-73.8926,40.924],[-73.8963,40.9253],[-73.8977,40.9294],[-73.902,40.9306],[-73.902,40.9364],[-73.9032,40.9368],[-73.8954,40.9374],[-73.893,40.9396],[-73.89,40.9447],[-73.8909,40.9489],[-73.8895,40.9521],[-73.8865,40.954],[-73.8849,40.9566],[-73.8806,40.9586],[-73.881,40.9651],[-73.8865,40.9657],[-73.8842,40.9682],[-73.8833,40.9751],[-73.8782,40.9796],[-73.8803,40.9839],[-73.8769,40.9847],[-73.8772,40.9864],[-73.8754,40.9878],[-73.8756,40.9919],[-73.8657,40.9952],[-73.8646,41.0017],[-73.8607,41.0077],[-73.8606,41.0174],[-73.8495,41.0209],[-73.851,41.025],[-73.8488,41.0291],[-73.8501,41.0302],[-73.8466,41.0322],[-73.8455,41.0367],[-73.8421,41.0389],[-73.8414,41.0439],[-73.8376,41.0466],[-73.8361,41.0495],[-73.8339,41.0517],[-73.8306,41.0519],[-73.8279,41.055],[-73.8245,41.0563],[-73.8233,41.0624],[-73.8265,41.0675],[-73.8331,41.0701],[-73.8371,41.0738],[-73.8411,41.0733],[-73.8417,41.0717],[-73.8442,41.0707],[-73.8485,41.0714],[-73.8485,41.0729],[-73.8507,41.0747],[-73.8519,41.083],[-73.8483,41.0874],[-73.8455,41.088],[-73.8445,41.0895],[-73.8475,41.0896],[-73.8563,41.0851],[-73.8629,41.0852],[-73.8681,41.0886],[-73.8704,41.0917],[-73.9187,41.0949],[-73.922,41.0968],[-73.9234,41.0964]]]}},{"type":"Feature","properties":{"huc12":"020301010405","name":"East River-Hudson River"},"geometry":{"type":"Polygon","coordinates":[[[-73.9386,40.8824],[-73.9451,40.8862],[-73.9407,40.8951],[-73.9411,40.8962],[-73.9446,40.8961],[-73.9507,40.8869],[-73.9544,40.8843],[-73.9536,40.8807],[-73.9514,40.8786],[-73.954,40.8751],[-73.953,40.8741],[-73.9544,40.8709],[-73.9603,40.8672],[-73.9633,40.8669],[-73.969,40.8626],[-73.9711,40.8558],[-73.9777,40.8486],[-73.9775,40.8468],[-73.981,40.8419],[-73.9807,40.8396],[-73.9843,40.833],[-73.9885,40.8287],[-73.9886,40.8254],[-73.9973,40.8176],[-73.9988,40.8133],[-74.0045,40.8051],[-74.0098,40.8006],[-74.0124,40.7958],[-74.0168,40.7936],[-74.0203,40.7893],[-74.0195,40.7853],[-74.0216,40.779],[-74.0293,40.7677],[-74.037,40.7643],[-74.0383,40.7611],[-74.0375,40.7599],[-74.0403,40.7552],[-74.0518,40.7517],[-74.0527,40.7456],[-74.0592,40.7387],[-74.0599,40.7329],[-74.0724,40.7255],[-74.0836,40.7092],[-74.0686,40.7072],[-74.041,40.7075],[-74.0162,40.7016],[-74.0015,40.6929],[-73.9979,40.693],[-73.9924,40.6957],[-73.9785,40.6851],[-73.968,40.6867],[-73.9643,40.6779],[-73.9655,40.6711],[-73.9546,40.6697],[-73.9476,40.6669],[-73.9305,40.6685],[-73.9206,40.6741],[-73.9146,40.6753],[-73.9129,40.6773],[-73.9059,40.6795],[-73.9028,40.6823],[-73.8992,40.6817],[-73.8943,40.6851],[-73.891,40.6851],[-73.8898,40.6902],[-73.8848,40.6914],[-73.88,40.6945],[-73.8808,40.6956],[-73.8796,40.6992],[-73.8835,40.7108],[-73.89,40.713],[-73.89,40.7146],[-73.8947,40.7149],[-73.8963,40.7161],[-73.8934,40.7209],[-73.8859,40.7257],[-73.8861,40.7273],[-73.8895,40.727],[-73.8918,40.7294],[-73.8948,40.7291],[-73.9004,40.7339],[-73.9071,40.7362],[-73.9092,40.7407],[-73.9112,40.7416],[-73.9102,40.7459],[-73.9128,40.749],[-73.9112,40.7513],[-73.914,40.7627],[-73.9093,40.7694],[-73.9113,40.7735],[-73.9108,40.7771],[-73.9127,40.7787],[-73.9108,40.78],[-73.9092,40.7838],[-73.9097,40.7906],[-73.9128,40.7969],[-73.917,40.7985],[-73.921,40.8027],[-73.926,40.8151],[-73.9256,40.8191],[-73.9176,40.8321],[-73.9048,40.8461],[-73.902,40.8507],[-73.9006,40.856],[-73.9032,40.8623],[-73.9006,40.8685],[-73.8842,40.8779],[-73.8796,40.8816],[-73.88,40.8837],[-73.8817,40.8852],[-73.8832,40.8836],[-73.888,40.8848],[-73.8897,40.8822],[-73.8979,40.8806],[-73.9028,40.8817],[-73.907,40.8801],[-73.9107,40.8806],[-73.9125,40.8834],[-73.9152,40.8816],[-73.9186,40.8824],[-73.9249,40.8792],[-73.9386,40.8824]]]}},{"type":"Feature","properties":{"huc12":"020301040205","name":"Upper Bay-The Narrows"},"geometry":{"type":"Polygon","coordinates":[[[-73.9655,40.6711],[-73.9643,40.6779],[-73.968,40.6867],[-73.9785,40.6851],[-73.9924,40.6957],[-73.9979,40.693],[-74.0015,40.6929],[-74.0162,40.7016],[-74.041,40.7075],[-74.0686,40.7072],[-74.0836,40.7092],[-74.0862,40.7061],[-74.0912,40.7041],[-74.0932,40.6979],[-74.1056,40.6865],[-74.1071,40.6814],[-74.1119,40.6756],[-74.1189,40.6705],[-74.1212,40.6646],[-74.1296,40.6555],[-74.1319,40.6544],[-74.1325,40.6521],[-74.1278,40.6476],[-74.1274,40.6433],[-74.1223,40.633],[-74.118,40.6294],[-74.1126,40.6275],[-74.1107,40.6232],[-74.107,40.623],[-74.1004,40.6261],[-74.092,40.621],[-74.0951,40.6186],[-74.0962,40.6084],[-74.0905,40.6087],[-74.0594,40.6018],[-74.035,40.6097],[-74.0301,40.6181],[-74.0328,40.6222],[-74.0278,40.6277],[-74.0275,40.632],[-74.0227,40.6361],[-74.0225,40.6381],[-74.0183,40.6397],[-74.0123,40.6398],[-74.0048,40.6471],[-73.9967,40.6509],[-73.9904,40.6507],[-73.9873,40.6548],[-73.9827,40.6578],[-73.9812,40.6616],[-73.9718,40.661],[-73.9702,40.6628],[-73.9707,40.6643],[-73.9688,40.6651],[-73.9696,40.6686],[-73.9655,40.6711]]]}}]}