{"type":"FeatureCollection","features":[{"type":"Feature","properties":{"huc10":"0203010201","name":"Bronx River-East River"},"geometry":{"type":"Polygon","coordinates":[[[-73.7483,41.1546],[-73.7558,41.1561],[-73.7514,41.1489],[-73.7521,41.1412],[-73.7549,41.1371],[-73.7514,41.1228],[-73.7544,41.1228],[-73.7563,41.1177],[-73.7619,41.1162],[-73.7678,41.1106],[-73.7822,41.1143],[-73.7855,41.1068],[-73.7848,41.0975],[-73.7933,41.0978],[-73.8003,41.0948],[-73.7986,41.0855],[-73.8035,41.0843],[-73.8034,41.079],[-73.8009,41.0778],[-73.7953,41.0667],[-73.7984,41.0625],[-73.8026,41.0615],[-73.8068,41.0552],[-73.8125,41.0563],[-73.8163,41.0519],[-73.8137,41.0484],[-73.8154,41.0459],[-73.8115,41.0333],[-73.8076,41.031],[-73.8064,41.0248],[-73.8114,41.0203],[-73.8171,41.029],[-73.8161,41.0337],[-73.8195,41.036],[-73.8236,41.0351],[-73.8263,41.0284],[-73.8325,41.0281],[-73.8344,41.017],[-73.847,41.0037],[-73.8488,40.998],[-73.8555,40.9939],[-73.8572,40.9839],[-73.864,40.9748],[-73.8633,40.9626],[-73.8697,40.9499],[-73.8673,40.9454],[-73.8554,40.9461],[-73.8652,40.9336],[-73.8644,40.9289],[-73.8702,40.9234],[-73.8729,40.9126],[-73.8788,40.9069],[-73.8727,40.9026],[-73.8733,40.898],[-73.8784,40.896],[-73.8811,40.8897],[-73.8821,40.8852],[-73.8796,40.8816],[-73.9006,40.8685],[-73.9032,40.8623],[-73.9006,40.856],[-73.902,40.8507],[-73.9256,40.8191],[-73.9231,40.8062],[-73.917,40.7985],[-73.9128,40.7969],[-73.9097,40.7906],[-73.9092,40.7838],[-73.9127,40.7787],[-73.9093,40.7694],[-73.914,40.7627],[-73.9112,40.7513],[-73.9128,40.749],[-73.9102,40.7459],[-73.9112,40.7416],[-73.9071,40.7362],[-73.8948,40.7291],[-73.8861,40.7273],[-73.8964,40.7169],[-73.8831,40.7103],[-73.8794,40.6977],[-73.8802,40.6943],[-73.8842,40.6922],[-73.8796,40.6915],[-73.8723,40.6956],[-73.8605,40.6976],[-73.8607,40.6996],[-73.8542,40.7032],[-73.8448,40.7019],[-73.8435,40.705],[-73.8379,40.7061],[-73.8327,40.7116],[-73.8028,40.713],[-73.7792,40.7202],[-73.7706,40.7196],[-73.761,40.7264],[-73.7503,40.7291],[-73.7473,40.732],[-73.7486,40.7349],[-73.7441,40.7394],[-73.746,40.7419],[-73.7508,40.7405],[-73.7589,40.7422],[-73.7668,40.7519],[-73.7676,40.7569],[-73.7775,40.7616],[-73.7842,40.7775],[-73.7795,40.7855],[-73.7809,40.7909],[-73.7787,40.7947],[-73.7907,40.805],[-73.8067,40.8108],[-73.8095,40.8165],[-73.8208,40.8266],[-73.8258,40.8273],[-73.8276,40.8326],[-73.8329,40.8355],[-73.835,40.8417],[-73.83,40.8485],[-73.8325,40.8554],[-73.8435,40.8633],[-73.844,40.8713],[-73.8485,40.8795],[-73.8549,40.8826],[-73.8536,40.8846],[-73.8475,40.884],[-73.8383,40.8902],[-73.8388,40.8935],[-73.8351,40.8961],[-73.8331,40.9017],[-73.8343,40.9142],[-73.82,40.9272],[-73.8227,40.9357],[-73.8206,40.9382],[-73.8207,40.9459],[-73.8169,40.9484],[-73.8174,40.953],[-73.8149,40.9537],[-73.8075,40.9694],[-73.7979,40.9753],[-73.7976,40.9849],[-73.7827,40.9891],[-73.7831,40.9976],[-73.7757,41.0044],[-73.7772,41.0081],[-73.7618,41.0189],[-73.7512,41.0211],[-73.7597,41.0371],[-73.761,41.0439],[-73.7511,41.0596],[-73.7505,41.0713],[-73.7417,41.0738],[-73.739,41.0702],[-73.7334,41.0692],[-73.7282,41.064],[-73.7195,41.0625],[-73.7171,41.0595],[-73.7181,41.0622],[-73.7104,41.0712],[-73.7129,41.0747],[-73.7104,41.0762],[-73.7102,41.081],[-73.7042,41.0844],[-73.7118,41.1004],[-73.7198,41.1058],[-73.7148,41.1205],[-73.7166,41.1238],[-73.72,41.1239],[-73.7234,41.1289],[-73.7292,41.127],[-73.7283,41.133],[-73.7332,41.139],[-73.7349,41.1463],[-73.7402,41.1446],[-73.748,41.1508],[-73.7483,41.1546]]]}},{"type":"Feature","properties":{"huc10":"0203010402","name":"Arthur Kill-Upper Bay"},"geometry":{"type":"Polygon","coordinates":[[[-74.2131,40.7639],[-74.2216,40.7664],[-74.2439,40.7444],[-74.2508,40.7416],[-74.2498,40.7367],[-74.2605,40.7299],[-74.2625,40.724],[-74.27,40.7207],[-74.2701,40.7152],[-74.2805,40.7061],[-74.2833,40.6983],[-74.2966,40.6927],[-74.2865,40.6741],[-74.2813,40.6726],[-74.2868,40.6632],[-74.2872,40.6469],[-74.2748,40.6437],[-74.2738,40.6375],[-74.2677,40.6339],[-74.2718,40.6286],[-74.2371,40.6197],[-74.2339,40.6151],[-74.2113,40.6066],[-74.2046,40.6003],[-74.2047,40.5946],[-74.2181,40.5882],[-74.2259,40.5881],[-74.2347,40.5936],[-74.2632,40.5929],[-74.2767,40.5841],[-74.2825,40.5841],[-74.2967,40.5745],[-74.2985,40.5706],[-74.2972,40.5661],[-74.3086,40.5524],[-74.3083,40.5407],[-74.3039,40.5373],[-74.2943,40.538],[-74.2899,40.5357],[-74.29,40.5309],[-74.2786,40.529],[-74.2756,40.5152],[-74.2688,40.5109],[-74.2668,40.5065],[-74.2687,40.5001],[-74.2524,40.5002],[-74.253,40.5063],[-74.2408,40.5106],[-74.2281,40.5113],[-74.2262,40.5136],[-74.2273,40.5165],[-74.223,40.5174],[-74.215,40.5267],[-74.2233,40.5333],[-74.2247,40.5375],[-74.2173,40.5448],[-74.2014,40.5455],[-74.1954,40.5381],[-74.191,40.5406],[-74.1842,40.5398],[-74.1837,40.5374],[-74.168,40.5372],[-74.1517,40.5452],[-74.1499,40.5512],[-74.1408,40.5549],[-74.1423,40.5612],[-74.1391,40.562],[-74.1387,40.5654],[-74.1329,40.5665],[-74.1324,40.5722],[-74.1268,40.5728],[-74.1202,40.5809],[-74.1243,40.5839],[-74.1183,40.5884],[-74.1153,40.5952],[-74.1179,40.598],[-74.1141,40.6021],[-74.0905,40.6087],[-74.0594,40.6018],[-74.035,40.6097],[-74.0301,40.6181],[-74.0328,40.6222],[-74.0225,40.6381],[-74.0123,40.6398],[-74.0048,40.6471],[-73.9967,40.6509],[-73.9904,40.6507],[-73.9812,40.6616],[-73.9718,40.661],[-73.9688,40.6651],[-73.9696,40.6686],[-73.9648,40.6723],[-73.9643,40.6779],[-73.968,40.6867],[-73.9785,40.6851],[-73.9924,40.6957],[-74.0015,40.6929],[-74.0162,40.7016],[-74.0431,40.7078],[-74.0836,40.7092],[-74.0912,40.7041],[-74.1159,40.7173],[-74.1231,40.7135],[-74.1395,40.7158],[-74.1417,40.7185],[-74.1377,40.7243],[-74.1385,40.727],[-74.1452,40.7278],[-74.1556,40.7248],[-74.1837,40.7412],[-74.1906,40.7421],[-74.2057,40.7392],[-74.2061,40.7468],[-74.2091,40.7505],[-74.2071,40.7541],[-74.2106,40.7576],[-74.2105,40.7633],[-74.2131,40.7639]]]}},{"type":"Feature","properties":{"huc10":"0203010405","name":"Rockaway Inlet-Jamaica Bay"},"geometry":{"type":"Polygon","coordinates":[[[-73.6886,40.773],[-73.6912,40.7752],[-73.7093,40.7598],[-73.7175,40.7576],[-73.7216,40.7596],[-73.7283,40.757],[-73.7335,40.7513],[-73.7316,40.7464],[-73.7419,40.7443],[-73.7503,40.7291],[-73.761,40.7264],[-73.7706,40.7196],[-73.7792,40.7202],[-73.8028,40.713],[-73.8327,40.7116],[-73.8379,40.7061],[-73.8435,40.705],[-73.8448,40.7019],[-73.8542,40.7032],[-73.8607,40.6996],[-73.8605,40.6976],[-73.8893,40.6904],[-73.891,40.6851],[-73.9028,40.6823],[-73.9305,40.6685],[-73.9476,40.6669],[-73.964,40.6714],[-73.9681,40.6702],[-73.9718,40.661],[-73.9812,40.6616],[-73.9904,40.6507],[-73.9967,40.6509],[-74.0048,40.6471],[-74.0123,40.6398],[-74.0225,40.6381],[-74.033,40.6217],[-74.0302,40.6186],[-74.0313,40.6158],[-74.035,40.6097],[-74.0384,40.6086],[-74.0319,40.6036],[-74.0165,40.601],[-74.0046,40.5948],[-74.0039,40.5898],[-74.0007,40.5896],[-74.0016,40.5876],[-74.0143,40.5788],[-74.0102,40.5707],[-73.9917,40.5697],[-73.9874,40.5671],[-73.9803,40.5694],[-73.9739,40.5659],[-73.9555,40.5662],[-73.9406,40.543],[-73.9369,40.5488],[-73.9233,40.5581],[-73.8993,40.5572],[-73.8811,40.5629],[-73.8779,40.5668],[-73.8684,40.5694],[-73.8626,40.5679],[-73.8285,40.5814],[-73.791,40.59],[-73.7561,40.5924],[-73.7568,40.597],[-73.7544,40.5976],[-73.7524,40.6028],[-73.7398,40.6139],[-73.7093,40.6317],[-73.6982,40.6408],[-73.674,40.6527],[-73.6693,40.6577],[-73.6741,40.6671],[-73.6755,40.676],[-73.6664,40.6977],[-73.6621,40.7017],[-73.6652,40.7148],[-73.6614,40.7181],[-73.6602,40.7291],[-73.6647,40.7392],[-73.6627,40.7425],[-73.6661,40.7461],[-73.6655,40.752],[-73.6705,40.7618],[-73.677,40.7665],[-73.6832,40.7665],[-73.6831,40.769],[-73.6857,40.7688],[-73.6886,40.773]]]}},{"type":"Feature","properties":{"huc10":"0203010309","name":"Hackensack River"},"geometry":{"type":"Polygon","coordinates":[[[-73.9882,41.1965],[-74.0134,41.1911],[-74.0341,41.1833],[-74.0298,41.1588],[-74.0377,41.1587],[-74.0419,41.1407],[-74.058,41.1411],[-74.0638,41.1369],[-74.0722,41.1366],[-74.0757,41.1287],[-74.0791,41.127],[-74.0787,41.1216],[-74.0822,41.1195],[-74.0773,41.1143],[-74.0701,41.1141],[-74.0692,41.111],[-74.0723,41.1048],[-74.0692,41.1057],[-74.0654,41.1031],[-74.0632,41.1071],[-74.0532,41.1074],[-74.0481,41.1099],[-74.0415,41.105],[-74.0405,41.0939],[-74.0449,41.0896],[-74.0499,41.089],[-74.0528,41.0788],[-74.0569,41.0787],[-74.0571,41.0744],[-74.0618,41.0678],[-74.0705,41.0658],[-74.0693,41.0631],[-74.0716,41.0562],[-74.0771,41.0551],[-74.0734,41.0341],[-74.0744,41.0293],[-74.0796,41.0262],[-74.0737,41.0203],[-74.0727,41.0126],[-74.0773,41.0012],[-74.0777,40.9918],[-74.0753,40.9878],[-74.0783,40.9735],[-74.0769,40.9702],[-74.0705,40.9664],[-74.0639,40.9663],[-74.0582,40.9593],[-74.0564,40.9498],[-74.0709,40.9146],[-74.066,40.9088],[-74.0604,40.9089],[-74.0674,40.8857],[-74.0638,40.875],[-74.0709,40.8644],[-74.077,40.8606],[-74.0899,40.8416],[-74.1064,40.8374],[-74.1117,40.8338],[-74.113,40.8275],[-74.1107,40.8153],[-74.1167,40.8113],[-74.1339,40.7868],[-74.1371,40.7859],[-74.1418,40.7791],[-74.1338,40.7764],[-74.1374,40.7679],[-74.1332,40.7656],[-74.1261,40.7698],[-74.0996,40.746],[-74.1103,40.7436],[-74.1132,40.7319],[-74.1096,40.7303],[-74.1159,40.7173],[-74.0912,40.7041],[-74.0843,40.7077],[-74.0724,40.7255],[-74.0606,40.7319],[-74.0592,40.7387],[-74.0527,40.7456],[-74.0518,40.7517],[-74.0403,40.7552],[-74.037,40.7643],[-74.0293,40.7677],[-74.0216,40.779],[-74.0203,40.7893],[-74.0124,40.7958],[-73.9973,40.8176],[-73.9886,40.8254],[-73.9885,40.8287],[-73.9843,40.833],[-73.9777,40.8486],[-73.9711,40.8558],[-73.969,40.8626],[-73.9544,40.8709],[-73.9514,40.8786],[-73.9545,40.8839],[-73.9442,40.8966],[-73.9461,40.9029],[-73.9371,40.9239],[-73.9381,40.9304],[-73.9347,40.9327],[-73.9289,40.9304],[-73.9229,40.9429],[-73.9204,40.9592],[-73.9236,40.9645],[-73.923,40.9683],[-73.9154,40.9731],[-73.9166,40.9787],[-73.9267,40.9856],[-73.9369,40.9891],[-73.9355,40.9985],[-73.9423,41.0042],[-73.9541,41.0065],[-73.9546,41.0247],[-73.9578,41.0285],[-73.9572,41.0354],[-73.9633,41.0523],[-73.9548,41.0674],[-73.9458,41.0675],[-73.9384,41.0723],[-73.9289,41.0734],[-73.9313,41.0782],[-73.9291,41.081],[-73.9382,41.0935],[-73.9293,41.1019],[-73.936,41.1086],[-73.9299,41.1119],[-73.9278,41.1172],[-73.9126,41.123],[-73.9086,41.1284],[-73.9089,41.1352],[-73.9139,41.1429],[-73.9122,41.1468],[-73.9184,41.156],[-73.9371,41.1717],[-73.9435,41.1727],[-73.9442,41.176],[-73.9583,41.1813],[-73.9586,41.1838],[-73.9692,41.1897],[-73.9882,41.1965]]]}},{"type":"Feature","properties":{"huc10":"0203010104","name":"Saw Mill River-Hudson River"},"geometry":{"type":"Polygon","coordinates":[[[-73.8186,41.2008],[-73.8264,41.1995],[-73.8337,41.1919],[-73.8413,41.1964],[-73.8622,41.1816],[-73.8632,41.1772],[-73.8761,41.1772],[-73.8833,41.1932],[-73.8872,41.1876],[-73.8971,41.1838],[-73.8951,41.1798],[-73.8988,41.1684],[-73.9217,41.16],[-73.9122,41.1468],[-73.9139,41.1429],[-73.9105,41.1396],[-73.9086,41.1286],[-73.9126,41.123],[-73.9256,41.1187],[-73.9299,41.1119],[-73.936,41.1089],[-73.9293,41.1017],[-73.9376,41.0954],[-73.9381,41.0928],[-73.9291,41.0812],[-73.9313,41.0782],[-73.9289,41.0734],[-73.9384,41.0723],[-73.9458,41.0675],[-73.9548,41.0674],[-73.9633,41.0518],[-73.9572,41.0354],[-73.9578,41.0285],[-73.9546,41.0247],[-73.954,41.0063],[-73.9419,41.004],[-73.9355,40.9985],[-73.9369,40.9891],[-73.9267,40.9856],[-73.9159,40.9779],[-73.9158,40.9718],[-73.922,40.9702],[-73.9233,40.9666],[-73.9204,40.9592],[-73.9229,40.9425],[-73.9289,40.9304],[-73.9347,40.9327],[-73.9381,40.9304],[-73.9371,40.9239],[-73.9461,40.9029],[-73.9442,40.8966],[-73.9545,40.8839],[-73.9514,40.8786],[-73.9544,40.8709],[-73.969,40.8626],[-73.9711,40.8558],[-73.9777,40.8486],[-73.9843,40.833],[-73.9885,40.8287],[-73.9886,40.8254],[-73.9973,40.8176],[-74.0124,40.7958],[-74.0203,40.7893],[-74.0216,40.779],[-74.0293,40.7677],[-74.037,40.7643],[-74.0403,40.7552],[-74.0518,40.7517],[-74.0527,40.7456],[-74.0592,40.7387],[-74.0599,40.7329],[-74.0724,40.7255],[-74.0836,40.7092],[-74.041,40.7075],[-74.0162,40.7016],[-74.0015,40.6929],[-73.9924,40.6957],[-73.9785,40.6851],[-73.968,40.6867],[-73.9643,40.6779],[-73.9655,40.6711],[-73.9476,40.6669],[-73.9305,40.6685],[-73.9028,40.6823],[-73.891,40.6851],[-73.8898,40.6902],[-73.88,40.6945],[-73.8835,40.7108],[-73.8963,40.7161],[-73.8861,40.7273],[-73.8948,40.7291],[-73.9071,40.7362],[-73.9112,40.7416],[-73.9102,40.7459],[-73.9128,40.749],[-73.9112,40.7513],[-73.914,40.7627],[-73.9093,40.7694],[-73.9127,40.7787],[-73.9092,40.7838],[-73.9097,40.7906],[-73.9128,40.7969],[-73.917,40.7985],[-73.9231,40.8062],[-73.9256,40.8191],[-73.902,40.8507],[-73.9006,40.856],[-73.9032,40.8623],[-73.9006,40.8685],[-73.8796,40.8816],[-73.8821,40.8852],[-73.8811,40.8897],[-73.8784,40.896],[-73.8733,40.898],[-73.8727,40.9026],[-73.8788,40.9069],[-73.8729,40.9126],[-73.8702,40.9234],[-73.8644,40.9289],[-73.8652,40.9336],[-73.8554,40.9461],[-73.8673,40.9454],[-73.8697,40.9499],[-73.8633,40.9626],[-73.864,40.9748],[-73.8572,40.9839],[-73.8555,40.9939],[-73.8488,40.998],[-73.847,41.0037],[-73.8344,41.017],[-73.8325,41.0281],[-73.8263,41.0284],[-73.8236,41.0351],[-73.8195,41.036],[-73.8161,41.0337],[-73.8171,41.029],[-73.8114,41.0203],[-73.8059,41.0255],[-73.8076,41.031],[-73.8115,41.0333],[-73.8154,41.0459],[-73.8137,41.0484],[-73.8163,41.0519],[-73.8125,41.0563],[-73.8068,41.0552],[-73.8026,41.0615],[-73.7984,41.0625],[-73.7953,41.0667],[-73.8009,41.0778],[-73.8034,41.079],[-73.8035,41.0843],[-73.7986,41.0855],[-73.8003,41.0948],[-73.7933,41.0978],[-73.7848,41.0975],[-73.7855,41.1068],[-73.7822,41.1143],[-73.7678,41.1106],[-73.7619,41.1162],[-73.7563,41.1177],[-73.7544,41.1228],[-73.7512,41.1231],[-73.7549,41.1371],[-73.7521,41.1412],[-73.7515,41.1495],[-73.7562,41.1569],[-73.7611,41.1594],[-73.7615,41.1639],[-73.7646,41.1617],[-73.7721,41.164],[-73.7686,41.1738],[-73.7749,41.181],[-73.7819,41.1834],[-73.7833,41.1777],[-73.7874,41.1785],[-73.7869,41.185],[-73.7962,41.1813],[-73.7966,41.1865],[-73.8066,41.1778],[-73.8085,41.1798],[-73.8073,41.1823],[-73.8127,41.1884],[-73.8109,41.194],[-73.8163,41.194],[-73.8183,41.1964],[-73.8168,41.2009],[-73.8186,41.2008]]]}},{"type":"Feature","properties":{"huc10":"0203010307","name":"Saddle River"},"geometry":{"type":"Polygon","coordinates":[[[-74.0866,41.1233],[-74.0903,41.1235],[-74.0943,41.1199],[-74.0952,41.1135],[-74.1004,41.1075],[-74.1023,41.1005],[-74.1103,41.0982],[-74.1154,41.1002],[-74.1161,41.0953],[-74.1242,41.0916],[-74.1254,41.0822],[-74.1326,41.0667],[-74.1383,41.0702],[-74.1409,41.0656],[-74.1444,41.0683],[-74.1534,41.065],[-74.1612,41.0499],[-74.1847,41.0404],[-74.183,41.0578],[-74.1883,41.0613],[-74.1916,41.0498],[-74.1983,41.0495],[-74.1977,41.036],[-74.2009,41.0309],[-74.198,41.0299],[-74.202,41.0268],[-74.2009,41.024],[-74.2035,41.0211],[-74.2008,41.0163],[-74.2043,41.0133],[-74.2033,41.0084],[-74.2064,41.0058],[-74.1991,41.0055],[-74.1942,41.0014],[-74.1874,41.0098],[-74.1835,41.0101],[-74.1705,41.0052],[-74.1718,41.0131],[-74.1639,41.0178],[-74.1611,41.0137],[-74.1507,41.0109],[-74.144,41.0118],[-74.142,41.0076],[-74.1437,41.0048],[-74.1418,41.004],[-74.1435,41.0002],[-74.1239,40.9928],[-74.1195,40.9878],[-74.1221,40.9763],[-74.1194,40.9724],[-74.1233,40.9665],[-74.1161,40.9534],[-74.1174,40.9444],[-74.1267,40.9424],[-74.1293,40.9396],[-74.1212,40.9369],[-74.1156,40.9328],[-74.115,40.9291],[-74.1083,40.926],[-74.1072,40.9195],[-74.1093,40.9096],[-74.1055,40.9026],[-74.1061,40.8981],[-74.0955,40.8967],[-74.0967,40.8927],[-74.0912,40.8892],[-74.0949,40.8776],[-74.1065,40.8651],[-74.1056,40.8607],[-74.0995,40.8562],[-74.1035,40.843],[-74.1028,40.8381],[-74.0899,40.8416],[-74.077,40.8606],[-74.0709,40.8644],[-74.0638,40.875],[-74.0674,40.8857],[-74.0604,40.9089],[-74.066,40.9088],[-74.0709,40.9146],[-74.0564,40.9498],[-74.0582,40.9593],[-74.0639,40.9663],[-74.0705,40.9664],[-74.0769,40.9702],[-74.0783,40.9735],[-74.0753,40.9878],[-74.0777,40.9918],[-74.0773,41.0012],[-74.0727,41.0126],[-74.0737,41.0203],[-74.0796,41.0262],[-74.0744,41.0293],[-74.0734,41.0341],[-74.0771,41.0551],[-74.0716,41.0562],[-74.0693,41.0631],[-74.0705,41.0658],[-74.0618,41.0678],[-74.0571,41.0744],[-74.0569,41.0787],[-74.0528,41.0788],[-74.0499,41.089],[-74.0449,41.0896],[-74.0405,41.0939],[-74.0415,41.105],[-74.0481,41.1099],[-74.0532,41.1074],[-74.0632,41.1071],[-74.0654,41.1031],[-74.0692,41.1057],[-74.0723,41.1048],[-74.0692,41.111],[-74.0704,41.1144],[-74.0773,41.1143],[-74.0866,41.1233]]]}},{"type":"Feature","properties":{"huc10":"0203010308","name":"Lower Passaic River"},"geometry":{"type":"Polygon","coordinates":[[[-74.1503,41.0109],[-74.1611,41.0137],[-74.1615,41.0169],[-74.1647,41.0179],[-74.1718,41.0131],[-74.1705,41.0052],[-74.1769,41.0063],[-74.1801,41.0098],[-74.1872,41.01],[-74.1965,40.9957],[-74.2033,40.9968],[-74.2088,40.9933],[-74.2061,40.9843],[-74.2098,40.9778],[-74.2239,40.9775],[-74.2311,40.9817],[-74.2347,40.9703],[-74.2447,40.9674],[-74.2477,40.9624],[-74.2531,40.962],[-74.2449,40.9499],[-74.2414,40.9389],[-74.242,40.9308],[-74.2665,40.9038],[-74.268,40.898],[-74.2715,40.8978],[-74.2733,40.8941],[-74.2774,40.8927],[-74.2766,40.8905],[-74.2825,40.8847],[-74.2913,40.8792],[-74.2957,40.8826],[-74.3004,40.8804],[-74.3125,40.8567],[-74.277,40.8412],[-74.2684,40.8482],[-74.2624,40.8469],[-74.2596,40.8535],[-74.2553,40.8563],[-74.2538,40.8552],[-74.2555,40.8533],[-74.2496,40.8495],[-74.252,40.843],[-74.2624,40.834],[-74.264,40.8245],[-74.2622,40.8229],[-74.2651,40.8149],[-74.2641,40.8112],[-74.2546,40.8095],[-74.2484,40.8022],[-74.2433,40.8038],[-74.2499,40.7947],[-74.2503,40.7904],[-74.2389,40.7809],[-74.2398,40.777],[-74.2345,40.7761],[-74.2316,40.772],[-74.2321,40.7668],[-74.2459,40.753],[-74.2395,40.7501],[-74.2216,40.7664],[-74.211,40.764],[-74.2106,40.7576],[-74.2071,40.7541],[-74.2091,40.7505],[-74.2061,40.7468],[-74.2057,40.7392],[-74.1906,40.7421],[-74.1837,40.7412],[-74.1556,40.7248],[-74.1452,40.7278],[-74.1385,40.727],[-74.1377,40.7243],[-74.1417,40.7185],[-74.1395,40.7158],[-74.1231,40.7135],[-74.1137,40.7197],[-74.1096,40.7303],[-74.1132,40.7319],[-74.1103,40.7436],[-74.0993,40.7455],[-74.1261,40.7698],[-74.1332,40.7656],[-74.1374,40.7679],[-74.1338,40.7764],[-74.1418,40.7791],[-74.1371,40.7859],[-74.1339,40.7868],[-74.1167,40.8113],[-74.1107,40.8153],[-74.113,40.8275],[-74.1118,40.8336],[-74.103,40.8383],[-74.0995,40.8562],[-74.1056,40.8607],[-74.1065,40.8651],[-74.0949,40.8776],[-74.0912,40.8892],[-74.0967,40.8927],[-74.0955,40.8967],[-74.1061,40.8981],[-74.1055,40.9026],[-74.1093,40.9096],[-74.1072,40.9195],[-74.1083,40.926],[-74.115,40.9291],[-74.1156,40.9328],[-74.1212,40.9369],[-74.1293,40.9396],[-74.1267,40.9424],[-74.1174,40.9444],[-74.1161,40.9534],[-74.1233,40.9665],[-74.1194,40.9724],[-74.1221,40.9763],[-74.1195,40.9878],[-74.1239,40.9928],[-74.1435,41.0002],[-74.1418,41.004],[-74.1437,41.0048],[-74.142,41.0076],[-74.144,41.0118],[-74.1503,41.0109]]]}},{"type":"Feature","properties":{"huc10":"0203010202","name":"Hutchinson River-Frontal Long Island Sound"},"geometry":{"type":"Polygon","coordinates":[[[-73.7282,41.064],[-73.7417,41.0738],[-73.7505,41.0713],[-73.7511,41.0596],[-73.761,41.0439],[-73.7597,41.0371],[-73.7512,41.0211],[-73.7618,41.0189],[-73.7772,41.0081],[-73.7757,41.0044],[-73.7831,40.9976],[-73.7827,40.9891],[-73.7976,40.9849],[-73.7979,40.9753],[-73.8075,40.9694],[-73.8149,40.9537],[-73.8174,40.953],[-73.8169,40.9484],[-73.8207,40.9459],[-73.8206,40.9382],[-73.8227,40.9357],[-73.82,40.9272],[-73.8343,40.9142],[-73.8331,40.9017],[-73.8351,40.8961],[-73.8388,40.8935],[-73.8383,40.8902],[-73.8475,40.884],[-73.8536,40.8846],[-73.8549,40.8826],[-73.8485,40.8795],[-73.844,40.8713],[-73.8435,40.8633],[-73.8325,40.8554],[-73.83,40.8485],[-73.835,40.8417],[-73.8329,40.8355],[-73.8276,40.8326],[-73.8258,40.8273],[-73.8208,40.8266],[-73.8095,40.8165],[-73.8067,40.8108],[-73.7907,40.805],[-73.7874,40.8359],[-73.7808,40.8377],[-73.7787,40.8467],[-73.7814,40.8515],[-73.7805,40.8556],[-73.7849,40.8583],[-73.783,40.8628],[-73.7855,40.8683],[-73.7834,40.8678],[-73.7788,40.8748],[-73.7758,40.8852],[-73.7785,40.8882],[-73.7697,40.8937],[-73.7671,40.8927],[-73.7625,40.9058],[-73.7562,40.9096],[-73.7539,40.9077],[-73.7503,40.9088],[-73.7498,40.9131],[-73.7424,40.9175],[-73.7268,40.9243],[-73.7225,40.9226],[-73.7218,40.9282],[-73.7178,40.9308],[-73.7037,40.9342],[-73.7012,40.9303],[-73.6958,40.9334],[-73.6983,40.9405],[-73.6926,40.9508],[-73.694,40.9545],[-73.6894,40.9577],[-73.7008,40.9671],[-73.693,40.9897],[-73.6957,40.9915],[-73.6949,40.9969],[-73.7006,41.0048],[-73.7075,41.0078],[-73.7047,41.0122],[-73.7129,41.0201],[-73.7175,41.0377],[-73.7216,41.0404],[-73.7181,41.0423],[-73.7161,41.057],[-73.7193,41.0624],[-73.7282,41.064]]]}}]}