{"type":"FeatureCollection","features":[{"type":"Feature","id":361,"geometry":{"type":"Polygon","coordinates":[[[-73.5378,41.5776],[-73.5393,41.5856],[-73.5445,41.5832],[-73.545,41.5788],[-73.5522,41.5768],[-73.5516,41.5738],[-73.5568,41.5704],[-73.5613,41.5711],[-73.5633,41.5785],[-73.5689,41.5721],[-73.5806,41.5739],[-73.5848,41.5663],[-73.5998,41.563],[-73.6058,41.5559],[-73.6127,41.5551],[-73.6231,41.56],[-73.6379,41.5551],[-73.6422,41.556],[-73.6484,41.5506],[-73.6574,41.5498],[-73.6627,41.5435],[-73.6703,41.545],[-73.6848,41.5369],[-73.686,41.5451],[-73.6809,41.5507],[-73.6907,41.5519],[-73.6896,41.5584],[-73.6959,41.5635],[-73.6975,41.5597],[-73.7018,41.5582],[-73.7016,41.5551],[-73.72,41.5441],[-73.7232,41.5384],[-73.7376,41.5406],[-73.7486,41.5257],[-73.7569,41.5295],[-73.7602,41.5268],[-73.7688,41.5275],[-73.7714,41.5231],[-73.7704,41.5161],[-73.7674,41.5151],[-73.7684,41.5111],[-73.7706,41.5071],[-73.7772,41.5053],[-73.779,41.5001],[-73.7777,41.4968],[-73.7832,41.4921],[-73.7931,41.4902],[-73.8009,41.4851],[-73.8031,41.4897],[-73.8064,41.4918],[-73.8088,41.4905],[-73.8105,41.4959],[-73.8151,41.496],[-73.8337,41.4656],[-73.8371,41.464],[-73.84,41.4664],[-73.8441,41.4607],[-73.8461,41.4568],[-73.8446,41.4542],[-73.851,41.4481],[-73.8577,41.4496],[-73.8652,41.4439],[-73.8674,41.4335],[-73.8653,41.4309],[-73.8701,41.4239],[-73.8824,41.4139],[-73.884,41.4055],[-73.8824,41.4038],[-73.9022,41.3778],[-73.9139,41.3782],[-73.9142,41.3747],[-73.9204,41.3717],[-73.9165,41.3669],[-73.9243,41.3585],[-73.9281,41.3569],[-73.9298,41.3589],[-73.9358,41.3552],[-73.9393,41.3412],[-73.9471,41.3381],[-73.9492,41.334],[-73.9457,41.3293],[-73.9473,41.3268],[-73.9566,41.3238],[-73.9651,41.3248],[-73.9756,41.3189],[-74.001,41.3224],[-74.0051,41.3139],[-74.0127,41.3076],[-74.0111,41.3041],[-74.0158,41.3012],[-74.0174,41.2971],[-74.0155,41.2885],[-74.0101,41.2837],[-74.0104,41.2813],[-74.025,41.2763],[-74.0252,41.2686],[-74.0313,41.269],[-74.0368,41.2752],[-74.0322,41.2827],[-74.0373,41.2858],[-74.0555,41.2817],[-74.0638,41.2748],[-74.0737,41.2727],[-74.0906,41.2769],[-74.0955,41.282],[-74.0857,41.2911],[-74.0824,41.2981],[-74.0907,41.2979],[-74.1013,41.3063],[-74.1024,41.3106],[-74.118,41.3085],[-74.1253,41.3139],[-74.1295,41.3224],[-74.1428,41.3255],[-74.1439,41.3336],[-74.1547,41.3381],[-74.1523,41.3446],[-74.1553,41.3534],[-74.1621,41.3543],[-74.1682,41.3611],[-74.1734,41.361],[-74.1798,41.3514],[-74.1814,41.3435],[-74.1858,41.341],[-74.1873,41.3336],[-74.1922,41.3337],[-74.2031,41.3264],[-74.2067,41.3362],[-74.2168,41.3265],[-74.2209,41.3146],[-74.2122,41.3131],[-74.211,41.3105],[-74.2196,41.301],[-74.2209,41.2942],[-74.2251,41.2917],[-74.2261,41.2843],[-74.2234,41.2811],[-74.2277,41.2764],[-74.2248,41.2751],[-74.2333,41.2707],[-74.2341,41.2662],[-74.2427,41.2559],[-74.2498,41.258],[-74.253,41.2514],[-74.2565,41.2505],[-74.2702,41.2576],[-74.2772,41.2585],[-74.2795,41.2567],[-74.2827,41.2495],[-74.2908,41.2431],[-74.2966,41.2341],[-74.3173,41.2169],[-74.3224,41.2086],[-74.3322,41.2085],[-74.3449,41.1959],[-74.3419,41.1923],[-74.3539,41.1873],[-74.375,41.1677],[-74.3839,41.1577],[-74.3831,41.1534],[-74.4036,41.1317],[-74.4109,41.131],[-74.4147,41.1378],[-74.4204,41.1376],[-74.4218,41.1445],[-74.4303,41.1444],[-74.4316,41.14],[-74.4472,41.1418],[-74.4459,41.1482],[-74.4516,41.1492],[-74.4455,41.155],[-74.4476,41.1639],[-74.4513,41.1647],[-74.4584,41.1585],[-74.4628,41.1582],[-74.469,41.1492],[-74.4696,41.1522],[-74.4767,41.1551],[-74.4748,41.1594],[-74.4834,41.1606],[-74.485,41.1648],[-74.4825,41.1701],[-74.4904,41.1695],[-74.4918,41.1628],[-74.4955,41.1608],[-74.5083,41.1713],[-74.5104,41.1641],[-74.515,41.1628],[-74.5161,41.1567],[-74.5138,41.154],[-74.5149,41.148],[-74.511,41.1414],[-74.5139,41.1315],[-74.5189,41.1286],[-74.5175,41.1252],[-74.5243,41.1201],[-74.5224,41.1144],[-74.5279,41.1071],[-74.5293,41.1009],[-74.5326,41.0992],[-74.5331,41.0915],[-74.5397,41.0872],[-74.5364,41.0835],[-74.5375,41.0791],[-74.5407,41.0779],[-74.5476,41.0853],[-74.5579,41.082],[-74.5611,41.0769],[-74.5669,41.0741],[-74.5668,41.067],[-74.5805,41.0567],[-74.5884,41.0432],[-74.578,41.0427],[-74.5745,41.0375],[-74.5756,41.0339],[-74.5671,41.0281],[-74.5738,41.0247],[-74.5754,41.02],[-74.5749,41.0161],[-74.565,41.0179],[-74.5645,41.0059],[-74.5411,41.0089],[-74.5407,41.0041],[-74.5483,41.002],[-74.546,40.9977],[-74.5501,40.9948],[-74.5457,40.9924],[-74.548,40.986],[-74.5557,40.9849],[-74.5571,40.9781],[-74.5692,40.9745],[-74.5849,40.9522],[-74.5937,40.955],[-74.5947,40.9522],[-74.6115,40.9431],[-74.6158,40.9379],[-74.6201,40.9396],[-74.6245,40.9333],[-74.622,40.9279],[-74.6286,40.9254],[-74.6308,40.9219],[-74.6294,40.916],[-74.6413,40.915],[-74.6429,40.9108],[-74.6561,40.9047],[-74.6557,40.9005],[-74.659,40.8993],[-74.6658,40.9038],[-74.6725,40.9038],[-74.6775,40.8963],[-74.6859,40.8949],[-74.6902,40.8882],[-74.685,40.8853],[-74.6911,40.8777],[-74.695,40.8762],[-74.7032,40.8778],[-74.7055,40.8746],[-74.716,40.8701],[-74.717,40.8767],[-74.7243,40.8785],[-74.7257,40.8848],[-74.7406,40.8875],[-74.7473,40.8924],[-74.7489,40.8965],[-74.7524,40.8926],[-74.7616,40.8926],[-74.7707,40.888],[-74.7761,40.8837],[-74.7759,40.8768],[-74.766,40.8758],[-74.7693,40.8738],[-74.7692,40.8693],[-74.7743,40.8666],[-74.7712,40.8602],[-74.7869,40.8476],[-74.7817,40.837],[-74.7967,40.8285],[-74.8051,40.8189],[-74.8025,40.8106],[-74.8074,40.806],[-74.809,40.7978],[-74.8132,40.7956],[-74.8108,40.789],[-74.8205,40.7915],[-74.838,40.7895],[-74.8421,40.7841],[-74.8419,40.7797],[-74.8613,40.7761],[-74.8609,40.7702],[-74.8635,40.7678],[-74.8727,40.7699],[-74.88,40.758],[-74.8921,40.7592],[-74.895,40.7563],[-74.8953,40.7489],[-74.9026,40.7477],[-74.9042,40.7376],[-74.9181,40.7368],[-74.9226,40.7306],[-74.937,40.726],[-74.9442,40.7261],[-74.9482,40.7211],[-74.9467,40.7121],[-74.9532,40.7056],[-74.969,40.6947],[-74.9801,40.6958],[-74.9864,40.6932],[-74.9883,40.6848],[-74.9972,40.6799],[-74.9987,40.6752],[-74.997,40.6702],[-75.0213,40.6654],[-75.0155,40.6578],[-75.0235,40.6526],[-75.0317,40.6405],[-75.0364,40.6394],[-75.0453,40.6428],[-75.0559,40.6394],[-75.0508,40.6347],[-75.0517,40.6316],[-75.0414,40.6285],[-75.0365,40.6231],[-75.0165,40.6226],[-75.0112,40.6166],[-74.9971,40.6138],[-74.9902,40.5904],[-74.9915,40.5783],[-74.9861,40.5713],[-74.9778,40.5666],[-74.9852,40.5604],[-74.98,40.5557],[-74.9624,40.5541],[-74.941,40.5595],[-74.9268,40.5526],[-74.9209,40.5583],[-74.9076,40.5613],[-74.9042,40.557],[-74.8963,40.5335],[-74.8969,40.5211],[-74.9012,40.5108],[-74.927,40.4909],[-74.9257,40.4882],[-74.9151,40.4865],[-74.9122,40.4838],[-74.9385,40.4656],[-74.935,40.4568],[-74.9413,40.4501],[-74.9372,40.4431],[-74.9424,40.4306],[-74.9414,40.429],[-74.9206,40.4354],[-74.9112,40.4348],[-74.9039,40.4292],[-74.8862,40.4314],[-74.884,40.4282],[-74.8894,40.4256],[-74.8882,40.4221],[-74.8829,40.4208],[-74.881,40.4123],[-74.8647,40.4089],[-74.8599,40.4043],[-74.8609,40.3957],[-74.8557,40.3924],[-74.8621,40.3872],[-74.8679,40.3864],[-74.8881,40.3701],[-74.8833,40.3614],[-74.8555,40.3716],[-74.8459,40.3662],[-74.8491,40.3627],[-74.8466,40.3598],[-74.8491,40.3536],[-74.842,40.352],[-74.8341,40.3561],[-74.8322,40.3602],[-74.8237,40.3638],[-74.821,40.3572],[-74.8167,40.3544],[-74.8269,40.3444],[-74.8261,40.342],[-74.8151,40.3358],[-74.8181,40.3335],[-74.8165,40.3272],[-74.8055,40.3286],[-74.8,40.3241],[-74.7938,40.3266],[-74.7944,40.3224],[-74.7904,40.3215],[-74.7901,40.3158],[-74.7969,40.3056],[-74.7838,40.2996],[-74.7804,40.2996],[-74.7717,40.3087],[-74.7539,40.3155],[-74.7309,40.3306],[-74.7191,40.3314],[-74.7124,40.3241],[-74.7054,40.3266],[-74.6992,40.322],[-74.7047,40.3156],[-74.7029,40.3117],[-74.6951,40.3103],[-74.6866,40.3041],[-74.6847,40.3052],[-74.6767,40.2904],[-74.6701,40.2912],[-74.6631,40.2881],[-74.6565,40.2924],[-74.6397,40.2862],[-74.6137,40.2826],[-74.5819,40.2636],[-74.5811,40.2561],[-74.564,40.2441],[-74.564,40.2379],[-74.5547,40.2393],[-74.5319,40.2314],[-74.5181,40.232],[-74.5093,40.229],[-74.483,40.2326],[-74.4735,40.2306],[-74.4622,40.2205],[-74.4549,40.2223],[-74.4497,40.2204],[-74.4483,40.2156],[-74.4441,40.212],[-74.4456,40.2082],[-74.4407,40.2073],[-74.4391,40.2031],[-74.4345,40.2035],[-74.4297,40.1986],[-74.4264,40.1975],[-74.4237,40.2009],[-74.4075,40.1968],[-74.3934,40.2012],[-74.3925,40.1944],[-74.3975,40.1913],[-74.3976,40.1888],[-74.3928,40.1851],[-74.3859,40.1845],[-74.3763,40.19],[-74.3772,40.1937],[-74.3731,40.1974],[-74.3722,40.2021],[-74.3497,40.2089],[-74.3369,40.2197],[-74.3369,40.2226],[-74.3228,40.2288],[-74.3242,40.2383],[-74.312,40.2359],[-74.3084,40.2436],[-74.2972,40.247],[-74.2951,40.2524],[-74.2887,40.2504],[-74.2824,40.2521],[-74.2817,40.257],[-74.2717,40.2618],[-74.2653,40.2734],[-74.2501,40.2732],[-74.243,40.2634],[-74.2323,40.2627],[-74.2333,40.2602],[-74.2275,40.2548],[-74.2172,40.2517],[-74.216,40.2469],[-74.2091,40.2424],[-74.198,40.2419],[-74.1905,40.243],[-74.1854,40.2509],[-74.1798,40.2513],[-74.1793,40.2557],[-74.1686,40.2605],[-74.1641,40.2582],[-74.1524,40.2611],[-74.1472,40.2573],[-74.1481,40.2539],[-74.1399,40.2503],[-74.1316,40.2561],[-74.1159,40.2547],[-74.1111,40.2501],[-74.0986,40.2501],[-74.0965,40.2549],[-74.0914,40.2559],[-74.08,40.2718],[-74.0747,40.273],[-74.0528,40.2884],[-74.0468,40.2852],[-74.0463,40.281],[-74.0394,40.2785],[-74.0351,40.2797],[-74.0337,40.2776],[-74.0245,40.2808],[-73.9923,40.2808],[-73.9824,40.2837],[-73.9776,40.3031],[-73.9742,40.3376],[-73.9767,40.399],[-73.9902,40.4394],[-73.9888,40.4475],[-73.9953,40.4597],[-74.001,40.4624],[-74.0163,40.4784],[-73.9406,40.543],[-73.9369,40.5488],[-73.9233,40.5581],[-73.8993,40.5572],[-73.8811,40.5629],[-73.8779,40.5668],[-73.8684,40.5694],[-73.8626,40.5679],[-73.8285,40.5814],[-73.791,40.59],[-73.7565,40.5922],[-73.7568,40.597],[-73.7544,40.5976],[-73.7524,40.6028],[-73.7398,40.6139],[-73.67,40.6562],[-73.6692,40.6594],[-73.6741,40.6671],[-73.6755,40.676],[-73.6664,40.6977],[-73.6621,40.7017],[-73.6652,40.7148],[-73.6614,40.7181],[-73.6601,40.7286],[-73.6647,40.7392],[-73.6627,40.7425],[-73.6661,40.7461],[-73.6655,40.752],[-73.6711,40.7627],[-73.677,40.7665],[-73.6832,40.7665],[-73.6831,40.769],[-73.6857,40.7688],[-73.6912,40.7752],[-73.7066,40.7608],[-73.7283,40.757],[-73.7335,40.7513],[-73.7316,40.7467],[-73.7334,40.7451],[-73.7418,40.7443],[-73.744,40.7413],[-73.75,40.7405],[-73.7578,40.7416],[-73.7668,40.7519],[-73.7676,40.7569],[-73.7775,40.7616],[-73.7815,40.7683],[-73.7841,40.7801],[-73.7795,40.7855],[-73.7809,40.7909],[-73.7787,40.7947],[-73.7907,40.805],[-73.7914,40.808],[-73.7874,40.8359],[-73.7808,40.8377],[-73.7787,40.8462],[-73.7814,40.8515],[-73.7805,40.8556],[-73.7849,40.8583],[-73.783,40.8628],[-73.7855,40.8683],[-73.7834,40.8678],[-73.7788,40.8748],[-73.7758,40.8852],[-73.7785,40.8882],[-73.7697,40.8937],[-73.7671,40.8927],[-73.7628,40.9054],[-73.7572,40.9092],[-73.7503,40.9088],[-73.7498,40.9131],[-73.7278,40.924],[-73.7225,40.9226],[-73.7218,40.9282],[-73.7178,40.9308],[-73.7037,40.9342],[-73.7003,40.9305],[-73.6962,40.9331],[-73.6951,40.9346],[-73.6981,40.9391],[-73.6926,40.9508],[-73.694,40.9545],[-73.6894,40.9577],[-73.7008,40.9671],[-73.693,40.9902],[-73.6957,40.9915],[-73.6947,40.9961],[-73.7015,41.0056],[-73.7075,41.0078],[-73.7047,41.0122],[-73.7129,41.0201],[-73.7175,41.0377],[-73.7216,41.0406],[-73.7183,41.0419],[-73.7187,41.0464],[-73.7168,41.0476],[-73.7158,41.0561],[-73.7181,41.0622],[-73.7104,41.071],[-73.7129,41.0747],[-73.7104,41.0762],[-73.7102,41.081],[-73.7042,41.0846],[-73.7118,41.1004],[-73.7198,41.1058],[-73.7148,41.1207],[-73.7226,41.1286],[-73.7292,41.127],[-73.7283,41.133],[-73.7332,41.139],[-73.7378,41.1511],[-73.7328,41.1552],[-73.7223,41.1503],[-73.7201,41.1585],[-73.7161,41.1554],[-73.7106,41.1559],[-73.702,41.1626],[-73.7021,41.1658],[-73.6977,41.1704],[-73.6973,41.1783],[-73.6921,41.1791],[-73.6915,41.1827],[-73.6866,41.1794],[-73.6842,41.1833],[-73.6747,41.1874],[-73.6709,41.1936],[-73.6603,41.1949],[-73.6571,41.1985],[-73.6478,41.1992],[-73.6451,41.2028],[-73.6476,41.2072],[-73.6438,41.2128],[-73.6381,41.2076],[-73.6253,41.205],[-73.6206,41.2062],[-73.6136,41.1949],[-73.6098,41.1938],[-73.6084,41.1959],[-73.6005,41.1893],[-73.592,41.1873],[-73.5792,41.1988],[-73.5779,41.2012],[-73.5825,41.2021],[-73.5835,41.2058],[-73.5771,41.2118],[-73.5782,41.215],[-73.5735,41.2181],[-73.5719,41.2237],[-73.5649,41.2256],[-73.559,41.2339],[-73.5534,41.2305],[-73.5515,41.2334],[-73.5474,41.2342],[-73.5461,41.2393],[-73.5424,41.2378],[-73.5413,41.249],[-73.5275,41.2678],[-73.5291,41.269],[-73.5277,41.2735],[-73.5304,41.2756],[-73.5232,41.2875],[-73.5191,41.2899],[-73.5166,41.2815],[-73.508,41.2827],[-73.5077,41.2789],[-73.5025,41.2743],[-73.5024,41.2792],[-73.5001,41.2809],[-73.5015,41.2865],[-73.5006,41.2924],[-73.4978,41.2936],[-73.4992,41.3026],[-73.4943,41.3182],[-73.4958,41.3218],[-73.5017,41.3276],[-73.5193,41.3327],[-73.5214,41.3313],[-73.5259,41.3341],[-73.5307,41.3462],[-73.5228,41.3445],[-73.5203,41.3492],[-73.5256,41.3506],[-73.528,41.3594],[-73.5334,41.3659],[-73.5403,41.3674],[-73.5424,41.3638],[-73.551,41.3627],[-73.5593,41.3682],[-73.5511,41.371],[-73.5483,41.3753],[-73.5421,41.3782],[-73.5442,41.3846],[-73.5413,41.3909],[-73.5446,41.3945],[-73.5403,41.4017],[-73.5417,41.4053],[-73.5335,41.4082],[-73.5301,41.412],[-73.5367,41.415],[-73.5394,41.4195],[-73.5348,41.4221],[-73.5284,41.4215],[-73.5255,41.4256],[-73.5226,41.4238],[-73.5219,41.431],[-73.5257,41.4368],[-73.5214,41.4374],[-73.5184,41.4342],[-73.5126,41.4348],[-73.5108,41.4376],[-73.515,41.4435],[-73.5115,41.4483],[-73.5143,41.4481],[-73.5184,41.4562],[-73.5251,41.4549],[-73.5287,41.4648],[-73.5276,41.4704],[-73.5183,41.4698],[-73.5124,41.4751],[-73.5074,41.4761],[-73.5038,41.4854],[-73.5087,41.4934],[-73.5048,41.4986],[-73.5119,41.5048],[-73.5125,41.5082],[-73.5081,41.5102],[-73.5085,41.5194],[-73.505,41.5244],[-73.4945,41.53],[-73.5077,41.5356],[-73.5052,41.543],[-73.5183,41.5468],[-73.5252,41.5576],[-73.5293,41.5583],[-73.53,41.5714],[-73.5342,41.5726],[-73.5378,41.5776]]]},"properties":{"OBJECTID":361,"tnmid":"{F21D7EBD-546F-4E8E-9F91-9827649764B9}","loaddate":1723806686000,"areaacres":2487783.34,"areasqkm":10067.71,"states":"CT,NJ,NY","huc6":"020301","name":"Lower Hudson","MaxSimpTol":100,"MinSimpTol":100,"shape_Length":904865.6510635286,"shape_Area":17593467587.961323,"metasourceid":"{511D2AC8-11BA-45FC-AB98-F69D693D4C44}","sourcedatadesc":"Watershed Boundary Dataset (WBD)","sourceoriginator":"Natural Resources and Conservation Service and U.S. Geological Survey","sourcefeatureid":null,"InPoly_FID":362,"SimPgnFlag":0,"referencegnis_ids":"970226"}}]}