{"type":"FeatureCollection","features":[{"type":"Feature","id":379,"geometry":{"type":"Polygon","coordinates":[[[-74.2484,40.8022],[-74.2546,40.8095],[-74.2637,40.811],[-74.2651,40.8149],[-74.268,40.8132],[-74.2724,40.8013],[-74.2756,40.7989],[-74.2747,40.7947],[-74.2785,40.7919],[-74.282,40.7818],[-74.2866,40.7795],[-74.2897,40.7688],[-74.2964,40.7619],[-74.2961,40.7589],[-74.3026,40.7545],[-74.3027,40.751],[-74.3372,40.7354],[-74.357,40.7215],[-74.3582,40.7157],[-74.3509,40.7084],[-74.3493,40.6972],[-74.358,40.6885],[-74.3671,40.6848],[-74.3692,40.6809],[-74.3777,40.6766],[-74.3766,40.6545],[-74.3788,40.6503],[-74.3768,40.645],[-74.3796,40.6374],[-74.3855,40.6359],[-74.3879,40.6387],[-74.3923,40.6339],[-74.3929,40.627],[-74.399,40.6265],[-74.4005,40.6234],[-74.3959,40.6168],[-74.3915,40.6011],[-74.385,40.598],[-74.389,40.5955],[-74.3901,40.5847],[-74.3859,40.5847],[-74.3805,40.5763],[-74.3585,40.574],[-74.3576,40.5696],[-74.3635,40.5665],[-74.3655,40.5585],[-74.3574,40.5483],[-74.3513,40.5479],[-74.3431,40.5402],[-74.3258,40.5349],[-74.3119,40.5356],[-74.3083,40.5407],[-74.3039,40.5373],[-74.2943,40.538],[-74.2899,40.5357],[-74.29,40.5309],[-74.2786,40.529],[-74.2756,40.5152],[-74.2688,40.5109],[-74.2668,40.5057],[-74.27,40.497],[-74.2762,40.491],[-74.2884,40.4863],[-74.2908,40.4781],[-74.2977,40.4693],[-74.2964,40.4557],[-74.2881,40.4495],[-74.3,40.4419],[-74.3003,40.4373],[-74.2931,40.4266],[-74.2621,40.4224],[-74.266,40.4193],[-74.2654,40.4147],[-74.2738,40.412],[-74.2786,40.4049],[-74.2853,40.4017],[-74.2834,40.3973],[-74.2751,40.3933],[-74.2689,40.3938],[-74.2667,40.3916],[-74.2673,40.3854],[-74.2585,40.3796],[-74.2568,40.3746],[-74.2515,40.3741],[-74.2465,40.3768],[-74.2277,40.3738],[-74.2385,40.3605],[-74.2355,40.3535],[-74.2453,40.351],[-74.2538,40.3434],[-74.2618,40.3281],[-74.2702,40.3231],[-74.2655,40.3185],[-74.2465,40.3135],[-74.2447,40.3086],[-74.2474,40.3037],[-74.2427,40.3011],[-74.2492,40.2943],[-74.2507,40.2824],[-74.2582,40.281],[-74.261,40.2733],[-74.2501,40.2732],[-74.243,40.2634],[-74.2323,40.2627],[-74.2333,40.2602],[-74.2275,40.2548],[-74.2172,40.2517],[-74.216,40.2469],[-74.2091,40.2424],[-74.1913,40.2426],[-74.1854,40.2509],[-74.1798,40.2513],[-74.1793,40.2557],[-74.1686,40.2605],[-74.1641,40.2582],[-74.1524,40.2611],[-74.1472,40.2573],[-74.1481,40.2539],[-74.1399,40.2503],[-74.1316,40.2561],[-74.1159,40.2547],[-74.1111,40.2501],[-74.0986,40.2501],[-74.0965,40.2549],[-74.0914,40.2559],[-74.08,40.2718],[-74.0747,40.273],[-74.0528,40.2884],[-74.0468,40.2852],[-74.0463,40.281],[-74.0394,40.2785],[-74.0351,40.2797],[-74.0337,40.2776],[-74.0245,40.2808],[-74.0158,40.2795],[-74.0139,40.2817],[-73.9845,40.282],[-73.9815,40.2855],[-73.9776,40.3031],[-73.9742,40.3376],[-73.9767,40.399],[-73.9902,40.4394],[-73.9888,40.4475],[-73.9953,40.4597],[-74.001,40.4624],[-74.0163,40.4784],[-73.9406,40.543],[-73.9356,40.55],[-73.9233,40.5581],[-73.8993,40.5572],[-73.8811,40.5629],[-73.8779,40.5668],[-73.8684,40.5694],[-73.8626,40.5679],[-73.8285,40.5814],[-73.791,40.59],[-73.7565,40.5922],[-73.7568,40.597],[-73.7544,40.5976],[-73.7524,40.6028],[-73.7398,40.6139],[-73.7093,40.6317],[-73.6982,40.6408],[-73.674,40.6527],[-73.6693,40.6577],[-73.6741,40.6671],[-73.6755,40.676],[-73.6664,40.6977],[-73.6621,40.7017],[-73.6652,40.7148],[-73.6614,40.7181],[-73.6602,40.7291],[-73.6647,40.7392],[-73.6627,40.7425],[-73.6661,40.7461],[-73.6655,40.752],[-73.6705,40.7618],[-73.677,40.7665],[-73.6832,40.7665],[-73.6831,40.769],[-73.6857,40.7688],[-73.6912,40.7752],[-73.7066,40.7608],[-73.7283,40.757],[-73.7335,40.7513],[-73.7316,40.7464],[-73.7419,40.7443],[-73.7503,40.7291],[-73.761,40.7264],[-73.7706,40.7196],[-73.7792,40.7202],[-73.8028,40.713],[-73.8327,40.7116],[-73.8379,40.7061],[-73.8435,40.705],[-73.8448,40.7019],[-73.8542,40.7032],[-73.8607,40.6996],[-73.8605,40.6976],[-73.8893,40.6904],[-73.891,40.6851],[-73.9028,40.6823],[-73.9305,40.6685],[-73.9476,40.6669],[-73.9655,40.6711],[-73.9643,40.6779],[-73.968,40.6867],[-73.9785,40.6851],[-73.9924,40.6957],[-74.0015,40.6929],[-74.0162,40.7016],[-74.0431,40.7078],[-74.0836,40.7092],[-74.0912,40.7041],[-74.1159,40.7173],[-74.1231,40.7135],[-74.1395,40.7158],[-74.1417,40.7185],[-74.1377,40.7243],[-74.1385,40.727],[-74.1452,40.7278],[-74.1556,40.7248],[-74.1837,40.7412],[-74.1906,40.7421],[-74.2057,40.7392],[-74.2061,40.7468],[-74.2091,40.7505],[-74.2071,40.7541],[-74.2106,40.7576],[-74.211,40.764],[-74.2216,40.7664],[-74.2403,40.7498],[-74.2461,40.7546],[-74.231,40.7695],[-74.2345,40.7761],[-74.2398,40.777],[-74.2389,40.7809],[-74.2431,40.7861],[-74.2503,40.7904],[-74.2499,40.7947],[-74.2433,40.8038],[-74.2484,40.8022]]]},"properties":{"objectid":379,"tnmid":"{570DD126-59F9-4962-A195-377DB533FD3C}","metasourceid":"{511D2AC8-11BA-45FC-AB98-F69D693D4C44}","sourcedatadesc":"Watershed Boundary Dataset (WBD)","sourceoriginator":"Natural Resources and Conservation Service and U.S. Geological Survey","sourcefeatureid":null,"loaddate":1723803860000,"referencegnis_ids":"882562,942078","areaacres":454261.84,"areasqkm":1838.33,"states":"NJ,NY","huc8":"02030104","name":"Sandy Hook-Staten Island","globalid":"{2435B974-5878-4EC9-93EA-1C90BC7BEC6F}","shape_Length":368990.4200040969,"shape_Area":3187093912.2648954}},{"type":"Feature","id":2370,"geometry":{"type":"Polygon","coordinates":[[[-74.1675,41.3603],[-74.1753,41.3595],[-74.1814,41.3435],[-74.1858,41.341],[-74.1873,41.3336],[-74.1922,41.3337],[-74.2031,41.3264],[-74.2067,41.3362],[-74.2168,41.3265],[-74.2209,41.3146],[-74.2122,41.3131],[-74.211,41.3105],[-74.2196,41.301],[-74.2209,41.2942],[-74.2251,41.2917],[-74.2261,41.2843],[-74.2234,41.2811],[-74.2277,41.2764],[-74.2248,41.2751],[-74.2333,41.2707],[-74.2341,41.2662],[-74.2427,41.2559],[-74.2498,41.258],[-74.253,41.2514],[-74.2565,41.2505],[-74.2702,41.2576],[-74.2772,41.2585],[-74.2795,41.2567],[-74.2827,41.2495],[-74.2908,41.2431],[-74.2966,41.2341],[-74.3173,41.2169],[-74.3224,41.2086],[-74.3322,41.2085],[-74.3449,41.1959],[-74.3419,41.1923],[-74.3539,41.1873],[-74.375,41.1677],[-74.3839,41.1577],[-74.3831,41.1534],[-74.4036,41.1317],[-74.4109,41.131],[-74.4147,41.1378],[-74.4204,41.1376],[-74.4218,41.1445],[-74.4303,41.1444],[-74.4316,41.14],[-74.4472,41.1418],[-74.4459,41.1482],[-74.4516,41.1492],[-74.4455,41.155],[-74.4476,41.1639],[-74.4513,41.1647],[-74.4584,41.1585],[-74.4628,41.1582],[-74.469,41.1492],[-74.4696,41.1522],[-74.4767,41.1551],[-74.4748,41.1594],[-74.4834,41.1606],[-74.485,41.1648],[-74.4825,41.1701],[-74.4904,41.1695],[-74.4918,41.1628],[-74.4955,41.1608],[-74.5083,41.1713],[-74.5104,41.1641],[-74.515,41.1628],[-74.5161,41.1567],[-74.5138,41.154],[-74.5149,41.148],[-74.511,41.1414],[-74.5139,41.1315],[-74.5189,41.1286],[-74.5175,41.1252],[-74.5243,41.1201],[-74.5224,41.1144],[-74.5279,41.1071],[-74.5293,41.1009],[-74.5326,41.0992],[-74.5331,41.0915],[-74.5397,41.0872],[-74.5364,41.0835],[-74.5375,41.0791],[-74.5407,41.0779],[-74.5476,41.0853],[-74.5575,41.0823],[-74.5611,41.0769],[-74.5669,41.0741],[-74.5668,41.067],[-74.5817,41.0551],[-74.5884,41.043],[-74.578,41.0427],[-74.5745,41.0375],[-74.5756,41.0339],[-74.5669,41.0277],[-74.5738,41.0247],[-74.5755,41.0164],[-74.5651,41.0181],[-74.5645,41.0059],[-74.5407,41.0083],[-74.5412,41.0036],[-74.5484,41.0016],[-74.546,40.9977],[-74.5501,40.9942],[-74.5457,40.9924],[-74.5458,40.9885],[-74.548,40.986],[-74.5557,40.9849],[-74.5571,40.9781],[-74.5692,40.9745],[-74.5849,40.9522],[-74.5937,40.955],[-74.5947,40.9522],[-74.6115,40.9431],[-74.6158,40.9379],[-74.6201,40.9396],[-74.6245,40.9333],[-74.622,40.9279],[-74.6289,40.9252],[-74.631,40.9186],[-74.6282,40.9156],[-74.6347,40.9094],[-74.6267,40.9004],[-74.6091,40.8961],[-74.6109,40.8931],[-74.6066,40.8891],[-74.6004,40.8883],[-74.6046,40.8823],[-74.5988,40.8797],[-74.6117,40.8615],[-74.6125,40.8528],[-74.6048,40.8507],[-74.5997,40.8445],[-74.574,40.8401],[-74.5702,40.836],[-74.5771,40.8286],[-74.5833,40.8269],[-74.601,40.8128],[-74.5985,40.804],[-74.6041,40.799],[-74.602,40.7942],[-74.5924,40.7987],[-74.5884,40.7945],[-74.5845,40.7855],[-74.5937,40.7782],[-74.5997,40.779],[-74.6006,40.7733],[-74.5922,40.7696],[-74.5912,40.7655],[-74.5856,40.7665],[-74.5793,40.7592],[-74.5854,40.7583],[-74.5848,40.7543],[-74.5988,40.7444],[-74.5976,40.7389],[-74.5893,40.7351],[-74.5832,40.7377],[-74.5754,40.7366],[-74.5655,40.7305],[-74.5676,40.7219],[-74.5662,40.7131],[-74.5736,40.7102],[-74.5814,40.702],[-74.5991,40.6968],[-74.6018,40.6905],[-74.614,40.6791],[-74.6107,40.6695],[-74.6199,40.6535],[-74.5998,40.6421],[-74.5979,40.6385],[-74.5997,40.6315],[-74.5957,40.6294],[-74.5916,40.6327],[-74.5811,40.6311],[-74.5739,40.6291],[-74.5707,40.6255],[-74.5576,40.6227],[-74.539,40.6235],[-74.5347,40.6218],[-74.5237,40.6239],[-74.5136,40.6172],[-74.5095,40.6215],[-74.4942,40.6257],[-74.4828,40.6323],[-74.4873,40.6356],[-74.4886,40.6421],[-74.4556,40.654],[-74.4047,40.6849],[-74.3985,40.6809],[-74.3938,40.6827],[-74.3612,40.7049],[-74.3539,40.7126],[-74.3578,40.715],[-74.3582,40.718],[-74.353,40.7246],[-74.3372,40.7354],[-74.3033,40.7505],[-74.3022,40.7552],[-74.2964,40.7584],[-74.2964,40.7619],[-74.2899,40.7684],[-74.2864,40.7798],[-74.282,40.7818],[-74.2785,40.7919],[-74.2747,40.7947],[-74.2756,40.7989],[-74.2654,40.8149],[-74.2641,40.8112],[-74.2546,40.8095],[-74.2484,40.8022],[-74.2433,40.8038],[-74.2499,40.7947],[-74.2503,40.7904],[-74.2389,40.7809],[-74.2398,40.777],[-74.2345,40.7761],[-74.2316,40.772],[-74.2319,40.7672],[-74.2454,40.7556],[-74.2448,40.7522],[-74.2395,40.7501],[-74.2216,40.7664],[-74.211,40.764],[-74.2106,40.7576],[-74.2071,40.7541],[-74.2091,40.7505],[-74.2061,40.7468],[-74.2057,40.7392],[-74.1906,40.7421],[-74.1837,40.7412],[-74.1556,40.7248],[-74.1452,40.7278],[-74.1385,40.727],[-74.1377,40.7243],[-74.1417,40.7185],[-74.1395,40.7158],[-74.1231,40.7135],[-74.1159,40.7173],[-74.0901,40.7042],[-74.0843,40.7077],[-74.0724,40.7255],[-74.0606,40.7319],[-74.0592,40.7387],[-74.0527,40.7456],[-74.0518,40.7517],[-74.0403,40.7552],[-74.037,40.7643],[-74.0293,40.7677],[-74.0216,40.779],[-74.0203,40.7893],[-74.0124,40.7958],[-73.9973,40.8176],[-73.9886,40.8254],[-73.9885,40.8287],[-73.9843,40.833],[-73.9777,40.8486],[-73.9711,40.8558],[-73.969,40.8626],[-73.9544,40.8709],[-73.9514,40.8786],[-73.9545,40.8839],[-73.9442,40.8966],[-73.9461,40.9029],[-73.9371,40.9239],[-73.9381,40.9304],[-73.9347,40.9327],[-73.9289,40.9304],[-73.9229,40.9429],[-73.9204,40.9592],[-73.9236,40.9645],[-73.923,40.9683],[-73.9154,40.9735],[-73.9166,40.9787],[-73.9267,40.9856],[-73.9369,40.9891],[-73.9355,40.9985],[-73.9419,41.004],[-73.9541,41.0065],[-73.9546,41.0247],[-73.9578,41.0285],[-73.9572,41.0354],[-73.9633,41.0523],[-73.9548,41.0674],[-73.9458,41.0675],[-73.9384,41.0723],[-73.9289,41.0734],[-73.9313,41.0782],[-73.9291,41.081],[-73.9382,41.0935],[-73.9293,41.1019],[-73.936,41.1086],[-73.9299,41.1119],[-73.9278,41.1172],[-73.9126,41.123],[-73.9086,41.1284],[-73.9089,41.1352],[-73.9139,41.1429],[-73.9123,41.1471],[-73.9219,41.1595],[-73.9371,41.1717],[-73.9435,41.1727],[-73.9442,41.176],[-73.9583,41.1813],[-73.9586,41.1838],[-73.9692,41.1897],[-73.9904,41.1966],[-74.0341,41.1833],[-74.0298,41.1588],[-74.0377,41.1587],[-74.042,41.1406],[-74.0586,41.1411],[-74.0631,41.1447],[-74.0634,41.1482],[-74.0592,41.1527],[-74.0613,41.1568],[-74.0584,41.1616],[-74.0649,41.1631],[-74.0614,41.1906],[-74.0552,41.193],[-74.0517,41.2024],[-74.0467,41.2041],[-74.0493,41.207],[-74.0482,41.2089],[-74.0557,41.2125],[-74.0641,41.2032],[-74.0721,41.2038],[-74.078,41.2007],[-74.0946,41.2025],[-74.1088,41.1928],[-74.1134,41.1948],[-74.1054,41.2028],[-74.1061,41.2054],[-74.0974,41.2107],[-74.1056,41.2161],[-74.0911,41.2233],[-74.0932,41.2265],[-74.1007,41.2275],[-74.0892,41.2377],[-74.0916,41.2387],[-74.0977,41.2563],[-74.1045,41.2587],[-74.1053,41.2633],[-74.0914,41.2769],[-74.0955,41.282],[-74.0857,41.2911],[-74.0821,41.2977],[-74.0861,41.2994],[-74.0907,41.2979],[-74.1013,41.3063],[-74.1024,41.3106],[-74.118,41.3085],[-74.1253,41.3139],[-74.1295,41.3224],[-74.1428,41.3255],[-74.1439,41.3336],[-74.1547,41.3381],[-74.1523,41.3446],[-74.1553,41.3534],[-74.1621,41.3543],[-74.1675,41.3603]]]},"properties":{"objectid":2370,"tnmid":"{7A003D74-F050-4EEC-8802-8EECFBCC10ED}","metasourceid":"{511D2AC8-11BA-45FC-AB98-F69D693D4C44}","sourcedatadesc":"Watershed Boundary Dataset (WBD)","sourceoriginator":"Natural Resources and Conservation Service and U.S. Geological Survey","sourcefeatureid":null,"loaddate":1723803860000,"referencegnis_ids":"876855,879156","areaacres":725761.74,"areasqkm":2937.06,"states":"NJ,NY","huc8":"02030103","name":"Hackensack-Passaic","globalid":"{2B38953B-24C7-41E1-9EE7-0CA4C88B9ADA}","shape_Length":483801.4778180531,"shape_Area":5155942232.973789}},{"type":"Feature","id":2377,"geometry":{"type":"Polygon","coordinates":[[[-73.5384,41.5833],[-73.5393,41.5856],[-73.5445,41.5832],[-73.5434,41.58],[-73.5522,41.5768],[-73.5516,41.5738],[-73.5568,41.5704],[-73.5613,41.5711],[-73.5633,41.5785],[-73.5689,41.5721],[-73.5796,41.5742],[-73.5848,41.5663],[-73.5998,41.563],[-73.6058,41.5559],[-73.6127,41.5551],[-73.6231,41.56],[-73.6379,41.5551],[-73.6422,41.556],[-73.6484,41.5506],[-73.6574,41.5498],[-73.6627,41.5435],[-73.6703,41.545],[-73.6848,41.5369],[-73.686,41.5451],[-73.6809,41.5507],[-73.6907,41.5519],[-73.6896,41.5584],[-73.6959,41.5635],[-73.6975,41.5597],[-73.7018,41.5582],[-73.7016,41.5551],[-73.72,41.5441],[-73.7232,41.5384],[-73.7376,41.5406],[-73.7486,41.5257],[-73.7569,41.5295],[-73.7602,41.5268],[-73.7681,41.528],[-73.7714,41.5231],[-73.7681,41.512],[-73.7706,41.5071],[-73.7772,41.5053],[-73.779,41.5001],[-73.7777,41.4968],[-73.7832,41.4921],[-73.7931,41.4902],[-73.8004,41.4851],[-73.8064,41.4918],[-73.8088,41.4905],[-73.8105,41.4959],[-73.8151,41.496],[-73.8337,41.4656],[-73.8371,41.464],[-73.84,41.4664],[-73.8441,41.4607],[-73.8461,41.4568],[-73.8446,41.4542],[-73.851,41.4481],[-73.8577,41.4496],[-73.8652,41.4439],[-73.8674,41.4335],[-73.8653,41.4309],[-73.8701,41.4239],[-73.8824,41.4139],[-73.884,41.4055],[-73.8824,41.4038],[-73.9026,41.3774],[-73.9139,41.3782],[-73.9142,41.3747],[-73.9204,41.3717],[-73.9165,41.3669],[-73.9243,41.3585],[-73.9281,41.3569],[-73.9298,41.3589],[-73.9358,41.3552],[-73.9393,41.3412],[-73.9471,41.3381],[-73.9492,41.334],[-73.9457,41.3293],[-73.9473,41.3268],[-73.9566,41.3238],[-73.9651,41.3248],[-73.9756,41.3189],[-74.0007,41.3228],[-74.0051,41.3139],[-74.0127,41.3076],[-74.0111,41.3041],[-74.0158,41.3012],[-74.0174,41.2971],[-74.0155,41.2885],[-74.0101,41.2837],[-74.0104,41.2813],[-74.025,41.2763],[-74.0252,41.2686],[-74.0313,41.269],[-74.0368,41.2752],[-74.0322,41.2827],[-74.0373,41.2858],[-74.0555,41.2817],[-74.0638,41.2748],[-74.0737,41.2727],[-74.0912,41.2773],[-74.1046,41.2646],[-74.1045,41.2587],[-74.0977,41.2563],[-74.0916,41.2387],[-74.0892,41.2377],[-74.1008,41.2277],[-74.0932,41.2265],[-74.0911,41.2233],[-74.1056,41.2161],[-74.0988,41.2133],[-74.0975,41.2104],[-74.1061,41.2054],[-74.1049,41.2036],[-74.1134,41.1946],[-74.1088,41.1928],[-74.0946,41.2025],[-74.078,41.2007],[-74.0721,41.2038],[-74.0641,41.2032],[-74.0557,41.2125],[-74.0481,41.2087],[-74.0493,41.207],[-74.0467,41.2041],[-74.0517,41.2024],[-74.0552,41.193],[-74.0613,41.1909],[-74.0648,41.17],[-74.0649,41.1629],[-74.0585,41.1618],[-74.0613,41.1568],[-74.0592,41.1527],[-74.0635,41.1457],[-74.0589,41.1412],[-74.042,41.1406],[-74.0377,41.1587],[-74.03,41.1584],[-74.0341,41.1833],[-74.0134,41.1911],[-73.9885,41.1966],[-73.9692,41.1897],[-73.9586,41.1838],[-73.9586,41.1814],[-73.9442,41.176],[-73.9435,41.1727],[-73.9371,41.1717],[-73.9298,41.1665],[-73.9123,41.1471],[-73.9139,41.1429],[-73.9105,41.1396],[-73.9085,41.1295],[-73.9126,41.123],[-73.9256,41.1187],[-73.9299,41.1119],[-73.936,41.1089],[-73.9293,41.1017],[-73.9376,41.0954],[-73.9381,41.0928],[-73.9291,41.0812],[-73.9313,41.0782],[-73.9289,41.0734],[-73.9384,41.0723],[-73.9458,41.0675],[-73.9548,41.0674],[-73.9633,41.0523],[-73.9572,41.0354],[-73.9578,41.0285],[-73.9546,41.0247],[-73.9541,41.0065],[-73.9419,41.004],[-73.9355,40.9985],[-73.9369,40.9891],[-73.9267,40.9856],[-73.9159,40.9779],[-73.9158,40.9718],[-73.922,40.9702],[-73.9233,40.9666],[-73.9204,40.9592],[-73.9229,40.9425],[-73.9289,40.9304],[-73.9347,40.9327],[-73.9381,40.9304],[-73.9371,40.9239],[-73.9461,40.9029],[-73.9442,40.8966],[-73.9545,40.8839],[-73.9514,40.8786],[-73.9544,40.8709],[-73.969,40.8626],[-73.9711,40.8558],[-73.9777,40.8486],[-73.9843,40.833],[-73.9885,40.8287],[-73.9886,40.8254],[-73.9973,40.8176],[-74.0124,40.7958],[-74.0203,40.7893],[-74.0216,40.779],[-74.0293,40.7677],[-74.037,40.7643],[-74.0403,40.7552],[-74.0518,40.7517],[-74.0527,40.7456],[-74.0592,40.7387],[-74.0599,40.7329],[-74.0724,40.7255],[-74.0836,40.7092],[-74.041,40.7075],[-74.0162,40.7016],[-74.0015,40.6929],[-73.9924,40.6957],[-73.9785,40.6851],[-73.968,40.6867],[-73.9643,40.6779],[-73.9655,40.6711],[-73.9482,40.6669],[-73.9305,40.6685],[-73.9028,40.6823],[-73.891,40.6851],[-73.8898,40.6902],[-73.8802,40.6943],[-73.8796,40.6992],[-73.8835,40.7108],[-73.8963,40.7161],[-73.8861,40.7273],[-73.8948,40.7291],[-73.9071,40.7362],[-73.9112,40.7416],[-73.9102,40.7459],[-73.9128,40.749],[-73.9112,40.7513],[-73.914,40.7627],[-73.9093,40.7694],[-73.9127,40.7787],[-73.9092,40.7838],[-73.9097,40.7906],[-73.9128,40.7969],[-73.917,40.7985],[-73.9231,40.8062],[-73.9256,40.8191],[-73.902,40.8507],[-73.9006,40.856],[-73.9032,40.8623],[-73.9006,40.8685],[-73.8796,40.8816],[-73.8821,40.8852],[-73.8811,40.8897],[-73.8784,40.896],[-73.8733,40.898],[-73.8727,40.9026],[-73.8788,40.9069],[-73.8729,40.9126],[-73.8702,40.9234],[-73.8644,40.9289],[-73.8652,40.9336],[-73.8554,40.9461],[-73.8673,40.9454],[-73.8697,40.9499],[-73.8633,40.9626],[-73.864,40.9748],[-73.8572,40.9839],[-73.8555,40.9939],[-73.8488,40.998],[-73.847,41.0037],[-73.8344,41.017],[-73.8325,41.0281],[-73.8263,41.0284],[-73.8236,41.0351],[-73.8195,41.036],[-73.8161,41.0337],[-73.8171,41.029],[-73.8114,41.0203],[-73.8059,41.0255],[-73.8076,41.031],[-73.8115,41.0333],[-73.8154,41.0459],[-73.8137,41.0484],[-73.8163,41.0519],[-73.8125,41.0563],[-73.8068,41.0552],[-73.8026,41.0615],[-73.7984,41.0625],[-73.7953,41.0667],[-73.8009,41.0778],[-73.8034,41.079],[-73.8035,41.0843],[-73.7986,41.0855],[-73.8003,41.0948],[-73.7933,41.0978],[-73.7848,41.0975],[-73.7855,41.1068],[-73.7822,41.1143],[-73.7678,41.1106],[-73.7619,41.1162],[-73.7563,41.1177],[-73.7544,41.1228],[-73.7514,41.1228],[-73.7549,41.1371],[-73.7521,41.1412],[-73.7514,41.1489],[-73.7558,41.1561],[-73.7515,41.1544],[-73.7489,41.156],[-73.748,41.1508],[-73.7398,41.1445],[-73.737,41.1471],[-73.737,41.1523],[-73.7328,41.1552],[-73.7223,41.1503],[-73.7203,41.1585],[-73.7161,41.1554],[-73.7106,41.1559],[-73.702,41.1626],[-73.7021,41.1658],[-73.6977,41.1704],[-73.6973,41.1783],[-73.6921,41.1791],[-73.6915,41.1827],[-73.6866,41.1794],[-73.6842,41.1833],[-73.6747,41.1874],[-73.6709,41.1936],[-73.6603,41.1949],[-73.6571,41.1985],[-73.6478,41.1992],[-73.6451,41.2028],[-73.6476,41.2072],[-73.6438,41.2128],[-73.6381,41.2076],[-73.6253,41.205],[-73.6206,41.2062],[-73.6136,41.1949],[-73.6098,41.1938],[-73.6081,41.1958],[-73.6005,41.1893],[-73.592,41.1873],[-73.5852,41.1916],[-73.5816,41.1985],[-73.5785,41.1998],[-73.5827,41.2023],[-73.5835,41.2058],[-73.5771,41.2118],[-73.5782,41.215],[-73.5735,41.2181],[-73.5719,41.2237],[-73.5649,41.2256],[-73.559,41.2339],[-73.5534,41.2305],[-73.5515,41.2334],[-73.5474,41.2342],[-73.5461,41.2393],[-73.5424,41.2378],[-73.5413,41.249],[-73.5275,41.2678],[-73.5291,41.269],[-73.5277,41.2735],[-73.5304,41.2756],[-73.5232,41.2875],[-73.5191,41.2899],[-73.5166,41.2815],[-73.508,41.2827],[-73.5077,41.2789],[-73.5025,41.2743],[-73.5024,41.2792],[-73.5001,41.2809],[-73.5006,41.2924],[-73.4978,41.2936],[-73.498,41.3106],[-73.4943,41.3182],[-73.4958,41.3218],[-73.5044,41.3288],[-73.5131,41.3294],[-73.5193,41.3327],[-73.5214,41.3313],[-73.5259,41.3341],[-73.5307,41.3462],[-73.5228,41.3445],[-73.5203,41.3492],[-73.5256,41.3506],[-73.528,41.3594],[-73.5334,41.3659],[-73.5403,41.3674],[-73.5424,41.3638],[-73.551,41.3627],[-73.5593,41.3682],[-73.5511,41.371],[-73.5483,41.3753],[-73.5421,41.3782],[-73.5442,41.3846],[-73.5413,41.3909],[-73.5446,41.3945],[-73.5403,41.4017],[-73.5417,41.4053],[-73.5335,41.4082],[-73.5301,41.412],[-73.5367,41.415],[-73.5394,41.4195],[-73.5348,41.4221],[-73.5284,41.4215],[-73.5255,41.4256],[-73.5226,41.4238],[-73.5219,41.431],[-73.5257,41.4368],[-73.5214,41.4374],[-73.5184,41.4342],[-73.5126,41.4348],[-73.5108,41.4376],[-73.515,41.4435],[-73.5115,41.4483],[-73.5143,41.4481],[-73.5184,41.4562],[-73.5251,41.4549],[-73.5287,41.4648],[-73.5276,41.4704],[-73.5183,41.4698],[-73.5124,41.4751],[-73.5074,41.4761],[-73.5038,41.4854],[-73.5087,41.4934],[-73.5048,41.4986],[-73.5119,41.5048],[-73.5125,41.5082],[-73.5081,41.5102],[-73.5085,41.5194],[-73.505,41.5244],[-73.4945,41.53],[-73.5077,41.5356],[-73.5052,41.543],[-73.5183,41.5468],[-73.5252,41.5576],[-73.5293,41.5583],[-73.53,41.5714],[-73.5342,41.5726],[-73.5378,41.5776],[-73.5384,41.5833]]]},"properties":{"objectid":2377,"tnmid":"{F1188705-0F41-4FB9-8FAA-04A4F81A8CCC}","metasourceid":"{511D2AC8-11BA-45FC-AB98-F69D693D4C44}","sourcedatadesc":"Watershed Boundary Dataset (WBD)","sourceoriginator":"Natural Resources and Conservation Service and U.S. Geological Survey","sourcefeatureid":null,"loaddate":1723803860000,"referencegnis_ids":"970226","areaacres":479811.37,"areasqkm":1941.73,"states":"CT,NJ,NY","huc8":"02030101","name":"Lower Hudson","globalid":"{945CE878-0672-4B30-B7D6-E60B06BFA116}","shape_Length":535760.5678028117,"shape_Area":3436449969.4658647}},{"type":"Feature","id":2396,"geometry":{"type":"Polygon","coordinates":[[[-73.7483,41.1546],[-73.7558,41.1561],[-73.7514,41.1489],[-73.7521,41.1412],[-73.7549,41.1371],[-73.7514,41.1228],[-73.7544,41.1228],[-73.7563,41.1177],[-73.7619,41.1162],[-73.7678,41.1106],[-73.7822,41.1143],[-73.7855,41.1068],[-73.7848,41.0975],[-73.7933,41.0978],[-73.8003,41.0948],[-73.7986,41.0855],[-73.8035,41.0843],[-73.8034,41.079],[-73.8009,41.0778],[-73.7953,41.0667],[-73.7984,41.0625],[-73.8026,41.0615],[-73.8068,41.0552],[-73.8125,41.0563],[-73.8163,41.0519],[-73.8137,41.0484],[-73.8154,41.0459],[-73.8115,41.0333],[-73.8076,41.031],[-73.8064,41.0248],[-73.8114,41.0203],[-73.8171,41.029],[-73.8161,41.0337],[-73.8195,41.036],[-73.8236,41.0351],[-73.8263,41.0284],[-73.8325,41.0281],[-73.8344,41.017],[-73.847,41.0037],[-73.8488,40.998],[-73.8555,40.9939],[-73.8572,40.9839],[-73.864,40.9748],[-73.8633,40.9626],[-73.8697,40.9499],[-73.8673,40.9454],[-73.8554,40.9461],[-73.8652,40.9336],[-73.8644,40.9289],[-73.8702,40.9234],[-73.8729,40.9126],[-73.8788,40.9069],[-73.8727,40.9026],[-73.8733,40.898],[-73.8784,40.896],[-73.8811,40.8897],[-73.8821,40.8852],[-73.8796,40.8816],[-73.9006,40.8685],[-73.9032,40.8623],[-73.9006,40.856],[-73.902,40.8507],[-73.9256,40.8191],[-73.9231,40.8062],[-73.917,40.7985],[-73.9128,40.7969],[-73.9097,40.7906],[-73.9092,40.7838],[-73.9127,40.7787],[-73.9093,40.7694],[-73.914,40.7627],[-73.9112,40.7513],[-73.9128,40.749],[-73.9102,40.7459],[-73.9112,40.7416],[-73.9071,40.7362],[-73.8948,40.7291],[-73.8861,40.7273],[-73.8964,40.7169],[-73.8831,40.7103],[-73.8794,40.6977],[-73.8802,40.6943],[-73.8842,40.6922],[-73.8796,40.6915],[-73.8723,40.6956],[-73.8605,40.6976],[-73.8607,40.6996],[-73.8542,40.7032],[-73.8448,40.7019],[-73.8435,40.705],[-73.8379,40.7061],[-73.8327,40.7116],[-73.8028,40.713],[-73.7792,40.7202],[-73.7706,40.7196],[-73.761,40.7264],[-73.7503,40.7291],[-73.7473,40.732],[-73.7486,40.7349],[-73.7441,40.7394],[-73.746,40.7419],[-73.7508,40.7405],[-73.7591,40.7424],[-73.7668,40.7519],[-73.7676,40.7569],[-73.7775,40.7616],[-73.7838,40.7736],[-73.7841,40.7801],[-73.7795,40.7855],[-73.7809,40.7909],[-73.7787,40.7947],[-73.7907,40.805],[-73.7914,40.809],[-73.7874,40.8359],[-73.7808,40.8377],[-73.7787,40.8467],[-73.7814,40.8515],[-73.7805,40.8556],[-73.7849,40.8583],[-73.783,40.8628],[-73.7855,40.8683],[-73.7834,40.8678],[-73.7788,40.8748],[-73.7758,40.8852],[-73.7785,40.8882],[-73.7697,40.8937],[-73.7671,40.8927],[-73.7625,40.9058],[-73.7562,40.9096],[-73.7539,40.9077],[-73.7503,40.9088],[-73.7498,40.9131],[-73.7278,40.924],[-73.7225,40.9226],[-73.7218,40.9282],[-73.7184,40.9306],[-73.7037,40.9342],[-73.7012,40.9303],[-73.6958,40.9334],[-73.6983,40.9405],[-73.6926,40.9508],[-73.694,40.9545],[-73.6894,40.9577],[-73.7008,40.9671],[-73.693,40.9897],[-73.6957,40.9915],[-73.6949,40.9969],[-73.7006,41.0048],[-73.7075,41.0078],[-73.7047,41.0122],[-73.7129,41.0201],[-73.7175,41.0377],[-73.7216,41.0406],[-73.7183,41.0419],[-73.7187,41.0464],[-73.7168,41.0476],[-73.7158,41.0561],[-73.7181,41.0622],[-73.7104,41.071],[-73.7129,41.0747],[-73.7104,41.0762],[-73.7102,41.081],[-73.7042,41.0844],[-73.7118,41.1004],[-73.7198,41.1058],[-73.7148,41.1205],[-73.7226,41.1286],[-73.7292,41.127],[-73.7283,41.133],[-73.7332,41.139],[-73.7349,41.1463],[-73.7402,41.1446],[-73.748,41.1508],[-73.7483,41.1546]]]},"properties":{"objectid":2396,"tnmid":"{E3151758-3728-4202-872F-8D96ADC31F77}","metasourceid":"{511D2AC8-11BA-45FC-AB98-F69D693D4C44}","sourcedatadesc":"Watershed Boundary Dataset (WBD)","sourceoriginator":"Natural Resources and Conservation Service and U.S. Geological Survey","sourcefeatureid":null,"loaddate":1723803860000,"referencegnis_ids":"971944","areaacres":120530.49,"areasqkm":487.77,"states":"CT,NY","huc8":"02030102","name":"Bronx","globalid":"{3ACC1542-C786-4A05-AD19-204A1395F8DB}","shape_Length":207965.61975542884,"shape_Area":854727190.7751912}}]}